{"type": "FeatureCollection", "features": [{"type": "Feature", "geometry": {"type": "Polygon", "coordinates": [[[76.0, 119.0], [511.0, 119.0], [511.0, 511.0], [76.0, 511.0], [76.0, 119.0]]]}, "properties": {"region_id": 0, "capital": "Lainfall"}}, {"type": "Feature", "geometry": {"type": "Polygon", "coordinates": [[[0.0, 82.0], [276.0, 82.0], [276.0, 511.0], [0.0, 511.0], [0.0, 82.0]]]}, "properties": {"region_id": 1, "capital": "Navawick"}}, {"type": "Feature", "geometry": {"type": "Polygon", "coordinates": [[[0.0, 0.0], [511.0, 0.0], [511.0, 133.0], [0.0, 133.0], [0.0, 0.0]]]}, "properties": {"region_id": 2, "capital": "Caerglen"}}]}