{"type": "FeatureCollection", "features": [{"type": "Feature", "geometry": {"type": "LineString", "coordinates": [[423.0, 192.0], [424.0, 193.0], [425.0, 194.0], [426.0, 195.0], [427.0, 196.0], [428.0, 197.0], [429.0, 198.0], [430.0, 199.0], [431.0, 200.0], [432.0, 201.0], [433.0, 201.0], [434.0, 201.0], [435.0, 201.0], [436.0, 201.0], [437.0, 201.0]]}, "properties": {"id": 0}}, {"type": "Feature", "geometry": {"type": "LineString", "coordinates": [[136.0, 347.0], [137.0, 346.0], [138.0, 345.0], [139.0, 344.0], [140.0, 343.0], [141.0, 342.0], [140.0, 341.0], [139.0, 340.0], [139.0, 339.0], [139.0, 338.0], [139.0, 337.0], [139.0, 336.0], [139.0, 335.0], [140.0, 334.0], [141.0, 333.0], [142.0, 332.0], [143.0, 331.0], [144.0, 330.0], [144.0, 329.0], [144.0, 328.0], [144.0, 327.0], [144.0, 326.0], [144.0, 325.0], [144.0, 324.0], [144.0, 323.0], [144.0, 322.0], [144.0, 321.0], [144.0, 320.0], [144.0, 319.0], [144.0, 318.0], [144.0, 317.0], [144.0, 316.0]]}, "properties": {"id": 1}}, {"type": "Feature", "geometry": {"type": "LineString", "coordinates": [[85.0, 436.0], [86.0, 435.0], [87.0, 434.0], [88.0, 433.0], [89.0, 433.0], [90.0, 433.0], [91.0, 433.0], [92.0, 434.0]]}, "properties": {"id": 2}}, {"type": "Feature", "geometry": {"type": "LineString", "coordinates": [[393.0, 96.0], [392.0, 96.0], [391.0, 96.0], [390.0, 96.0], [389.0, 96.0], [388.0, 96.0], [387.0, 96.0], [386.0, 96.0], [385.0, 96.0], [384.0, 95.0]]}, "properties": {"id": 3}}, {"type": "Feature", "geometry": {"type": "LineString", "coordinates": [[31.0, 106.0], [32.0, 107.0], [33.0, 107.0], [34.0, 107.0], [35.0, 108.0], [36.0, 109.0], [37.0, 110.0], [38.0, 111.0], [39.0, 112.0], [40.0, 113.0], [41.0, 113.0]]}, "properties": {"id": 4}}, {"type": "Feature", "geometry": {"type": "LineString", "coordinates": [[167.0, 315.0], [166.0, 314.0], [165.0, 313.0], [164.0, 312.0], [163.0, 311.0], [164.0, 310.0], [165.0, 309.0], [166.0, 308.0], [167.0, 307.0], [168.0, 306.0], [169.0, 305.0], [170.0, 304.0], [171.0, 303.0], [172.0, 302.0], [173.0, 301.0]]}, "properties": {"id": 5}}, {"type": "Feature", "geometry": {"type": "LineString", "coordinates": [[35.0, 267.0], [34.0, 268.0], [33.0, 269.0], [32.0, 268.0], [31.0, 269.0], [30.0, 270.0], [29.0, 271.0], [28.0, 271.0], [27.0, 270.0], [26.0, 271.0], [25.0, 272.0], [24.0, 271.0], [23.0, 271.0], [22.0, 271.0]]}, "properties": {"id": 6}}, {"type": "Feature", "geometry": {"type": "LineString", "coordinates": [[310.0, 376.0], [311.0, 377.0], [312.0, 378.0], [313.0, 379.0], [314.0, 380.0], [315.0, 381.0], [316.0, 382.0], [316.0, 383.0], [316.0, 384.0]]}, "properties": {"id": 7}}, {"type": "Feature", "geometry": {"type": "LineString", "coordinates": [[239.0, 259.0], [238.0, 258.0], [237.0, 257.0], [236.0, 256.0], [236.0, 255.0], [236.0, 254.0], [236.0, 253.0], [236.0, 252.0], [236.0, 251.0], [235.0, 250.0]]}, "properties": {"id": 8}}, {"type": "Feature", "geometry": {"type": "LineString", "coordinates": [[432.0, 206.0], [433.0, 207.0], [434.0, 208.0], [435.0, 209.0], [436.0, 210.0], [437.0, 211.0], [438.0, 212.0], [439.0, 213.0], [440.0, 214.0], [441.0, 215.0], [442.0, 214.0], [443.0, 213.0], [444.0, 212.0], [444.0, 211.0]]}, "properties": {"id": 9}}, {"type": "Feature", "geometry": {"type": "LineString", "coordinates": [[215.0, 4.0], [214.0, 5.0], [213.0, 6.0], [212.0, 7.0], [212.0, 8.0], [213.0, 9.0], [214.0, 10.0], [215.0, 11.0], [216.0, 12.0], [217.0, 13.0], [217.0, 14.0], [218.0, 15.0], [219.0, 16.0], [220.0, 17.0], [221.0, 18.0], [222.0, 19.0], [223.0, 20.0], [224.0, 21.0], [224.0, 22.0], [224.0, 23.0], [224.0, 24.0], [224.0, 25.0], [224.0, 26.0], [224.0, 27.0], [224.0, 28.0], [224.0, 29.0], [224.0, 30.0], [224.0, 31.0], [224.0, 32.0], [224.0, 33.0], [224.0, 34.0], [223.0, 35.0], [222.0, 36.0], [221.0, 37.0]]}, "properties": {"id": 10}}, {"type": "Feature", "geometry": {"type": "LineString", "coordinates": [[252.0, 289.0], [252.0, 290.0], [253.0, 291.0], [254.0, 292.0], [255.0, 293.0], [256.0, 294.0], [256.0, 295.0], [257.0, 296.0], [257.0, 297.0], [258.0, 298.0], [259.0, 299.0], [260.0, 300.0], [261.0, 301.0]]}, "properties": {"id": 11}}, {"type": "Feature", "geometry": {"type": "LineString", "coordinates": [[211.0, 163.0], [210.0, 164.0], [209.0, 165.0], [208.0, 166.0], [207.0, 167.0], [206.0, 168.0], [205.0, 169.0], [204.0, 170.0], [203.0, 171.0], [202.0, 172.0], [201.0, 173.0], [200.0, 173.0], [199.0, 173.0], [198.0, 173.0], [197.0, 173.0], [196.0, 173.0]]}, "properties": {"id": 12}}, {"type": "Feature", "geometry": {"type": "LineString", "coordinates": [[212.0, 137.0], [211.0, 136.0], [210.0, 135.0], [209.0, 134.0], [208.0, 133.0], [207.0, 132.0], [206.0, 131.0], [205.0, 130.0], [204.0, 129.0], [203.0, 128.0], [202.0, 129.0], [201.0, 129.0], [200.0, 129.0], [199.0, 130.0], [199.0, 131.0], [198.0, 132.0], [197.0, 133.0], [196.0, 134.0]]}, "properties": {"id": 13}}, {"type": "Feature", "geometry": {"type": "LineString", "coordinates": [[264.0, 183.0], [265.0, 184.0], [266.0, 185.0], [267.0, 186.0], [268.0, 187.0], [269.0, 188.0], [268.0, 189.0], [267.0, 190.0], [266.0, 191.0], [265.0, 192.0], [264.0, 193.0], [263.0, 194.0], [262.0, 195.0], [261.0, 196.0], [260.0, 197.0], [259.0, 198.0], [258.0, 199.0], [257.0, 200.0], [257.0, 201.0]]}, "properties": {"id": 14}}, {"type": "Feature", "geometry": {"type": "LineString", "coordinates": [[439.0, 113.0], [438.0, 112.0], [437.0, 111.0], [436.0, 110.0], [435.0, 109.0], [434.0, 108.0], [433.0, 107.0], [432.0, 107.0]]}, "properties": {"id": 15}}, {"type": "Feature", "geometry": {"type": "LineString", "coordinates": [[374.0, 258.0], [373.0, 259.0], [372.0, 260.0], [371.0, 261.0], [371.0, 262.0], [370.0, 263.0], [369.0, 264.0], [368.0, 264.0], [367.0, 264.0], [366.0, 264.0], [365.0, 264.0], [364.0, 264.0], [363.0, 264.0], [362.0, 264.0], [361.0, 264.0], [360.0, 265.0], [359.0, 265.0], [358.0, 265.0], [357.0, 264.0], [356.0, 264.0], [355.0, 264.0], [354.0, 264.0], [353.0, 264.0], [352.0, 264.0], [351.0, 263.0], [350.0, 264.0], [349.0, 265.0], [348.0, 266.0], [348.0, 267.0], [349.0, 268.0], [349.0, 269.0], [350.0, 270.0], [351.0, 271.0], [351.0, 272.0]]}, "properties": {"id": 16}}, {"type": "Feature", "geometry": {"type": "LineString", "coordinates": [[237.0, 181.0], [236.0, 182.0], [235.0, 183.0], [234.0, 184.0], [233.0, 185.0], [232.0, 186.0], [231.0, 187.0], [230.0, 188.0], [229.0, 189.0], [228.0, 190.0], [228.0, 191.0], [228.0, 192.0], [228.0, 193.0], [228.0, 194.0], [228.0, 195.0], [228.0, 196.0], [228.0, 197.0], [228.0, 198.0], [228.0, 199.0], [229.0, 200.0], [230.0, 201.0]]}, "properties": {"id": 17}}, {"type": "Feature", "geometry": {"type": "LineString", "coordinates": [[191.0, 345.0], [192.0, 344.0], [193.0, 343.0], [194.0, 342.0], [195.0, 341.0], [196.0, 340.0], [197.0, 339.0], [198.0, 338.0], [199.0, 337.0], [200.0, 336.0], [201.0, 335.0], [202.0, 334.0], [203.0, 333.0], [204.0, 332.0], [205.0, 331.0], [206.0, 330.0], [207.0, 329.0], [208.0, 328.0], [208.0, 327.0], [208.0, 326.0], [208.0, 325.0], [208.0, 324.0], [207.0, 323.0]]}, "properties": {"id": 18}}, {"type": "Feature", "geometry": {"type": "LineString", "coordinates": [[33.0, 363.0], [32.0, 364.0], [31.0, 365.0], [30.0, 366.0], [29.0, 367.0], [28.0, 368.0], [27.0, 369.0], [26.0, 370.0], [25.0, 371.0], [24.0, 372.0], [23.0, 373.0], [23.0, 374.0], [23.0, 375.0], [23.0, 376.0], [24.0, 377.0]]}, "properties": {"id": 19}}, {"type": "Feature", "geometry": {"type": "LineString", "coordinates": [[167.0, 346.0], [168.0, 345.0], [169.0, 344.0], [170.0, 343.0], [171.0, 342.0], [172.0, 341.0], [173.0, 340.0], [174.0, 339.0], [175.0, 338.0], [175.0, 337.0], [176.0, 336.0], [176.0, 335.0], [176.0, 334.0], [176.0, 333.0], [175.0, 332.0], [174.0, 331.0], [173.0, 330.0], [172.0, 329.0], [171.0, 328.0], [170.0, 327.0], [169.0, 326.0], [168.0, 325.0], [167.0, 324.0], [167.0, 323.0], [167.0, 322.0], [168.0, 321.0], [168.0, 320.0], [167.0, 319.0], [167.0, 318.0], [166.0, 317.0], [165.0, 316.0], [164.0, 315.0], [163.0, 314.0], [162.0, 313.0], [161.0, 312.0], [162.0, 311.0], [163.0, 310.0], [164.0, 309.0], [165.0, 308.0], [166.0, 307.0], [167.0, 306.0], [168.0, 305.0], [169.0, 304.0], [170.0, 303.0], [171.0, 302.0], [172.0, 301.0], [173.0, 300.0]]}, "properties": {"id": 20}}, {"type": "Feature", "geometry": {"type": "LineString", "coordinates": [[217.0, 432.0], [218.0, 433.0], [219.0, 434.0], [220.0, 435.0], [221.0, 436.0], [222.0, 437.0], [223.0, 438.0], [224.0, 439.0], [225.0, 440.0], [226.0, 441.0], [227.0, 442.0], [228.0, 443.0], [229.0, 444.0], [230.0, 445.0], [231.0, 446.0], [232.0, 445.0], [233.0, 446.0], [234.0, 447.0], [235.0, 448.0], [236.0, 448.0]]}, "properties": {"id": 21}}, {"type": "Feature", "geometry": {"type": "LineString", "coordinates": [[492.0, 369.0], [491.0, 370.0], [490.0, 371.0], [489.0, 372.0], [488.0, 373.0], [488.0, 374.0], [487.0, 375.0], [486.0, 376.0], [485.0, 377.0], [484.0, 378.0], [483.0, 379.0], [483.0, 380.0], [483.0, 381.0], [483.0, 382.0], [483.0, 383.0], [483.0, 384.0]]}, "properties": {"id": 22}}, {"type": "Feature", "geometry": {"type": "LineString", "coordinates": [[24.0, 130.0], [25.0, 129.0], [26.0, 128.0], [27.0, 127.0], [28.0, 126.0], [29.0, 125.0], [30.0, 124.0], [31.0, 123.0], [32.0, 122.0], [33.0, 121.0], [34.0, 121.0], [35.0, 121.0]]}, "properties": {"id": 23}}, {"type": "Feature", "geometry": {"type": "LineString", "coordinates": [[338.0, 438.0], [337.0, 437.0], [337.0, 436.0], [336.0, 435.0], [335.0, 434.0], [334.0, 433.0], [333.0, 432.0], [332.0, 431.0], [331.0, 431.0], [330.0, 431.0]]}, "properties": {"id": 24}}, {"type": "Feature", "geometry": {"type": "LineString", "coordinates": [[67.0, 383.0], [66.0, 384.0], [65.0, 384.0], [64.0, 385.0], [63.0, 386.0], [62.0, 387.0], [61.0, 388.0], [60.0, 388.0], [59.0, 388.0]]}, "properties": {"id": 25}}, {"type": "Feature", "geometry": {"type": "LineString", "coordinates": [[480.0, 444.0], [481.0, 443.0], [482.0, 442.0], [483.0, 441.0], [484.0, 440.0], [485.0, 439.0], [486.0, 438.0], [487.0, 437.0], [488.0, 436.0], [489.0, 435.0], [490.0, 434.0], [491.0, 433.0], [492.0, 432.0], [493.0, 431.0], [494.0, 430.0], [495.0, 429.0], [496.0, 428.0], [497.0, 427.0], [498.0, 426.0], [499.0, 425.0], [500.0, 424.0], [501.0, 423.0], [502.0, 422.0], [503.0, 421.0], [504.0, 420.0], [504.0, 419.0], [504.0, 418.0]]}, "properties": {"id": 26}}, {"type": "Feature", "geometry": {"type": "LineString", "coordinates": [[491.0, 474.0], [492.0, 475.0], [493.0, 476.0], [494.0, 477.0], [495.0, 478.0], [496.0, 479.0], [497.0, 480.0], [497.0, 481.0]]}, "properties": {"id": 27}}, {"type": "Feature", "geometry": {"type": "LineString", "coordinates": [[151.0, 348.0], [150.0, 348.0], [149.0, 348.0], [148.0, 348.0], [147.0, 347.0], [146.0, 346.0], [145.0, 345.0], [144.0, 344.0], [144.0, 343.0], [144.0, 342.0], [143.0, 341.0], [142.0, 340.0], [141.0, 339.0], [140.0, 338.0], [139.0, 337.0]]}, "properties": {"id": 28}}, {"type": "Feature", "geometry": {"type": "LineString", "coordinates": [[6.0, 398.0], [7.0, 397.0], [8.0, 396.0], [9.0, 396.0], [10.0, 396.0], [11.0, 396.0], [12.0, 396.0], [13.0, 396.0], [14.0, 396.0], [15.0, 396.0], [16.0, 396.0], [17.0, 396.0], [18.0, 396.0], [19.0, 396.0]]}, "properties": {"id": 29}}, {"type": "Feature", "geometry": {"type": "LineString", "coordinates": [[329.0, 218.0], [328.0, 219.0], [327.0, 220.0], [326.0, 221.0], [325.0, 222.0], [324.0, 223.0], [323.0, 222.0], [322.0, 222.0], [321.0, 221.0], [320.0, 221.0]]}, "properties": {"id": 30}}, {"type": "Feature", "geometry": {"type": "LineString", "coordinates": [[183.0, 430.0], [182.0, 431.0], [181.0, 432.0], [180.0, 433.0], [179.0, 433.0], [178.0, 433.0], [177.0, 434.0], [176.0, 434.0], [175.0, 435.0], [174.0, 435.0], [173.0, 435.0], [172.0, 435.0], [171.0, 434.0], [170.0, 434.0], [169.0, 434.0], [168.0, 434.0], [167.0, 434.0], [166.0, 434.0], [165.0, 435.0], [164.0, 436.0], [163.0, 437.0], [162.0, 438.0], [161.0, 439.0], [160.0, 440.0], [159.0, 441.0], [158.0, 441.0], [157.0, 442.0], [156.0, 443.0], [156.0, 444.0], [155.0, 445.0], [155.0, 446.0], [155.0, 447.0], [155.0, 448.0]]}, "properties": {"id": 31}}, {"type": "Feature", "geometry": {"type": "LineString", "coordinates": [[451.0, 504.0], [450.0, 503.0], [449.0, 502.0], [448.0, 501.0], [447.0, 500.0], [446.0, 499.0], [445.0, 498.0], [444.0, 497.0], [443.0, 496.0], [442.0, 495.0], [441.0, 494.0], [440.0, 493.0], [440.0, 492.0], [440.0, 491.0], [440.0, 490.0], [439.0, 489.0], [438.0, 488.0]]}, "properties": {"id": 32}}, {"type": "Feature", "geometry": {"type": "LineString", "coordinates": [[311.0, 57.0], [310.0, 58.0], [309.0, 59.0], [308.0, 60.0], [307.0, 61.0], [306.0, 62.0], [305.0, 63.0], [304.0, 64.0], [303.0, 64.0], [302.0, 64.0], [301.0, 63.0], [300.0, 62.0], [299.0, 61.0], [298.0, 61.0], [297.0, 61.0], [296.0, 62.0], [295.0, 63.0], [294.0, 63.0], [293.0, 63.0], [292.0, 63.0], [291.0, 63.0], [290.0, 63.0], [289.0, 63.0], [288.0, 63.0], [287.0, 64.0]]}, "properties": {"id": 33}}, {"type": "Feature", "geometry": {"type": "LineString", "coordinates": [[301.0, 409.0], [302.0, 408.0], [303.0, 407.0], [304.0, 407.0], [305.0, 407.0], [306.0, 407.0], [307.0, 407.0], [308.0, 407.0], [309.0, 407.0], [310.0, 407.0], [311.0, 407.0], [312.0, 407.0], [313.0, 407.0], [314.0, 407.0], [315.0, 407.0], [316.0, 407.0], [317.0, 407.0], [318.0, 407.0], [319.0, 406.0], [320.0, 405.0], [321.0, 404.0], [321.0, 403.0], [321.0, 402.0], [321.0, 401.0], [321.0, 400.0], [320.0, 399.0], [321.0, 398.0], [321.0, 397.0], [322.0, 396.0], [322.0, 395.0], [321.0, 394.0], [321.0, 393.0], [321.0, 392.0]]}, "properties": {"id": 34}}, {"type": "Feature", "geometry": {"type": "LineString", "coordinates": [[357.0, 48.0], [358.0, 47.0], [359.0, 46.0], [360.0, 45.0], [361.0, 44.0], [362.0, 43.0], [363.0, 42.0], [364.0, 41.0], [365.0, 40.0], [366.0, 39.0], [367.0, 38.0], [368.0, 37.0]]}, "properties": {"id": 35}}, {"type": "Feature", "geometry": {"type": "LineString", "coordinates": [[47.0, 362.0], [46.0, 362.0], [45.0, 362.0], [44.0, 362.0], [43.0, 363.0], [42.0, 364.0], [41.0, 365.0], [40.0, 366.0], [39.0, 367.0], [38.0, 368.0], [37.0, 369.0], [36.0, 370.0], [35.0, 371.0], [34.0, 372.0], [33.0, 373.0], [32.0, 374.0], [31.0, 375.0], [30.0, 376.0], [29.0, 377.0], [28.0, 378.0], [27.0, 379.0], [26.0, 380.0], [27.0, 381.0], [27.0, 382.0], [28.0, 383.0], [28.0, 384.0], [28.0, 385.0], [27.0, 386.0], [27.0, 387.0], [27.0, 388.0], [26.0, 389.0], [25.0, 390.0], [24.0, 391.0], [23.0, 392.0], [22.0, 393.0], [21.0, 394.0], [20.0, 395.0], [19.0, 396.0]]}, "properties": {"id": 36}}, {"type": "Feature", "geometry": {"type": "LineString", "coordinates": [[332.0, 148.0], [331.0, 149.0], [330.0, 150.0], [329.0, 151.0], [328.0, 152.0], [327.0, 153.0], [326.0, 154.0], [325.0, 155.0], [324.0, 156.0], [323.0, 157.0], [322.0, 158.0], [321.0, 159.0], [320.0, 160.0], [320.0, 161.0], [320.0, 162.0]]}, "properties": {"id": 37}}, {"type": "Feature", "geometry": {"type": "LineString", "coordinates": [[68.0, 56.0], [69.0, 57.0], [70.0, 58.0], [71.0, 59.0], [72.0, 60.0], [71.0, 61.0], [70.0, 62.0], [69.0, 63.0], [68.0, 64.0], [67.0, 65.0], [66.0, 66.0], [66.0, 67.0], [67.0, 68.0], [66.0, 69.0], [65.0, 70.0], [65.0, 71.0]]}, "properties": {"id": 38}}, {"type": "Feature", "geometry": {"type": "LineString", "coordinates": [[248.0, 242.0], [247.0, 243.0], [246.0, 244.0], [245.0, 245.0], [244.0, 246.0], [243.0, 247.0], [242.0, 248.0], [241.0, 249.0], [240.0, 250.0], [239.0, 251.0], [238.0, 251.0], [237.0, 250.0], [236.0, 250.0], [235.0, 250.0]]}, "properties": {"id": 39}}, {"type": "Feature", "geometry": {"type": "LineString", "coordinates": [[494.0, 90.0], [493.0, 89.0], [492.0, 88.0], [491.0, 87.0], [490.0, 86.0], [489.0, 85.0], [490.0, 84.0], [491.0, 83.0], [491.0, 82.0], [491.0, 81.0], [492.0, 80.0], [492.0, 79.0], [492.0, 78.0], [492.0, 77.0], [492.0, 76.0], [492.0, 75.0]]}, "properties": {"id": 40}}, {"type": "Feature", "geometry": {"type": "LineString", "coordinates": [[202.0, 448.0], [203.0, 447.0], [204.0, 446.0], [205.0, 445.0], [206.0, 444.0], [207.0, 444.0], [208.0, 444.0], [209.0, 443.0], [210.0, 443.0], [211.0, 443.0], [212.0, 444.0], [213.0, 444.0], [214.0, 445.0], [215.0, 446.0], [216.0, 445.0], [217.0, 444.0], [218.0, 443.0], [219.0, 442.0], [220.0, 441.0], [221.0, 441.0], [222.0, 441.0], [223.0, 441.0], [224.0, 441.0], [225.0, 441.0], [226.0, 441.0]]}, "properties": {"id": 41}}, {"type": "Feature", "geometry": {"type": "LineString", "coordinates": [[214.0, 198.0], [215.0, 197.0], [216.0, 196.0], [217.0, 195.0], [218.0, 195.0], [219.0, 196.0], [220.0, 197.0], [221.0, 198.0], [222.0, 199.0], [223.0, 200.0], [224.0, 201.0], [225.0, 200.0], [226.0, 200.0], [227.0, 200.0], [228.0, 200.0], [229.0, 200.0]]}, "properties": {"id": 42}}, {"type": "Feature", "geometry": {"type": "LineString", "coordinates": [[66.0, 90.0], [67.0, 91.0], [68.0, 92.0], [69.0, 93.0], [70.0, 94.0], [71.0, 94.0], [72.0, 95.0], [73.0, 96.0], [74.0, 96.0]]}, "properties": {"id": 43}}, {"type": "Feature", "geometry": {"type": "LineString", "coordinates": [[367.0, 83.0], [368.0, 82.0], [369.0, 81.0], [370.0, 80.0], [371.0, 79.0], [372.0, 78.0], [373.0, 77.0], [374.0, 76.0], [375.0, 75.0], [376.0, 74.0], [376.0, 73.0], [376.0, 72.0], [376.0, 71.0]]}, "properties": {"id": 44}}, {"type": "Feature", "geometry": {"type": "LineString", "coordinates": [[207.0, 382.0], [208.0, 381.0], [209.0, 380.0], [210.0, 379.0], [211.0, 378.0], [212.0, 377.0], [213.0, 376.0], [214.0, 375.0], [215.0, 376.0], [216.0, 375.0], [217.0, 374.0], [218.0, 373.0], [219.0, 372.0], [220.0, 371.0], [221.0, 370.0], [222.0, 369.0], [223.0, 368.0], [224.0, 367.0], [225.0, 366.0], [225.0, 365.0]]}, "properties": {"id": 45}}, {"type": "Feature", "geometry": {"type": "LineString", "coordinates": [[384.0, 367.0], [385.0, 368.0], [386.0, 369.0], [387.0, 369.0], [388.0, 369.0], [389.0, 369.0], [390.0, 369.0], [391.0, 369.0], [392.0, 369.0], [393.0, 369.0], [394.0, 369.0], [395.0, 370.0], [396.0, 371.0], [397.0, 372.0], [398.0, 373.0], [399.0, 374.0], [400.0, 375.0], [401.0, 376.0]]}, "properties": {"id": 46}}, {"type": "Feature", "geometry": {"type": "LineString", "coordinates": [[236.0, 336.0], [235.0, 335.0], [234.0, 334.0], [235.0, 333.0], [236.0, 332.0], [237.0, 331.0], [238.0, 330.0], [239.0, 329.0], [240.0, 328.0], [241.0, 327.0], [242.0, 326.0], [243.0, 325.0], [244.0, 324.0], [245.0, 323.0], [246.0, 322.0], [247.0, 321.0], [248.0, 320.0], [249.0, 319.0], [250.0, 318.0], [251.0, 317.0], [252.0, 316.0], [253.0, 315.0], [254.0, 314.0], [255.0, 313.0], [256.0, 312.0], [256.0, 311.0], [256.0, 310.0]]}, "properties": {"id": 47}}, {"type": "Feature", "geometry": {"type": "LineString", "coordinates": [[352.0, 330.0], [351.0, 331.0], [350.0, 332.0], [349.0, 333.0], [348.0, 334.0], [347.0, 335.0], [346.0, 336.0], [345.0, 337.0], [344.0, 338.0], [343.0, 339.0], [342.0, 340.0], [343.0, 341.0], [343.0, 342.0], [343.0, 343.0], [343.0, 344.0], [343.0, 345.0]]}, "properties": {"id": 48}}, {"type": "Feature", "geometry": {"type": "LineString", "coordinates": [[78.0, 413.0], [77.0, 412.0], [76.0, 411.0], [75.0, 410.0], [74.0, 409.0], [73.0, 408.0], [72.0, 408.0], [71.0, 409.0], [70.0, 409.0], [69.0, 409.0], [68.0, 410.0], [67.0, 411.0], [66.0, 412.0], [65.0, 412.0], [64.0, 412.0], [63.0, 412.0], [62.0, 412.0], [61.0, 411.0], [60.0, 410.0], [59.0, 409.0], [58.0, 409.0], [57.0, 408.0], [56.0, 407.0], [55.0, 406.0], [54.0, 405.0], [53.0, 404.0], [52.0, 403.0], [51.0, 402.0], [50.0, 401.0], [49.0, 400.0], [48.0, 399.0], [47.0, 400.0], [46.0, 400.0], [45.0, 400.0], [44.0, 400.0], [43.0, 400.0]]}, "properties": {"id": 49}}, {"type": "Feature", "geometry": {"type": "LineString", "coordinates": [[377.0, 373.0], [378.0, 374.0], [379.0, 375.0], [380.0, 376.0], [381.0, 377.0], [382.0, 378.0], [383.0, 379.0], [384.0, 379.0]]}, "properties": {"id": 50}}, {"type": "Feature", "geometry": {"type": "LineString", "coordinates": [[233.0, 401.0], [232.0, 400.0], [231.0, 399.0], [230.0, 398.0], [230.0, 397.0], [229.0, 396.0], [229.0, 395.0], [228.0, 394.0], [228.0, 393.0], [228.0, 392.0], [228.0, 391.0]]}, "properties": {"id": 51}}, {"type": "Feature", "geometry": {"type": "LineString", "coordinates": [[166.0, 344.0], [165.0, 343.0], [164.0, 342.0], [163.0, 341.0], [163.0, 340.0], [163.0, 339.0], [164.0, 338.0], [164.0, 337.0], [164.0, 336.0], [165.0, 335.0], [166.0, 334.0], [167.0, 333.0], [168.0, 332.0], [169.0, 331.0], [169.0, 330.0], [169.0, 329.0], [168.0, 328.0], [168.0, 327.0], [168.0, 326.0], [168.0, 325.0]]}, "properties": {"id": 52}}, {"type": "Feature", "geometry": {"type": "LineString", "coordinates": [[333.0, 134.0], [334.0, 135.0], [335.0, 136.0], [336.0, 137.0], [336.0, 138.0], [336.0, 139.0], [336.0, 140.0], [336.0, 141.0], [336.0, 142.0], [336.0, 143.0], [336.0, 144.0], [336.0, 145.0], [336.0, 146.0], [335.0, 147.0], [335.0, 148.0], [335.0, 149.0], [335.0, 150.0], [335.0, 151.0], [335.0, 152.0], [335.0, 153.0], [335.0, 154.0], [335.0, 155.0], [334.0, 156.0], [335.0, 157.0], [335.0, 158.0], [335.0, 159.0], [335.0, 160.0], [335.0, 161.0], [334.0, 162.0], [333.0, 163.0], [332.0, 164.0], [331.0, 165.0], [330.0, 166.0], [329.0, 167.0], [328.0, 168.0], [327.0, 168.0]]}, "properties": {"id": 53}}, {"type": "Feature", "geometry": {"type": "LineString", "coordinates": [[242.0, 115.0], [241.0, 114.0], [240.0, 113.0], [239.0, 112.0], [238.0, 111.0], [237.0, 110.0], [236.0, 109.0], [235.0, 108.0], [234.0, 107.0], [233.0, 106.0], [232.0, 105.0], [231.0, 104.0], [230.0, 103.0], [229.0, 102.0], [228.0, 101.0], [227.0, 100.0], [226.0, 99.0], [225.0, 98.0], [224.0, 97.0], [223.0, 96.0], [222.0, 96.0], [221.0, 96.0], [220.0, 96.0], [219.0, 97.0]]}, "properties": {"id": 54}}, {"type": "Feature", "geometry": {"type": "LineString", "coordinates": [[428.0, 465.0], [429.0, 466.0], [430.0, 467.0], [431.0, 468.0], [432.0, 469.0], [433.0, 470.0], [434.0, 471.0], [435.0, 472.0], [436.0, 473.0], [437.0, 474.0], [438.0, 475.0], [439.0, 476.0]]}, "properties": {"id": 55}}, {"type": "Feature", "geometry": {"type": "LineString", "coordinates": [[51.0, 121.0], [52.0, 122.0], [53.0, 123.0], [54.0, 124.0], [55.0, 125.0], [56.0, 126.0], [57.0, 127.0], [58.0, 128.0], [59.0, 129.0], [60.0, 130.0], [61.0, 129.0], [62.0, 130.0], [63.0, 131.0], [64.0, 131.0], [65.0, 131.0], [66.0, 131.0], [67.0, 131.0], [68.0, 130.0], [69.0, 130.0], [70.0, 129.0], [71.0, 128.0], [72.0, 127.0], [73.0, 127.0], [74.0, 127.0], [75.0, 128.0], [76.0, 128.0], [77.0, 128.0], [78.0, 128.0], [79.0, 128.0]]}, "properties": {"id": 56}}, {"type": "Feature", "geometry": {"type": "LineString", "coordinates": [[121.0, 304.0], [122.0, 305.0], [123.0, 306.0], [122.0, 307.0], [122.0, 308.0], [121.0, 309.0], [120.0, 310.0], [119.0, 311.0], [118.0, 312.0], [117.0, 312.0], [116.0, 312.0]]}, "properties": {"id": 57}}, {"type": "Feature", "geometry": {"type": "LineString", "coordinates": [[204.0, 425.0], [205.0, 426.0], [206.0, 427.0], [207.0, 428.0], [208.0, 429.0], [209.0, 430.0], [210.0, 431.0], [211.0, 432.0], [212.0, 433.0], [213.0, 434.0], [214.0, 435.0], [215.0, 436.0], [216.0, 437.0], [217.0, 437.0], [218.0, 438.0], [219.0, 439.0], [220.0, 440.0], [221.0, 441.0]]}, "properties": {"id": 58}}, {"type": "Feature", "geometry": {"type": "LineString", "coordinates": [[450.0, 65.0], [449.0, 64.0], [448.0, 63.0], [447.0, 62.0], [446.0, 61.0], [445.0, 60.0], [444.0, 59.0], [443.0, 60.0], [442.0, 60.0], [441.0, 60.0], [440.0, 60.0], [439.0, 60.0], [438.0, 60.0], [437.0, 60.0], [436.0, 59.0], [435.0, 58.0], [434.0, 57.0], [433.0, 56.0], [432.0, 55.0], [431.0, 55.0], [430.0, 55.0], [429.0, 54.0], [428.0, 53.0], [427.0, 52.0], [426.0, 51.0], [425.0, 50.0], [424.0, 49.0], [424.0, 48.0], [424.0, 47.0], [424.0, 46.0]]}, "properties": {"id": 59}}, {"type": "Feature", "geometry": {"type": "LineString", "coordinates": [[120.0, 33.0], [119.0, 34.0], [118.0, 35.0], [117.0, 36.0], [116.0, 37.0], [115.0, 38.0], [114.0, 39.0], [113.0, 40.0], [112.0, 41.0], [111.0, 42.0], [110.0, 43.0], [109.0, 44.0], [109.0, 45.0], [109.0, 46.0], [110.0, 47.0], [111.0, 48.0], [112.0, 49.0], [113.0, 50.0], [113.0, 51.0], [113.0, 52.0], [114.0, 53.0], [114.0, 54.0], [114.0, 55.0], [114.0, 56.0], [114.0, 57.0]]}, "properties": {"id": 60}}, {"type": "Feature", "geometry": {"type": "LineString", "coordinates": [[2.0, 218.0], [3.0, 217.0], [4.0, 216.0], [5.0, 215.0], [6.0, 214.0], [7.0, 213.0], [8.0, 212.0], [8.0, 211.0], [8.0, 210.0], [8.0, 209.0], [8.0, 208.0], [8.0, 207.0], [8.0, 206.0], [8.0, 205.0], [8.0, 204.0], [8.0, 203.0]]}, "properties": {"id": 61}}, {"type": "Feature", "geometry": {"type": "LineString", "coordinates": [[398.0, 210.0], [397.0, 211.0], [396.0, 212.0], [395.0, 213.0], [394.0, 213.0], [393.0, 212.0], [392.0, 212.0], [391.0, 212.0], [390.0, 211.0], [389.0, 211.0], [388.0, 211.0], [387.0, 211.0], [386.0, 210.0], [385.0, 210.0], [384.0, 210.0], [383.0, 210.0], [382.0, 210.0], [381.0, 210.0]]}, "properties": {"id": 62}}, {"type": "Feature", "geometry": {"type": "LineString", "coordinates": [[162.0, 395.0], [161.0, 394.0], [160.0, 393.0], [159.0, 392.0], [159.0, 391.0], [159.0, 390.0], [159.0, 389.0], [159.0, 388.0], [159.0, 387.0]]}, "properties": {"id": 63}}, {"type": "Feature", "geometry": {"type": "LineString", "coordinates": [[347.0, 166.0], [348.0, 167.0], [349.0, 168.0], [350.0, 169.0], [351.0, 170.0], [352.0, 171.0], [352.0, 172.0], [352.0, 173.0], [352.0, 174.0], [352.0, 175.0], [352.0, 176.0], [352.0, 177.0]]}, "properties": {"id": 64}}, {"type": "Feature", "geometry": {"type": "LineString", "coordinates": [[255.0, 450.0], [256.0, 451.0], [256.0, 452.0], [256.0, 453.0], [256.0, 454.0], [255.0, 455.0], [254.0, 456.0], [253.0, 456.0], [252.0, 456.0]]}, "properties": {"id": 65}}, {"type": "Feature", "geometry": {"type": "LineString", "coordinates": [[238.0, 161.0], [237.0, 162.0], [236.0, 163.0], [235.0, 164.0], [234.0, 165.0], [233.0, 166.0], [232.0, 167.0], [231.0, 168.0], [231.0, 169.0], [231.0, 170.0], [231.0, 171.0], [232.0, 172.0], [232.0, 173.0]]}, "properties": {"id": 66}}, {"type": "Feature", "geometry": {"type": "LineString", "coordinates": [[73.0, 157.0], [74.0, 156.0], [75.0, 155.0], [76.0, 154.0], [77.0, 153.0], [78.0, 152.0], [79.0, 151.0], [80.0, 150.0], [81.0, 149.0], [82.0, 148.0], [83.0, 147.0]]}, "properties": {"id": 67}}, {"type": "Feature", "geometry": {"type": "LineString", "coordinates": [[181.0, 495.0], [182.0, 494.0], [183.0, 493.0], [184.0, 492.0], [185.0, 491.0], [186.0, 490.0], [187.0, 489.0], [188.0, 488.0], [189.0, 487.0], [190.0, 486.0], [191.0, 485.0], [192.0, 484.0], [192.0, 483.0], [192.0, 482.0], [192.0, 481.0], [192.0, 480.0], [192.0, 479.0], [192.0, 478.0], [192.0, 477.0]]}, "properties": {"id": 68}}, {"type": "Feature", "geometry": {"type": "LineString", "coordinates": [[500.0, 393.0], [499.0, 394.0], [498.0, 395.0], [499.0, 396.0], [499.0, 397.0], [498.0, 398.0], [497.0, 399.0], [496.0, 399.0]]}, "properties": {"id": 69}}, {"type": "Feature", "geometry": {"type": "LineString", "coordinates": [[192.0, 315.0], [193.0, 314.0], [194.0, 313.0], [195.0, 312.0], [196.0, 311.0], [197.0, 310.0], [197.0, 309.0], [196.0, 308.0], [196.0, 307.0], [196.0, 306.0], [195.0, 305.0], [194.0, 304.0], [193.0, 303.0], [192.0, 302.0], [192.0, 301.0], [192.0, 300.0]]}, "properties": {"id": 70}}, {"type": "Feature", "geometry": {"type": "LineString", "coordinates": [[491.0, 442.0], [492.0, 443.0], [493.0, 444.0], [494.0, 445.0], [495.0, 446.0], [496.0, 447.0], [497.0, 448.0], [498.0, 448.0], [499.0, 448.0], [500.0, 448.0], [501.0, 448.0], [502.0, 447.0], [503.0, 447.0], [504.0, 447.0], [505.0, 448.0], [506.0, 448.0], [507.0, 448.0], [508.0, 448.0]]}, "properties": {"id": 71}}, {"type": "Feature", "geometry": {"type": "LineString", "coordinates": [[475.0, 79.0], [475.0, 78.0], [475.0, 77.0], [475.0, 76.0], [474.0, 75.0], [473.0, 74.0], [472.0, 73.0], [471.0, 72.0], [470.0, 71.0], [469.0, 70.0], [468.0, 70.0], [467.0, 69.0], [466.0, 68.0], [465.0, 67.0], [464.0, 66.0], [463.0, 65.0], [463.0, 64.0], [463.0, 63.0]]}, "properties": {"id": 72}}, {"type": "Feature", "geometry": {"type": "LineString", "coordinates": [[414.0, 180.0], [413.0, 181.0], [412.0, 182.0], [412.0, 183.0], [412.0, 184.0], [412.0, 185.0], [412.0, 186.0], [412.0, 187.0], [412.0, 188.0], [412.0, 189.0], [412.0, 190.0], [412.0, 191.0], [412.0, 192.0], [412.0, 193.0], [413.0, 194.0], [413.0, 195.0], [412.0, 196.0], [411.0, 197.0], [412.0, 198.0], [412.0, 199.0], [412.0, 200.0], [412.0, 201.0], [412.0, 202.0], [412.0, 203.0], [412.0, 204.0], [412.0, 205.0], [412.0, 206.0], [412.0, 207.0], [412.0, 208.0], [412.0, 209.0]]}, "properties": {"id": 73}}, {"type": "Feature", "geometry": {"type": "LineString", "coordinates": [[340.0, 336.0], [339.0, 337.0], [338.0, 338.0], [337.0, 339.0], [336.0, 340.0], [335.0, 341.0], [334.0, 342.0], [333.0, 343.0], [332.0, 344.0], [331.0, 344.0], [330.0, 344.0], [329.0, 344.0], [328.0, 345.0], [327.0, 345.0]]}, "properties": {"id": 74}}, {"type": "Feature", "geometry": {"type": "LineString", "coordinates": [[382.0, 218.0], [381.0, 217.0], [380.0, 216.0], [379.0, 215.0], [378.0, 214.0], [377.0, 213.0], [378.0, 212.0], [379.0, 211.0], [380.0, 210.0], [381.0, 210.0]]}, "properties": {"id": 75}}, {"type": "Feature", "geometry": {"type": "LineString", "coordinates": [[355.0, 189.0], [354.0, 190.0], [353.0, 191.0], [352.0, 192.0], [351.0, 193.0], [350.0, 193.0], [349.0, 193.0], [348.0, 193.0]]}, "properties": {"id": 76}}, {"type": "Feature", "geometry": {"type": "LineString", "coordinates": [[168.0, 34.0], [167.0, 35.0], [166.0, 36.0], [165.0, 37.0], [164.0, 38.0], [163.0, 39.0], [162.0, 40.0], [161.0, 41.0], [160.0, 42.0], [159.0, 43.0], [158.0, 44.0], [157.0, 45.0], [156.0, 46.0], [155.0, 47.0], [154.0, 48.0], [153.0, 49.0], [152.0, 50.0], [151.0, 51.0], [150.0, 52.0], [149.0, 53.0], [148.0, 54.0], [147.0, 55.0], [146.0, 56.0], [145.0, 57.0], [144.0, 58.0], [143.0, 59.0], [142.0, 60.0]]}, "properties": {"id": 77}}, {"type": "Feature", "geometry": {"type": "LineString", "coordinates": [[462.0, 324.0], [463.0, 325.0], [464.0, 326.0], [465.0, 327.0], [466.0, 328.0], [467.0, 329.0], [468.0, 330.0], [469.0, 331.0], [469.0, 332.0], [469.0, 333.0], [469.0, 334.0], [470.0, 335.0], [471.0, 336.0], [472.0, 336.0]]}, "properties": {"id": 78}}, {"type": "Feature", "geometry": {"type": "LineString", "coordinates": [[17.0, 479.0], [16.0, 480.0], [15.0, 480.0], [14.0, 480.0], [13.0, 480.0], [12.0, 480.0], [11.0, 480.0], [10.0, 480.0], [9.0, 479.0], [8.0, 478.0], [7.0, 477.0], [6.0, 477.0], [5.0, 477.0], [4.0, 477.0], [3.0, 477.0], [2.0, 477.0], [1.0, 477.0], [0.0, 477.0]]}, "properties": {"id": 79}}, {"type": "Feature", "geometry": {"type": "LineString", "coordinates": [[378.0, 291.0], [377.0, 292.0], [376.0, 293.0], [375.0, 294.0], [376.0, 295.0], [377.0, 296.0], [378.0, 296.0], [379.0, 296.0]]}, "properties": {"id": 80}}, {"type": "Feature", "geometry": {"type": "LineString", "coordinates": [[333.0, 314.0], [332.0, 313.0], [331.0, 312.0], [330.0, 311.0], [329.0, 310.0], [328.0, 309.0], [327.0, 308.0], [326.0, 308.0], [325.0, 307.0], [324.0, 306.0], [323.0, 305.0], [322.0, 305.0], [321.0, 305.0], [320.0, 305.0]]}, "properties": {"id": 81}}, {"type": "Feature", "geometry": {"type": "LineString", "coordinates": [[61.0, 275.0], [62.0, 274.0], [63.0, 273.0], [64.0, 272.0], [65.0, 271.0], [66.0, 270.0], [67.0, 269.0], [68.0, 268.0], [69.0, 267.0], [70.0, 266.0], [70.0, 265.0], [70.0, 264.0], [69.0, 263.0], [68.0, 262.0]]}, "properties": {"id": 82}}, {"type": "Feature", "geometry": {"type": "LineString", "coordinates": [[191.0, 424.0], [190.0, 425.0], [189.0, 426.0], [188.0, 427.0], [187.0, 426.0], [186.0, 425.0], [185.0, 425.0], [184.0, 425.0], [183.0, 425.0], [182.0, 425.0], [181.0, 425.0], [180.0, 425.0], [179.0, 424.0], [178.0, 424.0], [177.0, 424.0], [176.0, 424.0], [175.0, 425.0], [174.0, 426.0], [173.0, 427.0], [172.0, 428.0], [171.0, 429.0], [170.0, 430.0], [169.0, 431.0], [168.0, 432.0], [167.0, 433.0], [166.0, 434.0]]}, "properties": {"id": 83}}, {"type": "Feature", "geometry": {"type": "LineString", "coordinates": [[341.0, 271.0], [341.0, 270.0], [341.0, 269.0], [341.0, 268.0], [342.0, 267.0], [343.0, 266.0], [344.0, 265.0], [345.0, 264.0], [346.0, 263.0], [346.0, 262.0], [345.0, 261.0], [344.0, 260.0], [343.0, 259.0], [342.0, 258.0], [341.0, 257.0], [340.0, 256.0], [339.0, 256.0]]}, "properties": {"id": 84}}, {"type": "Feature", "geometry": {"type": "LineString", "coordinates": [[241.0, 284.0], [242.0, 285.0], [241.0, 286.0], [240.0, 287.0], [239.0, 288.0], [238.0, 289.0], [237.0, 290.0], [237.0, 291.0], [237.0, 292.0]]}, "properties": {"id": 85}}, {"type": "Feature", "geometry": {"type": "LineString", "coordinates": [[121.0, 438.0], [120.0, 439.0], [119.0, 440.0], [118.0, 440.0], [117.0, 440.0], [116.0, 440.0], [115.0, 440.0], [114.0, 440.0], [113.0, 440.0], [112.0, 440.0], [111.0, 440.0], [110.0, 440.0], [109.0, 440.0], [108.0, 440.0]]}, "properties": {"id": 86}}, {"type": "Feature", "geometry": {"type": "LineString", "coordinates": [[363.0, 71.0], [364.0, 70.0], [365.0, 69.0], [366.0, 68.0], [367.0, 67.0], [368.0, 66.0], [369.0, 65.0], [370.0, 64.0], [371.0, 63.0], [372.0, 62.0], [373.0, 61.0], [374.0, 60.0], [375.0, 59.0], [376.0, 58.0], [377.0, 58.0], [378.0, 57.0], [379.0, 56.0], [380.0, 55.0], [381.0, 54.0], [382.0, 53.0], [383.0, 52.0]]}, "properties": {"id": 87}}, {"type": "Feature", "geometry": {"type": "LineString", "coordinates": [[354.0, 80.0], [355.0, 80.0], [356.0, 80.0], [357.0, 80.0], [358.0, 80.0], [359.0, 80.0], [360.0, 80.0], [361.0, 80.0], [362.0, 80.0], [363.0, 80.0], [364.0, 80.0], [365.0, 80.0], [366.0, 80.0], [367.0, 79.0], [368.0, 78.0], [369.0, 77.0], [370.0, 76.0], [371.0, 75.0], [372.0, 74.0], [373.0, 73.0], [374.0, 72.0], [375.0, 71.0], [376.0, 71.0]]}, "properties": {"id": 88}}, {"type": "Feature", "geometry": {"type": "LineString", "coordinates": [[252.0, 111.0], [251.0, 110.0], [250.0, 109.0], [249.0, 108.0], [248.0, 107.0], [247.0, 106.0], [247.0, 105.0], [247.0, 104.0], [247.0, 103.0], [247.0, 102.0], [247.0, 101.0], [247.0, 100.0], [247.0, 99.0], [246.0, 98.0], [245.0, 97.0], [244.0, 96.0], [243.0, 96.0], [242.0, 96.0], [241.0, 96.0], [240.0, 96.0], [239.0, 96.0], [238.0, 96.0], [237.0, 96.0], [236.0, 96.0], [235.0, 96.0], [234.0, 96.0], [233.0, 96.0], [232.0, 96.0], [231.0, 96.0], [230.0, 96.0], [229.0, 96.0], [228.0, 96.0], [227.0, 96.0], [226.0, 95.0], [225.0, 95.0], [224.0, 95.0], [223.0, 96.0]]}, "properties": {"id": 89}}, {"type": "Feature", "geometry": {"type": "LineString", "coordinates": [[237.0, 217.0], [236.0, 216.0], [235.0, 215.0], [234.0, 214.0], [233.0, 213.0], [232.0, 212.0], [231.0, 211.0], [231.0, 210.0], [231.0, 209.0], [230.0, 208.0]]}, "properties": {"id": 90}}, {"type": "Feature", "geometry": {"type": "LineString", "coordinates": [[496.0, 111.0], [497.0, 111.0], [498.0, 111.0], [499.0, 111.0], [500.0, 111.0], [501.0, 110.0], [502.0, 110.0], [503.0, 110.0], [504.0, 109.0], [505.0, 109.0]]}, "properties": {"id": 91}}, {"type": "Feature", "geometry": {"type": "LineString", "coordinates": [[448.0, 433.0], [448.0, 434.0], [448.0, 435.0], [448.0, 436.0], [448.0, 437.0], [448.0, 438.0], [448.0, 439.0], [448.0, 440.0], [448.0, 441.0], [448.0, 442.0], [448.0, 443.0], [447.0, 444.0]]}, "properties": {"id": 92}}, {"type": "Feature", "geometry": {"type": "LineString", "coordinates": [[358.0, 160.0], [357.0, 161.0], [356.0, 162.0], [355.0, 163.0], [354.0, 164.0], [353.0, 165.0], [352.0, 166.0], [352.0, 167.0], [352.0, 168.0], [352.0, 169.0], [352.0, 170.0], [352.0, 171.0]]}, "properties": {"id": 93}}, {"type": "Feature", "geometry": {"type": "LineString", "coordinates": [[438.0, 324.0], [439.0, 325.0], [440.0, 326.0], [441.0, 327.0], [442.0, 328.0], [443.0, 329.0], [444.0, 330.0], [444.0, 331.0], [444.0, 332.0], [445.0, 333.0], [446.0, 334.0], [447.0, 335.0], [448.0, 336.0], [448.0, 337.0], [448.0, 338.0], [448.0, 339.0], [448.0, 340.0], [448.0, 341.0], [448.0, 342.0], [448.0, 343.0], [448.0, 344.0]]}, "properties": {"id": 94}}, {"type": "Feature", "geometry": {"type": "LineString", "coordinates": [[3.0, 40.0], [4.0, 41.0], [5.0, 42.0], [6.0, 43.0], [7.0, 44.0], [8.0, 45.0], [8.0, 46.0], [8.0, 47.0], [8.0, 48.0]]}, "properties": {"id": 95}}, {"type": "Feature", "geometry": {"type": "LineString", "coordinates": [[508.0, 131.0], [509.0, 130.0], [510.0, 129.0], [511.0, 128.0], [511.0, 127.0], [510.0, 126.0], [509.0, 125.0], [509.0, 124.0], [509.0, 123.0]]}, "properties": {"id": 96}}, {"type": "Feature", "geometry": {"type": "LineString", "coordinates": [[346.0, 97.0], [347.0, 96.0], [348.0, 95.0], [349.0, 96.0], [350.0, 96.0], [351.0, 96.0], [352.0, 96.0], [353.0, 96.0], [354.0, 96.0], [355.0, 96.0], [356.0, 96.0], [357.0, 96.0], [358.0, 96.0], [359.0, 96.0], [360.0, 95.0], [360.0, 94.0]]}, "properties": {"id": 97}}, {"type": "Feature", "geometry": {"type": "LineString", "coordinates": [[238.0, 414.0], [239.0, 415.0], [240.0, 416.0], [241.0, 417.0], [242.0, 416.0], [243.0, 416.0], [244.0, 416.0], [245.0, 416.0], [246.0, 416.0], [247.0, 416.0], [248.0, 416.0]]}, "properties": {"id": 98}}, {"type": "Feature", "geometry": {"type": "LineString", "coordinates": [[205.0, 161.0], [204.0, 162.0], [203.0, 163.0], [202.0, 164.0], [201.0, 165.0], [200.0, 166.0], [199.0, 166.0], [198.0, 166.0], [197.0, 165.0], [196.0, 165.0], [195.0, 164.0], [194.0, 163.0], [193.0, 162.0], [192.0, 161.0], [191.0, 160.0], [190.0, 159.0], [189.0, 158.0]]}, "properties": {"id": 99}}, {"type": "Feature", "geometry": {"type": "LineString", "coordinates": [[265.0, 66.0], [266.0, 67.0], [267.0, 68.0], [268.0, 69.0], [269.0, 70.0], [270.0, 71.0], [271.0, 72.0], [272.0, 72.0], [273.0, 72.0]]}, "properties": {"id": 100}}, {"type": "Feature", "geometry": {"type": "LineString", "coordinates": [[400.0, 340.0], [400.0, 341.0], [400.0, 342.0], [400.0, 343.0], [400.0, 344.0], [400.0, 345.0], [400.0, 346.0], [400.0, 347.0], [400.0, 348.0], [400.0, 349.0], [400.0, 350.0], [400.0, 351.0], [400.0, 352.0], [401.0, 353.0], [402.0, 354.0], [403.0, 355.0], [404.0, 356.0], [404.0, 357.0], [404.0, 358.0], [404.0, 359.0], [404.0, 360.0], [404.0, 361.0], [404.0, 362.0], [405.0, 363.0], [405.0, 364.0], [405.0, 365.0], [406.0, 366.0], [406.0, 367.0], [406.0, 368.0], [406.0, 369.0], [406.0, 370.0], [406.0, 371.0], [405.0, 372.0], [405.0, 373.0], [406.0, 374.0], [407.0, 375.0], [408.0, 376.0], [409.0, 377.0], [409.0, 378.0], [409.0, 379.0], [409.0, 380.0], [409.0, 381.0], [409.0, 382.0], [410.0, 383.0], [411.0, 384.0], [412.0, 384.0], [413.0, 384.0], [414.0, 384.0]]}, "properties": {"id": 101}}, {"type": "Feature", "geometry": {"type": "LineString", "coordinates": [[43.0, 2.0], [44.0, 3.0], [45.0, 4.0], [44.0, 5.0], [43.0, 6.0], [43.0, 7.0], [43.0, 8.0], [42.0, 9.0], [41.0, 10.0], [40.0, 11.0], [39.0, 12.0], [38.0, 13.0], [37.0, 14.0], [36.0, 15.0], [35.0, 16.0], [34.0, 17.0], [33.0, 17.0], [32.0, 16.0], [31.0, 15.0], [30.0, 16.0], [29.0, 16.0], [28.0, 16.0], [27.0, 16.0], [26.0, 16.0], [25.0, 16.0], [24.0, 16.0]]}, "properties": {"id": 102}}, {"type": "Feature", "geometry": {"type": "LineString", "coordinates": [[413.0, 240.0], [413.0, 239.0], [414.0, 238.0], [415.0, 237.0], [416.0, 236.0], [417.0, 235.0], [418.0, 234.0], [419.0, 233.0], [420.0, 232.0], [421.0, 231.0], [422.0, 230.0], [422.0, 229.0], [421.0, 228.0], [420.0, 227.0], [419.0, 226.0]]}, "properties": {"id": 103}}, {"type": "Feature", "geometry": {"type": "LineString", "coordinates": [[338.0, 109.0], [339.0, 110.0], [340.0, 111.0], [341.0, 112.0], [342.0, 113.0], [343.0, 114.0], [344.0, 115.0], [345.0, 116.0], [346.0, 116.0], [347.0, 116.0], [348.0, 116.0], [349.0, 116.0], [350.0, 116.0], [351.0, 116.0], [352.0, 116.0], [353.0, 116.0], [354.0, 116.0], [355.0, 116.0], [356.0, 116.0], [357.0, 116.0], [358.0, 116.0]]}, "properties": {"id": 104}}, {"type": "Feature", "geometry": {"type": "LineString", "coordinates": [[479.0, 347.0], [478.0, 346.0], [477.0, 345.0], [476.0, 344.0], [475.0, 343.0], [474.0, 342.0], [473.0, 341.0], [472.0, 340.0], [471.0, 341.0], [470.0, 342.0], [469.0, 343.0], [468.0, 344.0], [467.0, 345.0], [466.0, 346.0], [465.0, 347.0], [464.0, 348.0], [464.0, 349.0], [463.0, 350.0], [463.0, 351.0], [463.0, 352.0], [463.0, 353.0], [463.0, 354.0], [463.0, 355.0], [463.0, 356.0], [463.0, 357.0], [462.0, 358.0], [461.0, 359.0], [460.0, 360.0], [460.0, 361.0], [460.0, 362.0], [460.0, 363.0], [460.0, 364.0]]}, "properties": {"id": 105}}, {"type": "Feature", "geometry": {"type": "LineString", "coordinates": [[83.0, 268.0], [84.0, 267.0], [85.0, 266.0], [86.0, 265.0], [87.0, 264.0], [88.0, 263.0], [89.0, 262.0], [90.0, 261.0], [91.0, 260.0], [92.0, 259.0], [92.0, 258.0]]}, "properties": {"id": 106}}, {"type": "Feature", "geometry": {"type": "LineString", "coordinates": [[495.0, 499.0], [494.0, 498.0], [493.0, 497.0], [492.0, 496.0], [491.0, 495.0], [490.0, 494.0], [489.0, 493.0], [489.0, 492.0]]}, "properties": {"id": 107}}, {"type": "Feature", "geometry": {"type": "LineString", "coordinates": [[111.0, 403.0], [112.0, 404.0], [113.0, 405.0], [114.0, 406.0], [115.0, 407.0], [116.0, 408.0], [117.0, 409.0], [118.0, 410.0], [119.0, 410.0], [120.0, 410.0], [121.0, 410.0], [122.0, 411.0], [123.0, 412.0], [124.0, 413.0], [125.0, 414.0], [126.0, 415.0], [127.0, 416.0], [128.0, 417.0]]}, "properties": {"id": 108}}, {"type": "Feature", "geometry": {"type": "LineString", "coordinates": [[51.0, 320.0], [50.0, 319.0], [50.0, 318.0], [51.0, 317.0], [51.0, 316.0], [51.0, 315.0], [51.0, 314.0], [51.0, 313.0], [51.0, 312.0], [50.0, 311.0]]}, "properties": {"id": 109}}, {"type": "Feature", "geometry": {"type": "LineString", "coordinates": [[120.0, 377.0], [121.0, 376.0], [122.0, 375.0], [123.0, 374.0], [124.0, 373.0], [125.0, 372.0], [126.0, 371.0], [127.0, 370.0], [128.0, 369.0], [127.0, 368.0], [126.0, 367.0]]}, "properties": {"id": 110}}, {"type": "Feature", "geometry": {"type": "LineString", "coordinates": [[502.0, 481.0], [503.0, 480.0], [504.0, 479.0], [505.0, 478.0], [506.0, 477.0], [507.0, 477.0], [508.0, 477.0], [509.0, 477.0], [510.0, 478.0], [511.0, 477.0]]}, "properties": {"id": 111}}, {"type": "Feature", "geometry": {"type": "LineString", "coordinates": [[387.0, 268.0], [388.0, 269.0], [389.0, 270.0], [390.0, 271.0], [391.0, 272.0], [391.0, 273.0], [390.0, 274.0], [389.0, 275.0], [388.0, 276.0], [388.0, 277.0]]}, "properties": {"id": 112}}, {"type": "Feature", "geometry": {"type": "LineString", "coordinates": [[353.0, 36.0], [353.0, 35.0], [353.0, 34.0], [354.0, 33.0], [355.0, 32.0], [356.0, 31.0], [357.0, 30.0], [358.0, 29.0], [359.0, 28.0], [360.0, 27.0], [361.0, 26.0], [362.0, 25.0]]}, "properties": {"id": 113}}, {"type": "Feature", "geometry": {"type": "LineString", "coordinates": [[31.0, 83.0], [32.0, 84.0], [33.0, 84.0], [34.0, 84.0], [35.0, 84.0], [36.0, 84.0], [37.0, 84.0], [38.0, 83.0], [39.0, 82.0], [40.0, 81.0], [41.0, 80.0], [42.0, 79.0], [43.0, 78.0], [44.0, 77.0], [45.0, 76.0], [46.0, 75.0], [47.0, 74.0], [48.0, 74.0], [49.0, 73.0], [50.0, 72.0], [51.0, 72.0], [52.0, 72.0], [53.0, 72.0], [54.0, 72.0], [55.0, 72.0], [56.0, 72.0], [57.0, 72.0]]}, "properties": {"id": 114}}, {"type": "Feature", "geometry": {"type": "LineString", "coordinates": [[385.0, 448.0], [384.0, 449.0], [383.0, 450.0], [382.0, 451.0], [381.0, 452.0], [380.0, 453.0], [379.0, 454.0], [378.0, 455.0], [378.0, 456.0], [378.0, 457.0], [379.0, 458.0], [380.0, 459.0], [381.0, 460.0], [382.0, 461.0], [383.0, 462.0], [384.0, 463.0], [384.0, 464.0], [384.0, 465.0], [384.0, 466.0], [384.0, 467.0], [384.0, 468.0]]}, "properties": {"id": 115}}, {"type": "Feature", "geometry": {"type": "LineString", "coordinates": [[429.0, 450.0], [428.0, 451.0], [427.0, 452.0], [426.0, 453.0], [425.0, 454.0], [424.0, 455.0], [425.0, 456.0], [426.0, 457.0], [427.0, 458.0], [428.0, 459.0], [428.0, 460.0], [428.0, 461.0], [428.0, 462.0], [429.0, 463.0], [430.0, 464.0], [431.0, 465.0], [432.0, 466.0], [432.0, 467.0], [432.0, 468.0], [433.0, 469.0], [434.0, 470.0], [435.0, 471.0], [436.0, 472.0], [437.0, 473.0], [438.0, 474.0], [439.0, 475.0], [439.0, 476.0]]}, "properties": {"id": 116}}, {"type": "Feature", "geometry": {"type": "LineString", "coordinates": [[87.0, 322.0], [86.0, 321.0], [85.0, 320.0], [84.0, 319.0], [83.0, 319.0], [82.0, 319.0], [81.0, 319.0], [80.0, 319.0], [79.0, 319.0], [78.0, 319.0], [77.0, 319.0], [76.0, 319.0]]}, "properties": {"id": 117}}, {"type": "Feature", "geometry": {"type": "LineString", "coordinates": [[352.0, 29.0], [353.0, 28.0], [354.0, 27.0], [355.0, 26.0], [356.0, 25.0], [357.0, 24.0], [358.0, 23.0], [359.0, 22.0], [360.0, 21.0]]}, "properties": {"id": 118}}, {"type": "Feature", "geometry": {"type": "LineString", "coordinates": [[371.0, 273.0], [372.0, 274.0], [373.0, 275.0], [373.0, 276.0], [372.0, 277.0], [371.0, 278.0], [370.0, 279.0], [369.0, 280.0], [368.0, 281.0], [367.0, 282.0], [366.0, 282.0], [365.0, 281.0], [364.0, 281.0], [363.0, 281.0], [362.0, 282.0], [361.0, 283.0], [360.0, 284.0], [359.0, 285.0], [358.0, 286.0], [357.0, 287.0], [356.0, 288.0], [355.0, 289.0], [354.0, 290.0], [353.0, 291.0], [352.0, 292.0], [351.0, 292.0]]}, "properties": {"id": 119}}, {"type": "Feature", "geometry": {"type": "LineString", "coordinates": [[265.0, 363.0], [266.0, 364.0], [267.0, 365.0], [268.0, 366.0], [269.0, 367.0], [270.0, 367.0], [271.0, 366.0], [272.0, 365.0], [273.0, 364.0], [274.0, 363.0], [275.0, 363.0], [276.0, 362.0], [277.0, 361.0], [278.0, 360.0], [279.0, 359.0], [280.0, 358.0], [281.0, 357.0], [282.0, 356.0], [283.0, 355.0], [284.0, 354.0], [285.0, 353.0], [286.0, 353.0], [287.0, 354.0], [288.0, 355.0], [288.0, 356.0], [289.0, 357.0], [289.0, 358.0], [290.0, 359.0], [291.0, 360.0], [292.0, 360.0], [293.0, 360.0], [294.0, 359.0], [295.0, 358.0], [296.0, 357.0], [297.0, 356.0], [298.0, 355.0], [299.0, 354.0], [300.0, 353.0], [301.0, 352.0], [302.0, 352.0], [303.0, 352.0], [304.0, 352.0], [305.0, 352.0]]}, "properties": {"id": 120}}, {"type": "Feature", "geometry": {"type": "LineString", "coordinates": [[69.0, 321.0], [68.0, 320.0], [67.0, 319.0], [66.0, 318.0], [65.0, 317.0], [64.0, 316.0], [63.0, 315.0], [62.0, 314.0], [61.0, 313.0], [60.0, 312.0], [59.0, 311.0], [58.0, 310.0], [57.0, 309.0], [56.0, 308.0], [55.0, 307.0]]}, "properties": {"id": 121}}, {"type": "Feature", "geometry": {"type": "LineString", "coordinates": [[282.0, 498.0], [283.0, 497.0], [284.0, 496.0], [285.0, 495.0], [285.0, 494.0], [286.0, 493.0], [287.0, 492.0], [288.0, 491.0], [289.0, 490.0], [290.0, 489.0], [291.0, 488.0], [292.0, 487.0], [292.0, 486.0], [292.0, 485.0], [293.0, 484.0], [294.0, 483.0], [295.0, 482.0], [296.0, 481.0], [297.0, 480.0], [298.0, 479.0], [299.0, 478.0], [300.0, 477.0], [301.0, 476.0], [302.0, 476.0], [303.0, 477.0], [304.0, 478.0], [305.0, 479.0], [305.0, 480.0]]}, "properties": {"id": 122}}, {"type": "Feature", "geometry": {"type": "LineString", "coordinates": [[38.0, 56.0], [39.0, 57.0], [40.0, 58.0], [41.0, 59.0], [42.0, 60.0], [43.0, 61.0], [44.0, 62.0], [45.0, 63.0], [46.0, 64.0], [47.0, 64.0], [48.0, 65.0], [49.0, 66.0], [50.0, 67.0], [51.0, 68.0], [52.0, 69.0], [53.0, 70.0], [54.0, 71.0], [55.0, 72.0]]}, "properties": {"id": 123}}, {"type": "Feature", "geometry": {"type": "LineString", "coordinates": [[373.0, 281.0], [372.0, 282.0], [371.0, 283.0], [370.0, 284.0], [369.0, 285.0], [368.0, 286.0], [367.0, 287.0], [367.0, 288.0], [366.0, 289.0], [367.0, 290.0]]}, "properties": {"id": 124}}, {"type": "Feature", "geometry": {"type": "LineString", "coordinates": [[410.0, 443.0], [409.0, 444.0], [408.0, 445.0], [408.0, 446.0], [409.0, 447.0], [408.0, 448.0], [408.0, 449.0], [408.0, 450.0], [408.0, 451.0], [408.0, 452.0], [408.0, 453.0]]}, "properties": {"id": 125}}, {"type": "Feature", "geometry": {"type": "LineString", "coordinates": [[302.0, 503.0], [303.0, 502.0], [304.0, 501.0], [305.0, 500.0], [306.0, 499.0], [307.0, 498.0], [307.0, 497.0], [306.0, 496.0], [305.0, 496.0]]}, "properties": {"id": 126}}, {"type": "Feature", "geometry": {"type": "LineString", "coordinates": [[5.0, 485.0], [4.0, 484.0], [3.0, 483.0], [2.0, 482.0], [1.0, 481.0], [0.0, 480.0], [0.0, 479.0], [0.0, 478.0], [0.0, 477.0]]}, "properties": {"id": 127}}, {"type": "Feature", "geometry": {"type": "LineString", "coordinates": [[185.0, 443.0], [184.0, 444.0], [183.0, 445.0], [182.0, 445.0], [181.0, 444.0], [180.0, 443.0], [179.0, 442.0], [178.0, 441.0], [177.0, 440.0], [176.0, 439.0], [175.0, 438.0], [174.0, 437.0], [173.0, 436.0], [172.0, 435.0]]}, "properties": {"id": 128}}, {"type": "Feature", "geometry": {"type": "LineString", "coordinates": [[263.0, 252.0], [262.0, 251.0], [261.0, 250.0], [260.0, 249.0], [259.0, 248.0], [258.0, 248.0], [257.0, 248.0], [256.0, 248.0]]}, "properties": {"id": 129}}, {"type": "Feature", "geometry": {"type": "LineString", "coordinates": [[299.0, 333.0], [298.0, 332.0], [297.0, 332.0], [296.0, 332.0], [295.0, 332.0], [294.0, 332.0], [293.0, 332.0], [292.0, 333.0], [291.0, 334.0], [290.0, 333.0], [289.0, 333.0], [288.0, 333.0], [287.0, 333.0]]}, "properties": {"id": 130}}, {"type": "Feature", "geometry": {"type": "LineString", "coordinates": [[475.0, 173.0], [476.0, 174.0], [476.0, 175.0], [476.0, 176.0], [476.0, 177.0], [476.0, 178.0], [476.0, 179.0], [475.0, 180.0], [474.0, 181.0], [473.0, 182.0], [472.0, 183.0], [471.0, 184.0], [470.0, 184.0], [469.0, 183.0], [468.0, 182.0], [467.0, 181.0]]}, "properties": {"id": 131}}, {"type": "Feature", "geometry": {"type": "LineString", "coordinates": [[332.0, 151.0], [331.0, 152.0], [330.0, 153.0], [329.0, 154.0], [328.0, 155.0], [327.0, 156.0], [326.0, 157.0], [325.0, 157.0], [324.0, 158.0], [323.0, 159.0], [322.0, 160.0], [321.0, 161.0], [320.0, 162.0]]}, "properties": {"id": 132}}, {"type": "Feature", "geometry": {"type": "LineString", "coordinates": [[177.0, 502.0], [178.0, 503.0], [179.0, 503.0], [180.0, 503.0], [181.0, 503.0], [182.0, 503.0], [183.0, 503.0], [184.0, 503.0], [185.0, 502.0], [186.0, 501.0], [187.0, 500.0], [188.0, 499.0], [189.0, 498.0], [190.0, 497.0], [191.0, 496.0], [192.0, 495.0], [193.0, 494.0], [194.0, 493.0], [195.0, 492.0], [196.0, 491.0], [197.0, 490.0], [197.0, 489.0], [197.0, 488.0], [197.0, 487.0], [198.0, 486.0], [199.0, 485.0], [198.0, 484.0], [198.0, 483.0], [198.0, 482.0], [197.0, 481.0], [196.0, 480.0], [195.0, 479.0], [194.0, 479.0], [193.0, 478.0], [192.0, 477.0]]}, "properties": {"id": 133}}]}