{"type": "FeatureCollection", "features": [{"type": "Feature", "geometry": {"type": "LineString", "coordinates": [[188.0, 192.0], [189.0, 193.0], [190.0, 193.0], [191.0, 194.0], [192.0, 195.0], [193.0, 195.0], [194.0, 195.0], [195.0, 195.0], [196.0, 195.0], [197.0, 195.0], [198.0, 195.0], [199.0, 196.0], [200.0, 197.0], [201.0, 198.0], [202.0, 198.0], [203.0, 199.0], [204.0, 200.0], [205.0, 200.0], [206.0, 201.0], [207.0, 201.0], [208.0, 201.0], [209.0, 202.0], [210.0, 203.0], [211.0, 204.0], [211.0, 205.0], [212.0, 206.0], [213.0, 207.0], [214.0, 208.0], [215.0, 209.0], [215.0, 210.0], [216.0, 211.0], [217.0, 212.0], [218.0, 213.0], [219.0, 214.0], [220.0, 215.0], [221.0, 216.0], [222.0, 217.0], [223.0, 218.0], [224.0, 219.0], [225.0, 220.0], [225.0, 221.0], [226.0, 222.0], [227.0, 223.0], [228.0, 224.0], [229.0, 225.0], [230.0, 226.0], [231.0, 227.0], [231.0, 228.0], [231.0, 229.0], [232.0, 230.0], [233.0, 231.0], [234.0, 232.0], [234.0, 233.0], [234.0, 234.0], [235.0, 235.0], [235.0, 236.0], [236.0, 237.0], [237.0, 238.0], [238.0, 239.0], [239.0, 240.0], [239.0, 241.0], [240.0, 242.0], [241.0, 243.0], [242.0, 244.0], [243.0, 245.0], [244.0, 246.0], [245.0, 247.0], [246.0, 248.0], [246.0, 249.0], [246.0, 250.0], [246.0, 251.0], [246.0, 252.0], [246.0, 253.0], [246.0, 254.0], [246.0, 255.0], [246.0, 256.0], [246.0, 257.0], [246.0, 258.0], [246.0, 259.0], [246.0, 260.0], [246.0, 261.0], [246.0, 262.0], [246.0, 263.0], [246.0, 264.0], [246.0, 265.0], [245.0, 266.0], [244.0, 267.0], [244.0, 268.0], [243.0, 269.0], [243.0, 270.0], [242.0, 271.0], [241.0, 272.0], [240.0, 273.0], [239.0, 274.0], [238.0, 275.0], [237.0, 276.0], [236.0, 277.0], [235.0, 278.0], [234.0, 279.0], [233.0, 280.0], [232.0, 281.0], [231.0, 282.0], [230.0, 283.0], [229.0, 284.0], [228.0, 285.0], [227.0, 286.0], [226.0, 287.0], [226.0, 288.0], [226.0, 289.0], [225.0, 290.0], [225.0, 291.0], [224.0, 292.0], [224.0, 293.0], [224.0, 294.0], [224.0, 295.0], [224.0, 296.0], [224.0, 297.0], [224.0, 298.0], [224.0, 299.0], [224.0, 300.0], [223.0, 301.0], [222.0, 302.0], [221.0, 303.0], [220.0, 304.0], [219.0, 305.0], [218.0, 306.0], [217.0, 307.0], [216.0, 308.0], [215.0, 309.0], [214.0, 310.0], [213.0, 311.0], [212.0, 312.0], [211.0, 313.0], [210.0, 314.0], [209.0, 315.0], [208.0, 316.0], [207.0, 317.0], [206.0, 318.0], [205.0, 319.0], [204.0, 320.0], [203.0, 321.0], [202.0, 321.0], [201.0, 321.0], [200.0, 322.0], [199.0, 322.0], [198.0, 322.0], [197.0, 322.0], [196.0, 322.0], [195.0, 322.0], [194.0, 322.0], [193.0, 322.0], [192.0, 322.0], [191.0, 322.0], [190.0, 322.0], [189.0, 323.0], [188.0, 323.0], [187.0, 323.0], [186.0, 323.0], [185.0, 323.0], [184.0, 323.0], [183.0, 323.0], [182.0, 323.0], [181.0, 323.0], [180.0, 323.0], [179.0, 323.0], [178.0, 323.0], [177.0, 323.0], [176.0, 323.0], [175.0, 323.0], [174.0, 322.0], [173.0, 322.0], [172.0, 321.0], [171.0, 320.0], [170.0, 319.0], [169.0, 318.0], [168.0, 317.0], [167.0, 316.0], [166.0, 315.0], [165.0, 314.0], [164.0, 313.0], [163.0, 312.0], [162.0, 311.0], [161.0, 310.0], [160.0, 309.0], [160.0, 308.0], [160.0, 307.0], [160.0, 306.0], [160.0, 305.0], [159.0, 304.0], [158.0, 303.0], [157.0, 302.0], [156.0, 301.0], [156.0, 300.0], [156.0, 299.0], [155.0, 298.0], [154.0, 297.0], [153.0, 296.0], [152.0, 295.0], [152.0, 294.0], [152.0, 293.0], [152.0, 292.0], [152.0, 291.0], [152.0, 290.0], [151.0, 289.0], [151.0, 288.0], [150.0, 287.0], [150.0, 286.0], [150.0, 285.0], [149.0, 284.0], [149.0, 283.0], [148.0, 282.0], [148.0, 281.0], [147.0, 280.0], [147.0, 279.0], [147.0, 278.0], [146.0, 277.0], [146.0, 276.0], [145.0, 275.0], [144.0, 274.0], [144.0, 273.0], [143.0, 272.0], [143.0, 271.0], [142.0, 270.0], [141.0, 269.0], [140.0, 268.0], [139.0, 267.0], [138.0, 266.0], [138.0, 265.0], [138.0, 264.0], [138.0, 263.0], [137.0, 262.0], [136.0, 261.0], [135.0, 260.0], [134.0, 259.0], [133.0, 258.0], [132.0, 257.0], [131.0, 257.0], [130.0, 256.0], [129.0, 256.0], [128.0, 256.0], [127.0, 256.0], [126.0, 256.0], [125.0, 256.0], [124.0, 256.0], [123.0, 255.0], [122.0, 254.0], [121.0, 253.0], [120.0, 252.0], [119.0, 251.0], [118.0, 250.0], [117.0, 249.0], [117.0, 248.0], [116.0, 247.0], [115.0, 246.0], [114.0, 245.0], [113.0, 244.0], [113.0, 243.0], [113.0, 242.0], [112.0, 241.0], [111.0, 240.0], [111.0, 239.0], [110.0, 238.0], [109.0, 237.0], [108.0, 236.0], [107.0, 235.0], [107.0, 234.0], [106.0, 233.0], [105.0, 232.0], [105.0, 231.0], [104.0, 230.0], [104.0, 229.0], [104.0, 228.0], [104.0, 227.0], [104.0, 226.0], [104.0, 225.0], [104.0, 224.0], [103.0, 223.0], [102.0, 222.0], [101.0, 221.0], [101.0, 220.0], [100.0, 219.0], [100.0, 218.0], [100.0, 217.0], [100.0, 216.0], [100.0, 215.0], [100.0, 214.0], [100.0, 213.0], [99.0, 212.0]]}, "properties": {"id": 0}}, {"type": "Feature", "geometry": {"type": "LineString", "coordinates": [[188.0, 192.0], [189.0, 191.0], [190.0, 190.0], [191.0, 189.0], [192.0, 188.0], [193.0, 187.0], [194.0, 186.0], [195.0, 185.0], [196.0, 184.0], [197.0, 183.0], [198.0, 182.0], [199.0, 181.0], [199.0, 180.0], [199.0, 179.0], [200.0, 178.0], [201.0, 177.0], [202.0, 176.0], [203.0, 176.0], [204.0, 175.0], [205.0, 174.0], [206.0, 173.0], [207.0, 173.0], [208.0, 173.0], [209.0, 172.0], [210.0, 171.0], [211.0, 170.0], [212.0, 169.0], [212.0, 168.0], [212.0, 167.0], [213.0, 166.0], [214.0, 165.0], [214.0, 164.0], [214.0, 163.0], [214.0, 162.0], [215.0, 161.0], [216.0, 160.0], [216.0, 159.0], [216.0, 158.0], [217.0, 157.0], [217.0, 156.0], [217.0, 155.0], [217.0, 154.0], [217.0, 153.0], [217.0, 152.0], [218.0, 151.0], [218.0, 150.0], [218.0, 149.0], [218.0, 148.0], [218.0, 147.0], [217.0, 146.0], [217.0, 145.0], [217.0, 144.0], [217.0, 143.0], [217.0, 142.0], [217.0, 141.0], [217.0, 140.0], [217.0, 139.0], [216.0, 138.0], [216.0, 137.0], [216.0, 136.0], [216.0, 135.0], [215.0, 134.0], [214.0, 133.0], [213.0, 132.0], [212.0, 131.0], [211.0, 130.0], [210.0, 129.0], [209.0, 128.0], [208.0, 127.0], [207.0, 126.0], [206.0, 125.0], [206.0, 124.0], [206.0, 123.0], [206.0, 122.0], [206.0, 121.0], [206.0, 120.0], [206.0, 119.0], [206.0, 118.0], [206.0, 117.0], [206.0, 116.0], [207.0, 115.0], [207.0, 114.0], [207.0, 113.0], [207.0, 112.0], [208.0, 111.0], [208.0, 110.0], [208.0, 109.0], [207.0, 108.0], [207.0, 107.0], [207.0, 106.0], [207.0, 105.0], [207.0, 104.0], [207.0, 103.0], [207.0, 102.0], [207.0, 101.0], [207.0, 100.0], [207.0, 99.0], [206.0, 98.0], [206.0, 97.0], [205.0, 96.0], [205.0, 95.0], [205.0, 94.0], [205.0, 93.0], [205.0, 92.0], [205.0, 91.0], [205.0, 90.0], [205.0, 89.0], [204.0, 88.0], [203.0, 87.0], [202.0, 86.0], [201.0, 85.0], [200.0, 84.0], [199.0, 83.0], [198.0, 82.0], [197.0, 81.0], [197.0, 80.0], [196.0, 79.0], [195.0, 78.0], [194.0, 77.0], [193.0, 76.0], [192.0, 76.0], [191.0, 76.0], [190.0, 76.0]]}, "properties": {"id": 1}}, {"type": "Feature", "geometry": {"type": "LineString", "coordinates": [[78.0, 255.0], [78.0, 254.0], [79.0, 253.0], [80.0, 252.0], [81.0, 251.0], [82.0, 250.0], [83.0, 249.0], [84.0, 248.0], [85.0, 247.0], [86.0, 246.0], [86.0, 245.0], [86.0, 244.0], [86.0, 243.0], [86.0, 242.0], [86.0, 241.0], [86.0, 240.0], [86.0, 239.0], [86.0, 238.0], [86.0, 237.0], [86.0, 236.0], [86.0, 235.0], [86.0, 234.0], [86.0, 233.0], [86.0, 232.0], [86.0, 231.0], [85.0, 230.0], [84.0, 229.0], [83.0, 228.0], [82.0, 227.0], [81.0, 226.0], [80.0, 225.0], [80.0, 224.0], [80.0, 223.0], [80.0, 222.0], [80.0, 221.0], [80.0, 220.0], [80.0, 219.0], [80.0, 218.0], [80.0, 217.0], [80.0, 216.0], [80.0, 215.0], [80.0, 214.0], [80.0, 213.0], [80.0, 212.0], [79.0, 211.0], [78.0, 210.0], [77.0, 209.0]]}, "properties": {"id": 2}}, {"type": "Feature", "geometry": {"type": "LineString", "coordinates": [[78.0, 255.0], [78.0, 254.0], [79.0, 253.0], [80.0, 252.0], [81.0, 251.0], [82.0, 250.0], [83.0, 249.0], [84.0, 248.0], [85.0, 247.0], [86.0, 246.0], [86.0, 245.0], [86.0, 244.0], [86.0, 243.0], [86.0, 242.0], [86.0, 241.0], [86.0, 240.0], [86.0, 239.0], [86.0, 238.0], [86.0, 237.0], [86.0, 236.0], [86.0, 235.0], [86.0, 234.0], [87.0, 233.0], [87.0, 232.0], [88.0, 231.0], [89.0, 230.0], [89.0, 229.0], [90.0, 228.0], [90.0, 227.0], [90.0, 226.0], [90.0, 225.0], [90.0, 224.0], [91.0, 223.0], [92.0, 222.0], [92.0, 221.0], [92.0, 220.0], [93.0, 219.0], [94.0, 218.0], [95.0, 217.0], [96.0, 216.0], [96.0, 215.0], [97.0, 214.0], [98.0, 213.0], [99.0, 212.0]]}, "properties": {"id": 3}}, {"type": "Feature", "geometry": {"type": "LineString", "coordinates": [[190.0, 76.0], [189.0, 76.0], [188.0, 76.0], [187.0, 76.0], [186.0, 76.0], [185.0, 76.0], [184.0, 76.0], [183.0, 76.0], [182.0, 76.0], [181.0, 76.0], [180.0, 76.0], [179.0, 76.0], [178.0, 75.0], [177.0, 74.0], [176.0, 73.0], [175.0, 72.0], [175.0, 71.0], [175.0, 70.0], [174.0, 69.0], [173.0, 68.0], [172.0, 67.0], [171.0, 66.0], [170.0, 65.0], [169.0, 65.0], [168.0, 64.0], [167.0, 64.0], [166.0, 64.0], [165.0, 64.0], [164.0, 64.0], [163.0, 64.0], [162.0, 64.0], [161.0, 64.0], [160.0, 64.0], [159.0, 64.0], [158.0, 64.0], [157.0, 64.0], [156.0, 63.0], [155.0, 63.0], [154.0, 63.0], [153.0, 62.0], [152.0, 62.0], [151.0, 61.0], [150.0, 60.0], [149.0, 59.0], [148.0, 59.0], [147.0, 59.0], [146.0, 59.0], [145.0, 59.0], [144.0, 59.0], [143.0, 59.0], [142.0, 58.0], [141.0, 58.0], [140.0, 58.0], [139.0, 58.0], [138.0, 58.0], [137.0, 58.0], [136.0, 58.0], [135.0, 58.0], [134.0, 58.0], [133.0, 58.0], [132.0, 58.0], [131.0, 58.0], [130.0, 57.0], [129.0, 57.0], [128.0, 57.0], [127.0, 56.0], [126.0, 56.0], [125.0, 56.0], [124.0, 56.0], [123.0, 56.0], [122.0, 56.0], [121.0, 56.0], [120.0, 56.0], [119.0, 56.0], [118.0, 56.0], [117.0, 56.0], [116.0, 56.0], [115.0, 57.0], [114.0, 58.0], [113.0, 58.0], [112.0, 59.0], [111.0, 59.0], [110.0, 59.0], [109.0, 59.0], [108.0, 59.0], [107.0, 59.0], [106.0, 59.0], [105.0, 59.0], [104.0, 59.0], [103.0, 59.0], [102.0, 59.0], [101.0, 60.0], [100.0, 61.0], [99.0, 62.0], [98.0, 62.0], [97.0, 62.0], [96.0, 63.0], [95.0, 64.0], [94.0, 65.0], [93.0, 66.0], [92.0, 67.0], [91.0, 68.0], [90.0, 69.0], [89.0, 70.0], [88.0, 71.0], [88.0, 72.0], [87.0, 73.0], [87.0, 74.0], [87.0, 75.0], [87.0, 76.0], [86.0, 77.0], [85.0, 78.0], [84.0, 79.0], [84.0, 80.0], [84.0, 81.0], [84.0, 82.0], [84.0, 83.0], [84.0, 84.0], [84.0, 85.0], [84.0, 86.0], [84.0, 87.0], [84.0, 88.0], [84.0, 89.0], [83.0, 90.0], [82.0, 91.0], [81.0, 92.0], [81.0, 93.0], [81.0, 94.0], [81.0, 95.0], [81.0, 96.0], [81.0, 97.0], [81.0, 98.0], [81.0, 99.0], [81.0, 100.0], [81.0, 101.0], [80.0, 102.0], [79.0, 103.0], [78.0, 104.0], [77.0, 105.0], [77.0, 106.0], [76.0, 107.0], [75.0, 108.0], [74.0, 109.0], [74.0, 110.0], [73.0, 111.0], [72.0, 112.0], [71.0, 113.0], [71.0, 114.0], [71.0, 115.0], [70.0, 116.0], [69.0, 117.0], [68.0, 118.0], [67.0, 119.0], [67.0, 120.0], [66.0, 121.0], [66.0, 122.0], [65.0, 123.0], [65.0, 124.0], [64.0, 125.0], [63.0, 126.0], [62.0, 127.0], [61.0, 128.0], [61.0, 129.0], [61.0, 130.0], [60.0, 131.0], [60.0, 132.0], [60.0, 133.0], [60.0, 134.0], [60.0, 135.0], [60.0, 136.0], [60.0, 137.0], [61.0, 138.0], [61.0, 139.0], [61.0, 140.0], [61.0, 141.0], [61.0, 142.0], [61.0, 143.0], [61.0, 144.0], [61.0, 145.0], [60.0, 146.0], [60.0, 147.0], [59.0, 148.0], [59.0, 149.0], [59.0, 150.0], [59.0, 151.0], [59.0, 152.0], [59.0, 153.0], [59.0, 154.0], [60.0, 155.0], [60.0, 156.0], [61.0, 157.0], [61.0, 158.0], [61.0, 159.0], [61.0, 160.0], [61.0, 161.0], [61.0, 162.0], [62.0, 163.0], [62.0, 164.0], [62.0, 165.0], [62.0, 166.0], [62.0, 167.0], [62.0, 168.0], [62.0, 169.0], [62.0, 170.0], [62.0, 171.0], [62.0, 172.0], [62.0, 173.0], [62.0, 174.0], [62.0, 175.0], [62.0, 176.0], [62.0, 177.0], [62.0, 178.0], [62.0, 179.0], [62.0, 180.0], [62.0, 181.0], [62.0, 182.0], [62.0, 183.0], [62.0, 184.0], [62.0, 185.0], [62.0, 186.0], [62.0, 187.0], [62.0, 188.0], [62.0, 189.0], [62.0, 190.0], [62.0, 191.0], [62.0, 192.0], [61.0, 193.0], [61.0, 194.0], [61.0, 195.0], [61.0, 196.0], [61.0, 197.0], [61.0, 198.0], [61.0, 199.0], [61.0, 200.0], [61.0, 201.0], [62.0, 202.0], [63.0, 203.0], [64.0, 204.0], [65.0, 205.0], [66.0, 205.0], [67.0, 205.0], [68.0, 206.0], [69.0, 207.0], [70.0, 208.0], [71.0, 209.0], [72.0, 209.0], [73.0, 209.0], [74.0, 209.0], [75.0, 209.0], [76.0, 209.0], [77.0, 209.0], [78.0, 210.0], [79.0, 211.0], [80.0, 212.0], [81.0, 212.0], [82.0, 212.0], [83.0, 212.0], [84.0, 212.0], [85.0, 212.0], [86.0, 212.0], [87.0, 212.0], [88.0, 212.0], [89.0, 212.0], [90.0, 212.0], [91.0, 212.0], [92.0, 212.0], [93.0, 212.0], [94.0, 212.0], [95.0, 212.0], [96.0, 212.0], [97.0, 212.0], [98.0, 212.0], [99.0, 212.0]]}, "properties": {"id": 4}}, {"type": "Feature", "geometry": {"type": "LineString", "coordinates": [[150.0, 281.0], [150.0, 282.0], [151.0, 283.0], [152.0, 284.0], [152.0, 285.0], [152.0, 286.0], [152.0, 287.0], [152.0, 288.0], [152.0, 289.0], [152.0, 290.0], [152.0, 291.0], [152.0, 292.0], [152.0, 293.0], [152.0, 294.0], [152.0, 295.0], [152.0, 296.0], [153.0, 297.0], [154.0, 298.0], [155.0, 299.0], [156.0, 300.0], [156.0, 301.0], [156.0, 302.0], [157.0, 303.0], [157.0, 304.0], [157.0, 305.0], [157.0, 306.0], [158.0, 307.0], [159.0, 308.0], [160.0, 309.0], [161.0, 310.0], [162.0, 311.0], [163.0, 312.0], [164.0, 313.0], [165.0, 314.0], [166.0, 315.0], [167.0, 316.0], [168.0, 317.0], [169.0, 318.0], [170.0, 319.0], [171.0, 320.0], [172.0, 321.0], [173.0, 322.0], [174.0, 323.0], [175.0, 323.0], [176.0, 323.0], [177.0, 323.0], [178.0, 323.0], [179.0, 323.0], [180.0, 323.0], [181.0, 323.0], [182.0, 323.0], [183.0, 323.0], [184.0, 323.0], [185.0, 323.0], [186.0, 323.0], [187.0, 323.0], [188.0, 323.0], [189.0, 323.0], [190.0, 322.0], [191.0, 322.0], [192.0, 322.0], [193.0, 322.0], [194.0, 322.0], [195.0, 322.0], [196.0, 322.0], [197.0, 322.0], [198.0, 322.0], [199.0, 322.0], [200.0, 322.0], [201.0, 322.0], [202.0, 321.0], [203.0, 321.0], [204.0, 320.0], [205.0, 319.0], [206.0, 318.0], [207.0, 317.0], [208.0, 316.0], [209.0, 315.0], [210.0, 314.0], [211.0, 313.0], [212.0, 312.0], [213.0, 311.0], [214.0, 310.0], [215.0, 309.0], [216.0, 308.0], [217.0, 307.0], [218.0, 306.0], [219.0, 305.0], [220.0, 304.0], [221.0, 303.0], [222.0, 302.0], [223.0, 302.0], [224.0, 301.0], [224.0, 300.0], [224.0, 299.0], [224.0, 298.0], [224.0, 297.0], [224.0, 296.0], [224.0, 295.0], [224.0, 294.0], [224.0, 293.0], [224.0, 292.0], [225.0, 291.0], [225.0, 290.0], [225.0, 289.0], [225.0, 288.0], [226.0, 287.0], [227.0, 286.0], [227.0, 285.0], [227.0, 284.0], [227.0, 283.0], [227.0, 282.0], [227.0, 281.0], [227.0, 280.0], [227.0, 279.0], [227.0, 278.0], [227.0, 277.0], [226.0, 276.0]]}, "properties": {"id": 5}}, {"type": "Feature", "geometry": {"type": "LineString", "coordinates": [[150.0, 281.0], [149.0, 281.0], [148.0, 281.0], [147.0, 280.0], [146.0, 280.0], [145.0, 280.0], [144.0, 280.0], [143.0, 280.0], [142.0, 280.0], [141.0, 280.0], [140.0, 280.0], [139.0, 280.0], [138.0, 280.0], [137.0, 280.0], [136.0, 280.0], [135.0, 280.0], [134.0, 280.0], [133.0, 280.0], [132.0, 280.0], [131.0, 281.0], [130.0, 281.0], [129.0, 281.0], [128.0, 281.0], [127.0, 280.0], [126.0, 279.0], [125.0, 278.0], [124.0, 277.0], [123.0, 276.0], [122.0, 276.0], [121.0, 276.0], [120.0, 276.0], [119.0, 275.0], [118.0, 275.0], [117.0, 274.0], [116.0, 274.0], [115.0, 274.0], [114.0, 274.0], [113.0, 274.0], [112.0, 274.0], [111.0, 274.0], [110.0, 274.0], [109.0, 273.0], [108.0, 272.0], [107.0, 272.0], [106.0, 272.0], [105.0, 272.0], [104.0, 272.0], [103.0, 272.0], [102.0, 272.0], [101.0, 272.0], [100.0, 272.0], [99.0, 273.0], [98.0, 274.0], [97.0, 274.0], [96.0, 274.0], [95.0, 274.0], [94.0, 273.0], [93.0, 272.0], [92.0, 271.0], [91.0, 270.0], [90.0, 270.0], [89.0, 269.0], [88.0, 268.0], [87.0, 267.0], [86.0, 266.0], [85.0, 265.0], [84.0, 264.0], [83.0, 263.0], [82.0, 262.0], [81.0, 261.0], [81.0, 260.0], [81.0, 259.0], [80.0, 258.0], [79.0, 257.0], [78.0, 256.0], [78.0, 255.0]]}, "properties": {"id": 6}}, {"type": "Feature", "geometry": {"type": "LineString", "coordinates": [[385.0, 476.0], [386.0, 476.0], [387.0, 476.0], [388.0, 476.0], [389.0, 476.0], [390.0, 477.0], [391.0, 478.0], [392.0, 478.0], [393.0, 478.0], [394.0, 478.0], [395.0, 478.0], [396.0, 478.0], [397.0, 478.0], [398.0, 478.0], [399.0, 478.0], [400.0, 478.0], [401.0, 478.0], [402.0, 478.0], [403.0, 479.0], [404.0, 480.0], [405.0, 481.0], [406.0, 482.0], [407.0, 483.0], [408.0, 484.0], [409.0, 485.0], [410.0, 486.0], [411.0, 487.0], [412.0, 487.0], [413.0, 488.0], [414.0, 489.0], [415.0, 490.0], [416.0, 491.0], [417.0, 492.0], [418.0, 493.0], [419.0, 494.0], [420.0, 495.0], [421.0, 496.0], [422.0, 497.0], [423.0, 498.0]]}, "properties": {"id": 7}}, {"type": "Feature", "geometry": {"type": "LineString", "coordinates": [[385.0, 476.0], [386.0, 476.0], [387.0, 476.0], [388.0, 476.0], [389.0, 476.0], [390.0, 477.0], [391.0, 478.0], [392.0, 478.0], [393.0, 478.0], [394.0, 478.0], [395.0, 478.0], [396.0, 478.0], [397.0, 478.0], [398.0, 478.0], [399.0, 478.0], [400.0, 478.0], [401.0, 478.0], [402.0, 478.0], [403.0, 479.0], [404.0, 480.0], [405.0, 481.0], [406.0, 482.0], [407.0, 483.0], [408.0, 484.0], [409.0, 485.0], [410.0, 486.0], [411.0, 487.0], [412.0, 487.0], [413.0, 487.0], [414.0, 487.0], [415.0, 487.0], [416.0, 487.0], [417.0, 487.0], [418.0, 486.0], [419.0, 486.0], [420.0, 486.0], [421.0, 486.0], [422.0, 486.0], [423.0, 486.0], [424.0, 486.0], [425.0, 486.0], [426.0, 486.0], [427.0, 486.0], [428.0, 487.0], [429.0, 488.0], [430.0, 489.0], [431.0, 489.0], [432.0, 489.0], [433.0, 489.0], [434.0, 489.0], [435.0, 489.0], [436.0, 489.0], [437.0, 489.0], [438.0, 489.0], [439.0, 489.0], [440.0, 489.0], [441.0, 489.0], [442.0, 489.0], [443.0, 489.0], [444.0, 489.0], [445.0, 489.0], [446.0, 489.0], [447.0, 489.0], [448.0, 489.0], [449.0, 489.0], [450.0, 489.0], [451.0, 489.0], [452.0, 489.0], [453.0, 489.0], [454.0, 489.0], [455.0, 489.0], [456.0, 489.0], [457.0, 489.0], [458.0, 489.0]]}, "properties": {"id": 8}}, {"type": "Feature", "geometry": {"type": "LineString", "coordinates": [[226.0, 276.0], [227.0, 276.0], [228.0, 276.0], [229.0, 276.0], [230.0, 277.0], [231.0, 277.0], [232.0, 277.0], [233.0, 277.0], [234.0, 277.0], [235.0, 277.0], [236.0, 277.0], [237.0, 276.0], [238.0, 275.0], [239.0, 274.0], [240.0, 273.0], [241.0, 272.0], [242.0, 271.0], [243.0, 270.0], [244.0, 269.0], [245.0, 268.0], [246.0, 267.0], [247.0, 266.0], [248.0, 265.0], [249.0, 265.0], [250.0, 264.0], [251.0, 263.0], [252.0, 262.0], [253.0, 261.0], [254.0, 260.0], [255.0, 259.0], [256.0, 258.0], [257.0, 257.0], [258.0, 256.0], [259.0, 256.0], [260.0, 256.0], [261.0, 256.0], [262.0, 256.0], [263.0, 256.0], [264.0, 256.0], [265.0, 256.0], [266.0, 256.0], [267.0, 256.0], [268.0, 256.0], [269.0, 255.0], [270.0, 254.0], [271.0, 253.0], [272.0, 252.0], [273.0, 251.0], [274.0, 250.0], [275.0, 249.0], [276.0, 248.0], [276.0, 247.0], [276.0, 246.0], [276.0, 245.0], [277.0, 244.0], [278.0, 243.0], [279.0, 243.0], [280.0, 243.0], [281.0, 243.0], [282.0, 243.0], [283.0, 243.0], [284.0, 243.0], [285.0, 243.0], [286.0, 242.0], [287.0, 241.0], [288.0, 240.0], [289.0, 239.0], [290.0, 238.0], [291.0, 238.0]]}, "properties": {"id": 9}}, {"type": "Feature", "geometry": {"type": "LineString", "coordinates": [[423.0, 498.0], [424.0, 499.0], [425.0, 499.0], [426.0, 499.0], [427.0, 499.0], [428.0, 499.0], [429.0, 499.0], [430.0, 499.0], [431.0, 499.0], [432.0, 499.0], [433.0, 499.0], [434.0, 499.0], [435.0, 499.0], [436.0, 499.0], [437.0, 499.0], [438.0, 499.0], [439.0, 499.0], [440.0, 499.0], [441.0, 499.0], [442.0, 499.0], [443.0, 499.0], [444.0, 499.0], [445.0, 499.0], [446.0, 499.0], [447.0, 499.0], [448.0, 499.0], [449.0, 499.0], [450.0, 499.0], [451.0, 498.0], [452.0, 497.0], [453.0, 496.0], [454.0, 495.0], [455.0, 495.0], [456.0, 494.0], [457.0, 493.0], [457.0, 492.0], [457.0, 491.0], [458.0, 490.0], [458.0, 489.0]]}, "properties": {"id": 10}}, {"type": "Feature", "geometry": {"type": "LineString", "coordinates": [[99.0, 212.0], [98.0, 212.0], [97.0, 212.0], [96.0, 212.0], [95.0, 212.0], [94.0, 212.0], [93.0, 212.0], [92.0, 212.0], [91.0, 212.0], [90.0, 212.0], [89.0, 212.0], [88.0, 211.0], [87.0, 210.0], [86.0, 210.0], [85.0, 210.0], [84.0, 210.0], [83.0, 210.0], [82.0, 210.0], [81.0, 210.0], [80.0, 210.0], [79.0, 210.0], [78.0, 210.0], [77.0, 209.0]]}, "properties": {"id": 11}}, {"type": "Feature", "geometry": {"type": "LineString", "coordinates": [[483.0, 222.0], [482.0, 222.0], [481.0, 221.0], [480.0, 220.0], [479.0, 220.0], [478.0, 219.0], [477.0, 219.0], [476.0, 219.0], [475.0, 218.0], [474.0, 217.0], [473.0, 216.0], [472.0, 215.0], [471.0, 214.0], [470.0, 213.0], [469.0, 212.0], [468.0, 211.0], [468.0, 210.0], [468.0, 209.0], [468.0, 208.0], [467.0, 207.0], [466.0, 206.0], [465.0, 205.0], [465.0, 204.0], [465.0, 203.0], [464.0, 202.0], [463.0, 201.0], [462.0, 200.0], [461.0, 199.0], [460.0, 198.0], [459.0, 198.0], [458.0, 197.0], [457.0, 197.0], [456.0, 196.0], [455.0, 195.0], [455.0, 194.0], [455.0, 193.0], [455.0, 192.0], [454.0, 191.0], [453.0, 190.0], [452.0, 190.0], [451.0, 189.0], [450.0, 188.0], [449.0, 187.0], [448.0, 187.0], [447.0, 187.0], [446.0, 187.0], [445.0, 187.0], [444.0, 187.0], [443.0, 187.0], [442.0, 187.0], [441.0, 187.0], [440.0, 187.0], [439.0, 187.0], [438.0, 187.0], [437.0, 186.0], [436.0, 186.0], [435.0, 186.0], [434.0, 186.0], [433.0, 186.0], [432.0, 186.0], [431.0, 186.0], [430.0, 186.0], [429.0, 186.0], [428.0, 186.0], [427.0, 186.0], [426.0, 186.0], [425.0, 186.0], [424.0, 186.0], [423.0, 185.0], [422.0, 185.0], [421.0, 185.0], [420.0, 185.0], [419.0, 185.0], [418.0, 185.0], [417.0, 185.0], [416.0, 185.0], [415.0, 185.0], [414.0, 185.0], [413.0, 185.0], [412.0, 185.0], [411.0, 185.0], [410.0, 185.0], [409.0, 186.0], [408.0, 187.0], [407.0, 188.0], [407.0, 189.0], [406.0, 190.0], [405.0, 191.0], [405.0, 192.0], [405.0, 193.0], [404.0, 194.0], [403.0, 195.0], [403.0, 196.0], [403.0, 197.0], [403.0, 198.0], [402.0, 199.0], [401.0, 200.0], [400.0, 201.0], [399.0, 202.0], [398.0, 203.0], [397.0, 204.0], [396.0, 205.0], [396.0, 206.0], [395.0, 207.0], [394.0, 208.0], [393.0, 209.0], [392.0, 210.0], [391.0, 211.0], [390.0, 211.0], [389.0, 211.0], [388.0, 211.0], [387.0, 211.0], [386.0, 211.0], [385.0, 210.0], [384.0, 210.0], [383.0, 210.0], [382.0, 210.0], [381.0, 210.0], [380.0, 210.0], [379.0, 211.0], [378.0, 212.0], [377.0, 213.0], [376.0, 214.0], [375.0, 215.0], [374.0, 216.0], [373.0, 216.0], [372.0, 216.0], [371.0, 217.0], [370.0, 218.0], [369.0, 219.0], [368.0, 220.0], [367.0, 220.0], [366.0, 220.0], [365.0, 220.0], [364.0, 220.0], [363.0, 220.0], [362.0, 220.0], [361.0, 220.0], [360.0, 220.0], [359.0, 220.0], [358.0, 220.0], [357.0, 220.0], [356.0, 220.0], [355.0, 220.0], [354.0, 219.0], [353.0, 219.0], [352.0, 219.0], [351.0, 219.0], [350.0, 219.0], [349.0, 219.0], [348.0, 219.0], [347.0, 220.0], [346.0, 220.0], [345.0, 220.0], [344.0, 220.0], [343.0, 220.0], [342.0, 220.0], [341.0, 220.0], [340.0, 220.0], [339.0, 220.0], [338.0, 220.0], [337.0, 220.0], [336.0, 220.0], [335.0, 220.0], [334.0, 220.0], [333.0, 220.0], [332.0, 220.0], [331.0, 220.0], [330.0, 220.0], [329.0, 221.0], [328.0, 222.0], [327.0, 223.0], [326.0, 224.0], [325.0, 224.0], [324.0, 224.0], [323.0, 224.0], [322.0, 224.0], [321.0, 224.0], [320.0, 225.0], [319.0, 225.0], [318.0, 225.0], [317.0, 225.0], [316.0, 225.0], [315.0, 225.0], [314.0, 225.0], [313.0, 225.0], [312.0, 225.0], [311.0, 225.0], [310.0, 226.0], [309.0, 227.0], [308.0, 228.0], [308.0, 229.0], [307.0, 230.0], [306.0, 231.0], [305.0, 232.0], [304.0, 233.0], [303.0, 234.0], [302.0, 235.0], [301.0, 236.0], [300.0, 236.0], [299.0, 236.0], [298.0, 236.0], [297.0, 236.0], [296.0, 236.0], [295.0, 236.0], [294.0, 237.0], [293.0, 238.0], [292.0, 238.0], [291.0, 238.0]]}, "properties": {"id": 12}}, {"type": "Feature", "geometry": {"type": "LineString", "coordinates": [[291.0, 238.0], [290.0, 238.0], [289.0, 238.0], [288.0, 238.0], [287.0, 238.0], [286.0, 238.0], [285.0, 238.0], [284.0, 238.0], [283.0, 238.0], [282.0, 238.0], [281.0, 238.0], [280.0, 238.0], [279.0, 238.0], [278.0, 238.0], [277.0, 238.0], [276.0, 238.0], [275.0, 238.0], [274.0, 237.0], [273.0, 237.0], [272.0, 237.0], [271.0, 237.0], [270.0, 237.0], [269.0, 237.0], [268.0, 236.0], [267.0, 235.0], [266.0, 234.0], [265.0, 233.0], [264.0, 232.0], [263.0, 232.0], [262.0, 232.0], [261.0, 232.0], [260.0, 232.0], [259.0, 232.0], [258.0, 232.0], [257.0, 232.0], [256.0, 231.0], [255.0, 231.0], [254.0, 230.0], [253.0, 229.0], [252.0, 228.0], [251.0, 227.0], [250.0, 226.0], [249.0, 225.0], [248.0, 224.0], [247.0, 223.0], [246.0, 222.0], [245.0, 221.0], [245.0, 220.0], [244.0, 219.0], [243.0, 218.0], [242.0, 218.0], [241.0, 218.0], [240.0, 218.0], [239.0, 218.0], [238.0, 218.0], [237.0, 218.0], [236.0, 217.0], [235.0, 217.0], [234.0, 217.0], [233.0, 217.0], [232.0, 217.0], [231.0, 217.0], [230.0, 217.0], [229.0, 216.0], [228.0, 215.0], [227.0, 214.0], [226.0, 213.0], [225.0, 213.0], [224.0, 213.0], [223.0, 213.0], [222.0, 213.0], [221.0, 213.0], [220.0, 213.0], [219.0, 213.0], [218.0, 212.0], [217.0, 211.0], [216.0, 210.0], [215.0, 209.0], [214.0, 208.0], [213.0, 207.0], [212.0, 206.0], [211.0, 205.0], [210.0, 204.0], [209.0, 203.0], [208.0, 202.0], [207.0, 201.0], [206.0, 201.0], [205.0, 201.0], [204.0, 200.0], [203.0, 199.0], [202.0, 198.0], [201.0, 198.0], [200.0, 197.0], [199.0, 196.0], [198.0, 195.0], [197.0, 194.0], [196.0, 194.0], [195.0, 194.0], [194.0, 194.0], [193.0, 194.0], [192.0, 194.0], [191.0, 193.0], [190.0, 193.0], [189.0, 193.0], [188.0, 192.0]]}, "properties": {"id": 13}}]}