{"type": "FeatureCollection", "features": [{"type": "Feature", "geometry": {"type": "Polygon", "coordinates": [[[0.0, 82.0], [165.0, 82.0], [165.0, 607.0], [0.0, 607.0], [0.0, 82.0]]]}, "properties": {"region_id": 0, "capital": "Navacrag"}}, {"type": "Feature", "geometry": {"type": "Polygon", "coordinates": [[[85.0, 142.0], [476.0, 142.0], [476.0, 626.0], [85.0, 626.0], [85.0, 142.0]]]}, "properties": {"region_id": 1, "capital": "Gildreach"}}, {"type": "Feature", "geometry": {"type": "Polygon", "coordinates": [[[314.0, 0.0], [1023.0, 0.0], [1023.0, 853.0], [314.0, 853.0], [314.0, 0.0]]]}, "properties": {"region_id": 2, "capital": "Heimford"}}, {"type": "Feature", "geometry": {"type": "Polygon", "coordinates": [[[0.0, 0.0], [375.0, 0.0], [375.0, 155.0], [0.0, 155.0], [0.0, 0.0]]]}, "properties": {"region_id": 3, "capital": "Eldmoor"}}, {"type": "Feature", "geometry": {"type": "Polygon", "coordinates": [[[0.0, 600.0], [1023.0, 600.0], [1023.0, 1023.0], [0.0, 1023.0], [0.0, 600.0]]]}, "properties": {"region_id": 4, "capital": "Ithcrag"}}]}