{"type": "FeatureCollection", "features": [{"type": "Feature", "geometry": {"type": "LineString", "coordinates": [[692.0, 923.0], [693.0, 922.0], [694.0, 921.0], [695.0, 921.0], [696.0, 921.0], [697.0, 921.0], [698.0, 922.0], [699.0, 922.0], [700.0, 923.0], [701.0, 924.0], [702.0, 925.0], [702.0, 926.0], [703.0, 927.0], [703.0, 928.0], [703.0, 929.0], [703.0, 930.0], [703.0, 931.0], [703.0, 932.0], [703.0, 933.0], [703.0, 934.0]]}, "properties": {"id": 0}}, {"type": "Feature", "geometry": {"type": "LineString", "coordinates": [[358.0, 227.0], [359.0, 228.0], [360.0, 229.0], [361.0, 230.0], [362.0, 230.0], [363.0, 229.0], [364.0, 228.0], [365.0, 227.0], [366.0, 226.0], [367.0, 225.0], [368.0, 224.0], [369.0, 223.0], [370.0, 222.0], [371.0, 221.0], [372.0, 220.0], [373.0, 219.0], [374.0, 218.0], [375.0, 217.0], [376.0, 216.0], [377.0, 215.0]]}, "properties": {"id": 1}}, {"type": "Feature", "geometry": {"type": "LineString", "coordinates": [[246.0, 768.0], [245.0, 768.0], [244.0, 768.0], [243.0, 768.0], [242.0, 768.0], [241.0, 769.0], [240.0, 770.0], [239.0, 771.0], [238.0, 772.0], [237.0, 773.0], [236.0, 772.0], [235.0, 771.0], [234.0, 770.0], [233.0, 769.0], [232.0, 768.0], [231.0, 768.0], [230.0, 768.0], [229.0, 768.0], [228.0, 768.0], [227.0, 768.0], [226.0, 768.0], [225.0, 768.0], [224.0, 768.0], [223.0, 768.0], [222.0, 767.0], [221.0, 766.0], [220.0, 765.0], [219.0, 764.0], [218.0, 763.0], [217.0, 762.0], [216.0, 762.0], [215.0, 763.0], [214.0, 763.0], [213.0, 764.0], [212.0, 765.0], [211.0, 766.0], [210.0, 767.0], [209.0, 768.0], [208.0, 768.0], [207.0, 768.0], [206.0, 768.0], [205.0, 768.0], [204.0, 768.0], [203.0, 768.0], [202.0, 768.0], [201.0, 768.0], [200.0, 768.0], [199.0, 768.0], [198.0, 768.0], [197.0, 768.0], [196.0, 768.0], [195.0, 768.0], [194.0, 768.0], [193.0, 768.0], [192.0, 768.0], [191.0, 768.0], [190.0, 768.0], [189.0, 769.0], [188.0, 770.0], [187.0, 771.0], [186.0, 772.0], [185.0, 773.0], [184.0, 774.0], [184.0, 775.0], [184.0, 776.0], [184.0, 777.0], [184.0, 778.0], [184.0, 779.0], [184.0, 780.0], [184.0, 781.0], [184.0, 782.0], [183.0, 783.0], [183.0, 784.0], [183.0, 785.0]]}, "properties": {"id": 2}}, {"type": "Feature", "geometry": {"type": "LineString", "coordinates": [[935.0, 209.0], [936.0, 210.0], [937.0, 211.0], [938.0, 212.0], [939.0, 213.0], [940.0, 214.0], [941.0, 215.0], [942.0, 216.0], [943.0, 217.0], [944.0, 218.0], [945.0, 218.0]]}, "properties": {"id": 3}}, {"type": "Feature", "geometry": {"type": "LineString", "coordinates": [[822.0, 882.0], [823.0, 883.0], [824.0, 884.0], [825.0, 885.0], [826.0, 886.0], [827.0, 886.0], [828.0, 886.0], [829.0, 886.0], [830.0, 885.0], [831.0, 884.0], [832.0, 883.0], [833.0, 882.0], [834.0, 881.0], [835.0, 880.0], [836.0, 879.0], [837.0, 878.0], [838.0, 877.0], [839.0, 876.0], [840.0, 875.0], [841.0, 874.0], [842.0, 873.0], [843.0, 872.0], [843.0, 871.0], [843.0, 870.0], [843.0, 869.0], [843.0, 868.0], [843.0, 867.0], [842.0, 866.0], [842.0, 865.0], [842.0, 864.0], [842.0, 863.0], [842.0, 862.0]]}, "properties": {"id": 4}}, {"type": "Feature", "geometry": {"type": "LineString", "coordinates": [[848.0, 266.0], [847.0, 267.0], [846.0, 268.0], [845.0, 269.0], [844.0, 270.0], [843.0, 271.0], [842.0, 272.0], [841.0, 273.0], [840.0, 274.0], [839.0, 275.0], [838.0, 274.0], [837.0, 273.0], [836.0, 273.0], [835.0, 273.0], [834.0, 273.0], [833.0, 273.0], [832.0, 273.0]]}, "properties": {"id": 5}}, {"type": "Feature", "geometry": {"type": "LineString", "coordinates": [[145.0, 560.0], [146.0, 561.0], [147.0, 562.0], [148.0, 563.0], [149.0, 564.0], [150.0, 565.0], [151.0, 566.0], [152.0, 567.0], [153.0, 568.0], [154.0, 569.0], [155.0, 570.0], [156.0, 571.0], [157.0, 572.0], [158.0, 573.0], [159.0, 574.0], [160.0, 575.0], [161.0, 576.0], [162.0, 576.0], [163.0, 576.0]]}, "properties": {"id": 6}}, {"type": "Feature", "geometry": {"type": "LineString", "coordinates": [[190.0, 70.0], [191.0, 70.0], [192.0, 70.0], [193.0, 70.0], [194.0, 70.0], [195.0, 70.0], [196.0, 69.0], [197.0, 68.0], [198.0, 67.0], [199.0, 66.0], [200.0, 65.0], [200.0, 64.0]]}, "properties": {"id": 7}}, {"type": "Feature", "geometry": {"type": "LineString", "coordinates": [[754.0, 820.0], [755.0, 821.0], [756.0, 822.0], [757.0, 823.0], [758.0, 824.0], [759.0, 825.0], [760.0, 826.0], [760.0, 827.0], [760.0, 828.0], [761.0, 829.0], [762.0, 830.0], [763.0, 831.0], [764.0, 831.0], [765.0, 831.0], [766.0, 832.0], [767.0, 832.0], [768.0, 832.0]]}, "properties": {"id": 8}}, {"type": "Feature", "geometry": {"type": "LineString", "coordinates": [[815.0, 943.0], [814.0, 942.0], [813.0, 941.0], [812.0, 940.0], [811.0, 939.0], [810.0, 938.0], [809.0, 937.0], [808.0, 936.0], [807.0, 935.0], [806.0, 934.0], [805.0, 933.0], [804.0, 932.0], [803.0, 931.0], [804.0, 930.0], [805.0, 929.0], [806.0, 928.0], [806.0, 927.0], [806.0, 926.0], [806.0, 925.0], [806.0, 924.0], [807.0, 923.0], [808.0, 922.0], [809.0, 921.0], [810.0, 920.0], [811.0, 919.0], [812.0, 918.0], [813.0, 917.0], [814.0, 916.0], [815.0, 915.0], [816.0, 914.0], [817.0, 913.0], [818.0, 912.0], [819.0, 911.0], [820.0, 910.0], [821.0, 909.0], [822.0, 908.0], [823.0, 907.0], [824.0, 906.0], [825.0, 905.0], [826.0, 904.0], [827.0, 903.0], [828.0, 902.0], [829.0, 901.0], [830.0, 900.0], [831.0, 899.0], [832.0, 898.0], [833.0, 897.0], [834.0, 896.0], [835.0, 895.0], [836.0, 894.0], [837.0, 893.0], [838.0, 894.0], [839.0, 894.0], [840.0, 894.0], [841.0, 895.0], [842.0, 895.0], [843.0, 895.0], [844.0, 895.0], [845.0, 894.0], [846.0, 894.0], [847.0, 894.0], [848.0, 894.0], [849.0, 894.0], [850.0, 894.0], [851.0, 894.0], [852.0, 893.0], [853.0, 892.0], [854.0, 891.0], [855.0, 891.0], [856.0, 890.0], [857.0, 890.0], [858.0, 890.0], [859.0, 890.0], [860.0, 890.0], [861.0, 891.0], [862.0, 891.0], [863.0, 891.0], [864.0, 891.0], [865.0, 891.0], [866.0, 891.0], [867.0, 891.0]]}, "properties": {"id": 9}}, {"type": "Feature", "geometry": {"type": "LineString", "coordinates": [[624.0, 0.0], [623.0, 0.0], [622.0, 0.0], [621.0, 0.0], [620.0, 0.0], [619.0, 1.0], [618.0, 2.0], [617.0, 3.0], [616.0, 4.0], [615.0, 5.0], [614.0, 6.0], [613.0, 7.0], [612.0, 8.0], [611.0, 8.0], [610.0, 8.0], [609.0, 8.0], [608.0, 7.0], [607.0, 7.0], [606.0, 8.0], [605.0, 8.0], [604.0, 8.0], [603.0, 8.0], [602.0, 8.0], [601.0, 8.0], [600.0, 8.0], [599.0, 8.0], [598.0, 9.0], [597.0, 9.0], [596.0, 10.0], [595.0, 11.0], [594.0, 12.0], [593.0, 13.0], [592.0, 14.0], [591.0, 15.0], [590.0, 16.0], [589.0, 17.0], [588.0, 18.0], [587.0, 19.0], [586.0, 20.0], [585.0, 21.0], [584.0, 22.0], [583.0, 23.0], [582.0, 24.0], [581.0, 25.0], [580.0, 26.0], [579.0, 26.0], [578.0, 26.0], [577.0, 26.0]]}, "properties": {"id": 10}}, {"type": "Feature", "geometry": {"type": "LineString", "coordinates": [[183.0, 888.0], [182.0, 889.0], [181.0, 890.0], [180.0, 891.0], [179.0, 892.0], [180.0, 893.0], [181.0, 894.0], [182.0, 895.0], [182.0, 896.0], [182.0, 897.0], [182.0, 898.0], [181.0, 899.0], [181.0, 900.0], [180.0, 901.0], [179.0, 902.0], [178.0, 903.0], [178.0, 904.0]]}, "properties": {"id": 11}}, {"type": "Feature", "geometry": {"type": "LineString", "coordinates": [[808.0, 704.0], [809.0, 703.0], [810.0, 702.0], [810.0, 701.0], [809.0, 700.0], [808.0, 699.0], [807.0, 698.0], [806.0, 697.0], [805.0, 696.0], [804.0, 695.0], [803.0, 694.0], [802.0, 693.0], [801.0, 692.0], [800.0, 691.0], [799.0, 690.0], [798.0, 689.0], [797.0, 688.0], [796.0, 687.0], [795.0, 686.0], [794.0, 685.0], [793.0, 684.0], [792.0, 683.0], [791.0, 682.0], [790.0, 681.0], [789.0, 680.0], [788.0, 679.0], [787.0, 678.0], [786.0, 677.0], [785.0, 676.0], [784.0, 675.0], [783.0, 674.0], [782.0, 673.0], [782.0, 672.0], [782.0, 671.0], [782.0, 670.0], [781.0, 669.0], [780.0, 668.0], [779.0, 667.0], [778.0, 666.0]]}, "properties": {"id": 12}}, {"type": "Feature", "geometry": {"type": "LineString", "coordinates": [[386.0, 775.0], [387.0, 774.0], [388.0, 773.0], [389.0, 772.0], [388.0, 771.0], [387.0, 770.0], [386.0, 769.0], [386.0, 768.0]]}, "properties": {"id": 13}}, {"type": "Feature", "geometry": {"type": "LineString", "coordinates": [[520.0, 974.0], [521.0, 973.0], [522.0, 972.0], [523.0, 971.0], [524.0, 970.0], [523.0, 969.0], [522.0, 968.0], [521.0, 967.0], [520.0, 966.0], [519.0, 965.0], [518.0, 964.0], [517.0, 963.0], [516.0, 962.0], [515.0, 961.0], [514.0, 960.0], [513.0, 959.0], [512.0, 958.0], [512.0, 957.0], [512.0, 956.0], [512.0, 955.0], [512.0, 954.0], [512.0, 953.0], [512.0, 952.0], [512.0, 951.0], [512.0, 950.0], [512.0, 949.0]]}, "properties": {"id": 14}}, {"type": "Feature", "geometry": {"type": "LineString", "coordinates": [[924.0, 911.0], [925.0, 912.0], [926.0, 913.0], [927.0, 914.0], [928.0, 915.0], [929.0, 916.0], [930.0, 917.0], [931.0, 918.0], [932.0, 919.0], [933.0, 920.0], [934.0, 921.0], [935.0, 922.0], [936.0, 923.0], [937.0, 924.0], [938.0, 925.0], [939.0, 926.0], [940.0, 927.0], [941.0, 927.0], [942.0, 927.0], [943.0, 927.0], [944.0, 927.0], [945.0, 927.0]]}, "properties": {"id": 15}}, {"type": "Feature", "geometry": {"type": "LineString", "coordinates": [[862.0, 131.0], [861.0, 132.0], [860.0, 133.0], [859.0, 134.0], [858.0, 135.0], [857.0, 136.0], [856.0, 137.0], [855.0, 137.0], [854.0, 136.0], [853.0, 136.0], [852.0, 135.0], [851.0, 134.0], [850.0, 133.0], [849.0, 132.0], [848.0, 131.0], [847.0, 130.0], [846.0, 130.0], [845.0, 130.0], [844.0, 129.0], [843.0, 129.0], [842.0, 129.0], [841.0, 129.0], [840.0, 129.0], [839.0, 129.0], [838.0, 129.0]]}, "properties": {"id": 16}}, {"type": "Feature", "geometry": {"type": "LineString", "coordinates": [[329.0, 690.0], [330.0, 691.0], [331.0, 692.0], [332.0, 693.0], [333.0, 694.0], [334.0, 694.0], [335.0, 693.0], [336.0, 692.0], [337.0, 691.0], [338.0, 690.0], [339.0, 689.0], [340.0, 688.0], [341.0, 687.0], [342.0, 686.0], [343.0, 685.0], [344.0, 684.0], [345.0, 683.0], [346.0, 682.0], [347.0, 681.0], [348.0, 680.0], [349.0, 679.0], [350.0, 678.0], [351.0, 677.0], [352.0, 676.0], [353.0, 675.0], [354.0, 674.0], [355.0, 673.0], [356.0, 672.0], [357.0, 671.0], [358.0, 670.0], [359.0, 669.0], [360.0, 668.0], [361.0, 667.0], [362.0, 666.0], [363.0, 665.0], [364.0, 664.0], [365.0, 663.0], [366.0, 663.0], [367.0, 663.0], [368.0, 662.0], [369.0, 662.0], [370.0, 661.0], [371.0, 660.0], [372.0, 659.0], [373.0, 658.0], [374.0, 657.0], [375.0, 656.0], [376.0, 655.0], [377.0, 654.0], [378.0, 653.0], [379.0, 652.0], [380.0, 651.0], [381.0, 650.0], [382.0, 649.0], [383.0, 648.0], [384.0, 647.0], [385.0, 646.0], [385.0, 645.0], [385.0, 644.0]]}, "properties": {"id": 17}}, {"type": "Feature", "geometry": {"type": "LineString", "coordinates": [[970.0, 309.0], [969.0, 308.0], [968.0, 307.0], [967.0, 306.0], [966.0, 305.0], [965.0, 304.0], [964.0, 303.0], [963.0, 302.0], [962.0, 301.0], [961.0, 300.0], [960.0, 299.0], [959.0, 298.0], [959.0, 297.0], [959.0, 296.0], [959.0, 295.0], [959.0, 294.0], [958.0, 293.0], [957.0, 292.0], [956.0, 291.0], [955.0, 290.0], [955.0, 289.0], [955.0, 288.0], [955.0, 287.0]]}, "properties": {"id": 18}}, {"type": "Feature", "geometry": {"type": "LineString", "coordinates": [[680.0, 603.0], [681.0, 602.0], [682.0, 601.0], [683.0, 600.0], [684.0, 599.0], [685.0, 600.0], [686.0, 601.0], [687.0, 601.0], [688.0, 601.0], [689.0, 601.0], [690.0, 601.0], [691.0, 601.0], [692.0, 600.0], [693.0, 599.0], [694.0, 598.0], [695.0, 597.0], [696.0, 596.0], [697.0, 595.0]]}, "properties": {"id": 19}}, {"type": "Feature", "geometry": {"type": "LineString", "coordinates": [[756.0, 417.0], [755.0, 416.0], [754.0, 415.0], [753.0, 414.0], [752.0, 413.0], [751.0, 412.0], [750.0, 411.0], [749.0, 410.0], [748.0, 409.0], [747.0, 408.0], [746.0, 408.0], [745.0, 407.0], [744.0, 407.0], [743.0, 407.0], [742.0, 407.0], [741.0, 407.0], [740.0, 407.0], [739.0, 406.0], [738.0, 406.0], [737.0, 406.0], [736.0, 406.0]]}, "properties": {"id": 20}}, {"type": "Feature", "geometry": {"type": "LineString", "coordinates": [[143.0, 549.0], [144.0, 548.0], [145.0, 547.0], [146.0, 546.0], [147.0, 545.0], [148.0, 544.0], [149.0, 543.0], [150.0, 542.0], [151.0, 541.0], [152.0, 540.0], [153.0, 539.0], [154.0, 538.0], [155.0, 537.0], [156.0, 536.0], [157.0, 535.0], [158.0, 534.0], [159.0, 533.0], [160.0, 532.0], [161.0, 531.0], [162.0, 530.0], [163.0, 529.0], [164.0, 528.0], [164.0, 527.0]]}, "properties": {"id": 21}}, {"type": "Feature", "geometry": {"type": "LineString", "coordinates": [[117.0, 752.0], [116.0, 751.0], [115.0, 750.0], [114.0, 749.0], [113.0, 748.0], [112.0, 749.0], [111.0, 749.0], [110.0, 749.0], [109.0, 748.0], [108.0, 747.0], [107.0, 746.0], [106.0, 745.0], [105.0, 744.0], [104.0, 743.0], [103.0, 742.0], [102.0, 741.0], [101.0, 740.0], [100.0, 739.0], [99.0, 738.0], [98.0, 737.0], [97.0, 736.0], [96.0, 735.0], [95.0, 734.0], [94.0, 733.0], [93.0, 734.0], [92.0, 735.0], [91.0, 735.0]]}, "properties": {"id": 22}}, {"type": "Feature", "geometry": {"type": "LineString", "coordinates": [[32.0, 637.0], [31.0, 638.0], [30.0, 639.0], [29.0, 640.0], [28.0, 641.0], [29.0, 642.0], [30.0, 643.0], [31.0, 644.0], [32.0, 645.0], [32.0, 646.0], [32.0, 647.0], [32.0, 648.0], [32.0, 649.0], [32.0, 650.0], [32.0, 651.0], [32.0, 652.0], [32.0, 653.0], [32.0, 654.0], [32.0, 655.0], [32.0, 656.0], [32.0, 657.0], [32.0, 658.0], [32.0, 659.0], [31.0, 660.0], [30.0, 661.0], [29.0, 662.0], [28.0, 663.0], [27.0, 664.0], [26.0, 665.0], [26.0, 666.0], [26.0, 667.0], [26.0, 668.0], [26.0, 669.0], [26.0, 670.0], [26.0, 671.0], [27.0, 672.0], [27.0, 673.0], [27.0, 674.0], [27.0, 675.0], [28.0, 676.0], [29.0, 677.0], [30.0, 678.0], [31.0, 679.0], [32.0, 680.0], [33.0, 681.0]]}, "properties": {"id": 23}}, {"type": "Feature", "geometry": {"type": "LineString", "coordinates": [[949.0, 188.0], [950.0, 187.0], [951.0, 186.0], [952.0, 185.0], [952.0, 184.0], [952.0, 183.0], [953.0, 182.0], [953.0, 181.0], [953.0, 180.0], [954.0, 179.0], [955.0, 178.0], [956.0, 177.0], [955.0, 176.0], [955.0, 175.0], [956.0, 174.0], [957.0, 173.0], [958.0, 172.0], [959.0, 171.0], [960.0, 170.0], [961.0, 169.0], [962.0, 168.0], [963.0, 167.0], [964.0, 166.0], [965.0, 165.0], [966.0, 164.0], [967.0, 163.0], [968.0, 162.0], [969.0, 161.0], [970.0, 160.0], [971.0, 159.0], [972.0, 158.0], [973.0, 157.0], [974.0, 156.0], [975.0, 155.0], [976.0, 154.0], [977.0, 153.0], [978.0, 152.0], [979.0, 151.0], [979.0, 150.0], [980.0, 149.0], [981.0, 148.0], [982.0, 147.0], [983.0, 146.0], [984.0, 145.0], [985.0, 144.0], [986.0, 143.0], [987.0, 142.0], [988.0, 141.0], [989.0, 140.0], [990.0, 139.0], [991.0, 138.0], [992.0, 137.0], [993.0, 136.0], [994.0, 135.0], [995.0, 134.0], [996.0, 133.0], [997.0, 132.0], [998.0, 133.0], [999.0, 134.0], [1000.0, 134.0], [1001.0, 134.0], [1002.0, 133.0], [1003.0, 132.0], [1004.0, 131.0], [1005.0, 130.0], [1006.0, 129.0]]}, "properties": {"id": 24}}, {"type": "Feature", "geometry": {"type": "LineString", "coordinates": [[932.0, 497.0], [933.0, 496.0], [934.0, 495.0], [935.0, 494.0], [936.0, 493.0], [937.0, 492.0], [938.0, 491.0], [939.0, 490.0], [940.0, 489.0], [941.0, 488.0], [942.0, 487.0], [943.0, 486.0], [944.0, 485.0], [945.0, 484.0], [946.0, 483.0], [947.0, 482.0], [948.0, 481.0], [949.0, 480.0], [950.0, 479.0], [951.0, 478.0], [952.0, 477.0], [953.0, 476.0], [954.0, 475.0], [955.0, 474.0], [954.0, 473.0], [953.0, 472.0], [952.0, 471.0], [951.0, 470.0], [951.0, 469.0], [951.0, 468.0], [950.0, 467.0], [950.0, 466.0], [950.0, 465.0], [949.0, 464.0], [949.0, 463.0], [949.0, 462.0], [949.0, 461.0], [949.0, 460.0], [949.0, 459.0], [949.0, 458.0], [950.0, 457.0], [950.0, 456.0], [950.0, 455.0], [950.0, 454.0], [951.0, 453.0], [951.0, 452.0], [951.0, 451.0], [951.0, 450.0], [951.0, 449.0], [951.0, 448.0], [951.0, 447.0], [951.0, 446.0], [951.0, 445.0], [951.0, 444.0], [951.0, 443.0], [951.0, 442.0]]}, "properties": {"id": 25}}, {"type": "Feature", "geometry": {"type": "LineString", "coordinates": [[1019.0, 214.0], [1018.0, 215.0], [1017.0, 216.0], [1016.0, 217.0], [1015.0, 218.0], [1014.0, 219.0], [1013.0, 220.0], [1012.0, 221.0], [1011.0, 222.0], [1010.0, 223.0], [1009.0, 224.0], [1008.0, 225.0], [1007.0, 226.0], [1006.0, 227.0], [1005.0, 228.0], [1004.0, 229.0], [1003.0, 230.0], [1002.0, 231.0], [1001.0, 232.0], [1000.0, 232.0], [999.0, 232.0], [998.0, 232.0], [997.0, 232.0], [996.0, 232.0], [995.0, 232.0], [994.0, 232.0], [993.0, 232.0], [992.0, 232.0], [991.0, 232.0], [990.0, 232.0], [989.0, 232.0], [988.0, 232.0], [987.0, 232.0], [986.0, 233.0], [985.0, 234.0], [984.0, 235.0], [983.0, 236.0], [982.0, 237.0], [981.0, 238.0], [980.0, 239.0], [979.0, 240.0], [978.0, 241.0], [977.0, 242.0], [977.0, 243.0], [976.0, 244.0], [976.0, 245.0], [976.0, 246.0], [976.0, 247.0], [976.0, 248.0], [976.0, 249.0], [976.0, 250.0]]}, "properties": {"id": 26}}, {"type": "Feature", "geometry": {"type": "LineString", "coordinates": [[435.0, 203.0], [434.0, 204.0], [433.0, 205.0], [432.0, 206.0], [431.0, 207.0], [430.0, 208.0], [429.0, 209.0], [428.0, 209.0], [427.0, 208.0], [426.0, 208.0], [425.0, 208.0], [424.0, 208.0], [423.0, 208.0], [422.0, 208.0], [421.0, 208.0], [420.0, 208.0], [419.0, 208.0], [418.0, 208.0], [417.0, 208.0], [416.0, 208.0], [415.0, 208.0], [414.0, 208.0], [413.0, 208.0], [412.0, 208.0], [411.0, 208.0], [410.0, 208.0], [409.0, 208.0], [408.0, 208.0], [407.0, 208.0], [406.0, 208.0], [405.0, 208.0], [404.0, 208.0], [403.0, 208.0], [402.0, 208.0], [401.0, 208.0], [400.0, 208.0], [399.0, 208.0]]}, "properties": {"id": 27}}, {"type": "Feature", "geometry": {"type": "LineString", "coordinates": [[44.0, 537.0], [45.0, 538.0], [46.0, 539.0], [47.0, 540.0], [48.0, 541.0], [49.0, 542.0], [50.0, 543.0], [51.0, 544.0], [52.0, 545.0], [53.0, 546.0], [54.0, 547.0], [55.0, 548.0], [56.0, 549.0], [55.0, 550.0], [55.0, 551.0], [54.0, 552.0], [53.0, 553.0], [52.0, 554.0], [51.0, 555.0], [50.0, 556.0], [49.0, 557.0], [48.0, 558.0], [47.0, 559.0], [46.0, 560.0], [45.0, 561.0], [44.0, 562.0], [43.0, 563.0], [42.0, 564.0], [41.0, 565.0], [40.0, 566.0], [39.0, 567.0], [38.0, 568.0], [37.0, 569.0], [36.0, 570.0], [35.0, 571.0], [34.0, 572.0], [33.0, 573.0], [32.0, 574.0], [31.0, 575.0], [30.0, 576.0], [29.0, 577.0], [28.0, 578.0], [27.0, 579.0], [26.0, 579.0], [25.0, 580.0], [24.0, 579.0], [23.0, 579.0], [22.0, 578.0], [21.0, 578.0], [20.0, 578.0], [19.0, 578.0], [18.0, 578.0], [17.0, 577.0], [16.0, 577.0]]}, "properties": {"id": 28}}, {"type": "Feature", "geometry": {"type": "LineString", "coordinates": [[783.0, 917.0], [782.0, 918.0], [781.0, 919.0], [780.0, 920.0], [779.0, 921.0], [778.0, 920.0], [777.0, 920.0], [776.0, 919.0], [775.0, 919.0], [774.0, 918.0], [773.0, 917.0], [772.0, 916.0], [771.0, 915.0], [770.0, 914.0], [769.0, 913.0], [768.0, 912.0], [767.0, 911.0], [768.0, 910.0], [768.0, 909.0], [768.0, 908.0], [768.0, 907.0]]}, "properties": {"id": 29}}, {"type": "Feature", "geometry": {"type": "LineString", "coordinates": [[678.0, 97.0], [679.0, 98.0], [680.0, 99.0], [681.0, 100.0], [682.0, 101.0], [683.0, 102.0], [684.0, 103.0], [685.0, 104.0], [685.0, 105.0], [684.0, 106.0], [683.0, 107.0], [682.0, 108.0], [681.0, 109.0], [680.0, 110.0], [679.0, 111.0], [678.0, 112.0], [677.0, 113.0], [676.0, 114.0], [675.0, 115.0], [674.0, 116.0], [673.0, 117.0], [672.0, 118.0], [671.0, 119.0], [671.0, 120.0], [671.0, 121.0], [671.0, 122.0], [670.0, 123.0], [669.0, 124.0], [668.0, 125.0], [667.0, 126.0], [666.0, 127.0], [665.0, 128.0], [664.0, 129.0], [663.0, 130.0], [662.0, 130.0], [661.0, 130.0], [660.0, 130.0], [659.0, 130.0], [658.0, 130.0], [657.0, 131.0], [656.0, 131.0], [655.0, 131.0], [654.0, 132.0], [653.0, 133.0], [652.0, 134.0], [651.0, 135.0], [650.0, 136.0], [649.0, 137.0], [648.0, 138.0], [647.0, 139.0], [646.0, 140.0], [645.0, 141.0], [644.0, 142.0], [643.0, 143.0], [642.0, 144.0], [641.0, 145.0], [640.0, 146.0], [639.0, 147.0], [639.0, 148.0], [639.0, 149.0], [639.0, 150.0], [639.0, 151.0], [639.0, 152.0], [639.0, 153.0], [639.0, 154.0], [638.0, 155.0], [637.0, 156.0], [636.0, 157.0], [635.0, 158.0], [634.0, 159.0], [633.0, 160.0], [632.0, 161.0], [631.0, 162.0], [631.0, 163.0], [631.0, 164.0], [631.0, 165.0], [631.0, 166.0], [631.0, 167.0], [631.0, 168.0], [631.0, 169.0], [631.0, 170.0]]}, "properties": {"id": 30}}, {"type": "Feature", "geometry": {"type": "LineString", "coordinates": [[256.0, 198.0], [257.0, 197.0], [258.0, 196.0], [259.0, 195.0], [260.0, 194.0], [261.0, 193.0], [262.0, 192.0], [263.0, 191.0], [264.0, 190.0], [265.0, 189.0], [266.0, 189.0], [267.0, 190.0], [268.0, 190.0], [269.0, 190.0], [270.0, 190.0], [271.0, 190.0]]}, "properties": {"id": 31}}, {"type": "Feature", "geometry": {"type": "LineString", "coordinates": [[28.0, 767.0], [29.0, 766.0], [30.0, 767.0], [31.0, 768.0], [32.0, 769.0], [33.0, 770.0], [34.0, 771.0], [35.0, 770.0], [36.0, 769.0], [37.0, 768.0], [38.0, 768.0], [39.0, 768.0], [40.0, 768.0], [41.0, 768.0], [42.0, 768.0], [43.0, 768.0], [44.0, 768.0], [45.0, 768.0], [46.0, 768.0], [47.0, 768.0], [48.0, 768.0], [49.0, 768.0], [50.0, 768.0], [51.0, 768.0], [52.0, 768.0], [53.0, 768.0], [54.0, 768.0], [55.0, 768.0], [56.0, 767.0], [56.0, 766.0], [56.0, 765.0], [56.0, 764.0], [57.0, 763.0]]}, "properties": {"id": 32}}, {"type": "Feature", "geometry": {"type": "LineString", "coordinates": [[523.0, 251.0], [522.0, 252.0], [521.0, 253.0], [520.0, 254.0], [519.0, 255.0], [518.0, 256.0], [517.0, 256.0], [516.0, 256.0], [515.0, 256.0], [514.0, 255.0], [513.0, 254.0], [512.0, 253.0], [511.0, 252.0], [510.0, 251.0], [509.0, 250.0], [508.0, 249.0], [507.0, 248.0], [508.0, 247.0], [509.0, 246.0], [510.0, 245.0], [511.0, 244.0], [512.0, 243.0], [513.0, 242.0], [514.0, 241.0], [515.0, 240.0], [516.0, 239.0], [517.0, 239.0], [518.0, 239.0], [519.0, 239.0], [520.0, 239.0]]}, "properties": {"id": 33}}, {"type": "Feature", "geometry": {"type": "LineString", "coordinates": [[526.0, 467.0], [527.0, 466.0], [528.0, 465.0], [529.0, 464.0], [530.0, 463.0], [531.0, 462.0], [532.0, 461.0], [533.0, 460.0], [534.0, 459.0], [535.0, 458.0], [536.0, 457.0]]}, "properties": {"id": 34}}, {"type": "Feature", "geometry": {"type": "LineString", "coordinates": [[546.0, 881.0], [545.0, 880.0], [544.0, 879.0], [543.0, 878.0], [542.0, 877.0], [541.0, 876.0], [540.0, 875.0], [539.0, 874.0], [538.0, 873.0], [537.0, 872.0], [536.0, 871.0], [535.0, 870.0], [534.0, 869.0], [533.0, 868.0]]}, "properties": {"id": 35}}, {"type": "Feature", "geometry": {"type": "LineString", "coordinates": [[189.0, 34.0], [190.0, 35.0], [191.0, 36.0], [192.0, 37.0], [193.0, 38.0], [194.0, 39.0], [195.0, 40.0], [196.0, 41.0], [197.0, 41.0], [198.0, 41.0], [199.0, 41.0], [200.0, 41.0], [201.0, 41.0]]}, "properties": {"id": 36}}, {"type": "Feature", "geometry": {"type": "LineString", "coordinates": [[808.0, 501.0], [807.0, 500.0], [806.0, 499.0], [805.0, 498.0], [804.0, 497.0], [803.0, 496.0], [802.0, 495.0], [801.0, 494.0], [800.0, 493.0], [799.0, 492.0], [798.0, 491.0], [797.0, 490.0], [796.0, 489.0], [795.0, 489.0], [794.0, 489.0], [793.0, 489.0], [792.0, 489.0], [791.0, 490.0], [790.0, 490.0], [789.0, 491.0]]}, "properties": {"id": 37}}, {"type": "Feature", "geometry": {"type": "LineString", "coordinates": [[814.0, 864.0], [815.0, 863.0], [816.0, 862.0], [817.0, 861.0], [818.0, 860.0], [819.0, 859.0], [820.0, 860.0], [821.0, 861.0], [822.0, 862.0], [823.0, 863.0], [824.0, 863.0], [825.0, 862.0], [826.0, 861.0], [827.0, 860.0], [828.0, 859.0], [829.0, 858.0], [830.0, 857.0], [831.0, 857.0], [832.0, 857.0], [833.0, 857.0], [834.0, 857.0], [835.0, 858.0], [836.0, 858.0], [837.0, 859.0], [838.0, 860.0], [839.0, 861.0], [840.0, 862.0], [841.0, 862.0], [842.0, 862.0]]}, "properties": {"id": 38}}, {"type": "Feature", "geometry": {"type": "LineString", "coordinates": [[723.0, 43.0], [722.0, 42.0], [721.0, 41.0], [720.0, 40.0], [719.0, 40.0], [718.0, 40.0], [717.0, 40.0], [716.0, 40.0], [715.0, 40.0], [714.0, 40.0], [713.0, 40.0], [712.0, 40.0], [711.0, 40.0]]}, "properties": {"id": 39}}, {"type": "Feature", "geometry": {"type": "LineString", "coordinates": [[198.0, 570.0], [197.0, 569.0], [196.0, 568.0], [195.0, 567.0], [194.0, 566.0], [193.0, 566.0], [192.0, 567.0], [191.0, 567.0], [190.0, 567.0], [189.0, 567.0], [188.0, 566.0], [187.0, 566.0], [186.0, 566.0], [185.0, 565.0], [184.0, 564.0], [183.0, 563.0], [182.0, 562.0], [181.0, 561.0], [180.0, 560.0], [179.0, 559.0], [178.0, 559.0], [177.0, 559.0]]}, "properties": {"id": 40}}, {"type": "Feature", "geometry": {"type": "LineString", "coordinates": [[142.0, 779.0], [141.0, 778.0], [140.0, 777.0], [139.0, 776.0], [138.0, 775.0], [137.0, 774.0], [136.0, 773.0], [135.0, 772.0], [134.0, 771.0], [133.0, 770.0], [132.0, 769.0], [131.0, 768.0], [130.0, 768.0], [129.0, 768.0], [128.0, 768.0], [127.0, 768.0], [126.0, 768.0], [125.0, 768.0], [124.0, 768.0], [123.0, 768.0], [122.0, 768.0], [121.0, 768.0], [120.0, 768.0], [119.0, 768.0], [118.0, 768.0], [117.0, 768.0], [116.0, 768.0], [115.0, 767.0], [114.0, 766.0], [113.0, 765.0], [112.0, 764.0], [111.0, 763.0], [110.0, 762.0], [109.0, 761.0], [108.0, 760.0], [107.0, 759.0], [106.0, 758.0], [105.0, 757.0], [104.0, 756.0], [103.0, 755.0], [102.0, 754.0], [101.0, 753.0], [100.0, 752.0], [99.0, 751.0], [98.0, 750.0], [97.0, 749.0], [96.0, 748.0], [95.0, 747.0], [94.0, 746.0], [93.0, 745.0], [92.0, 744.0], [91.0, 743.0], [90.0, 742.0], [89.0, 741.0], [88.0, 740.0]]}, "properties": {"id": 41}}, {"type": "Feature", "geometry": {"type": "LineString", "coordinates": [[860.0, 564.0], [859.0, 565.0], [858.0, 566.0], [857.0, 567.0], [856.0, 568.0], [855.0, 569.0], [854.0, 570.0], [853.0, 571.0], [852.0, 572.0], [851.0, 573.0], [850.0, 574.0], [849.0, 575.0], [848.0, 576.0], [847.0, 577.0], [846.0, 578.0], [845.0, 579.0], [844.0, 580.0], [843.0, 581.0], [842.0, 582.0], [841.0, 583.0], [840.0, 583.0], [839.0, 582.0], [838.0, 581.0], [837.0, 580.0], [836.0, 579.0], [835.0, 578.0], [834.0, 577.0], [833.0, 576.0], [832.0, 576.0], [831.0, 576.0], [830.0, 576.0], [829.0, 576.0], [828.0, 576.0], [827.0, 576.0]]}, "properties": {"id": 42}}, {"type": "Feature", "geometry": {"type": "LineString", "coordinates": [[958.0, 137.0], [959.0, 136.0], [960.0, 135.0], [961.0, 134.0], [962.0, 133.0], [963.0, 132.0], [964.0, 131.0], [965.0, 130.0], [966.0, 131.0], [967.0, 132.0], [968.0, 133.0], [969.0, 134.0], [970.0, 135.0], [971.0, 136.0], [972.0, 137.0], [973.0, 138.0], [974.0, 139.0], [975.0, 140.0], [976.0, 141.0], [977.0, 142.0], [978.0, 143.0], [979.0, 143.0], [980.0, 143.0], [981.0, 142.0], [982.0, 141.0], [983.0, 140.0], [984.0, 139.0], [985.0, 138.0], [986.0, 137.0], [987.0, 136.0], [988.0, 135.0], [989.0, 134.0], [990.0, 133.0], [991.0, 132.0], [992.0, 131.0], [993.0, 130.0], [994.0, 129.0], [995.0, 128.0], [996.0, 128.0], [997.0, 128.0], [998.0, 129.0], [999.0, 130.0], [1000.0, 131.0], [1001.0, 132.0], [1002.0, 133.0]]}, "properties": {"id": 43}}, {"type": "Feature", "geometry": {"type": "LineString", "coordinates": [[974.0, 964.0], [973.0, 963.0], [972.0, 962.0], [971.0, 961.0], [970.0, 960.0], [969.0, 959.0], [968.0, 958.0], [967.0, 957.0], [966.0, 956.0], [965.0, 955.0], [964.0, 954.0], [963.0, 953.0], [962.0, 952.0], [962.0, 951.0], [962.0, 950.0], [963.0, 949.0], [964.0, 948.0], [965.0, 947.0]]}, "properties": {"id": 44}}, {"type": "Feature", "geometry": {"type": "LineString", "coordinates": [[621.0, 66.0], [620.0, 67.0], [619.0, 68.0], [618.0, 69.0], [617.0, 70.0], [616.0, 71.0], [615.0, 72.0], [614.0, 73.0], [613.0, 73.0], [612.0, 74.0], [611.0, 75.0], [610.0, 76.0], [609.0, 77.0], [608.0, 78.0], [607.0, 79.0], [606.0, 80.0], [605.0, 81.0], [604.0, 82.0], [603.0, 83.0], [602.0, 84.0], [601.0, 85.0], [600.0, 86.0], [599.0, 87.0], [598.0, 88.0], [597.0, 89.0], [596.0, 90.0], [595.0, 91.0], [594.0, 92.0], [593.0, 93.0], [593.0, 94.0], [593.0, 95.0], [593.0, 96.0], [593.0, 97.0], [593.0, 98.0], [594.0, 99.0], [595.0, 100.0], [596.0, 101.0], [597.0, 102.0], [598.0, 103.0], [599.0, 104.0], [600.0, 105.0], [601.0, 106.0], [602.0, 107.0], [603.0, 108.0], [604.0, 109.0], [605.0, 110.0], [606.0, 111.0], [607.0, 112.0], [607.0, 113.0], [607.0, 114.0], [606.0, 115.0], [605.0, 116.0], [604.0, 117.0], [603.0, 118.0], [602.0, 119.0], [601.0, 120.0], [600.0, 120.0]]}, "properties": {"id": 45}}, {"type": "Feature", "geometry": {"type": "LineString", "coordinates": [[430.0, 243.0], [429.0, 242.0], [428.0, 241.0], [427.0, 240.0], [426.0, 239.0], [425.0, 238.0], [424.0, 237.0], [423.0, 236.0], [422.0, 235.0], [421.0, 234.0], [420.0, 233.0], [419.0, 232.0], [418.0, 231.0], [417.0, 230.0], [416.0, 229.0], [415.0, 228.0], [414.0, 227.0], [413.0, 226.0], [412.0, 225.0], [411.0, 224.0], [410.0, 223.0], [409.0, 222.0], [408.0, 221.0], [407.0, 220.0], [406.0, 221.0], [405.0, 222.0], [404.0, 222.0], [403.0, 223.0], [402.0, 223.0], [401.0, 223.0], [400.0, 223.0], [399.0, 223.0]]}, "properties": {"id": 46}}, {"type": "Feature", "geometry": {"type": "LineString", "coordinates": [[762.0, 424.0], [763.0, 425.0], [764.0, 426.0], [765.0, 427.0], [766.0, 428.0], [767.0, 429.0], [768.0, 430.0], [768.0, 431.0], [768.0, 432.0], [768.0, 433.0]]}, "properties": {"id": 47}}, {"type": "Feature", "geometry": {"type": "LineString", "coordinates": [[400.0, 898.0], [401.0, 899.0], [402.0, 900.0], [403.0, 901.0], [404.0, 902.0], [403.0, 903.0], [403.0, 904.0], [403.0, 905.0], [403.0, 906.0], [403.0, 907.0], [404.0, 908.0], [405.0, 909.0], [406.0, 910.0], [407.0, 911.0], [408.0, 912.0], [408.0, 913.0], [409.0, 914.0], [410.0, 915.0], [410.0, 916.0], [411.0, 917.0], [412.0, 918.0], [413.0, 919.0], [414.0, 920.0], [415.0, 921.0], [416.0, 922.0], [417.0, 923.0], [418.0, 924.0], [419.0, 925.0], [419.0, 926.0], [419.0, 927.0], [420.0, 928.0], [420.0, 929.0]]}, "properties": {"id": 48}}, {"type": "Feature", "geometry": {"type": "LineString", "coordinates": [[931.0, 255.0], [932.0, 254.0], [933.0, 253.0], [934.0, 252.0], [935.0, 253.0], [936.0, 254.0], [937.0, 253.0], [938.0, 252.0], [939.0, 251.0], [940.0, 250.0], [941.0, 250.0], [942.0, 250.0], [943.0, 250.0], [944.0, 250.0], [945.0, 250.0], [946.0, 251.0], [947.0, 252.0], [948.0, 253.0], [949.0, 254.0], [950.0, 255.0], [951.0, 256.0], [952.0, 257.0], [953.0, 258.0], [954.0, 259.0], [955.0, 260.0], [956.0, 261.0], [957.0, 262.0], [958.0, 263.0], [959.0, 263.0], [960.0, 263.0]]}, "properties": {"id": 49}}, {"type": "Feature", "geometry": {"type": "LineString", "coordinates": [[655.0, 908.0], [654.0, 907.0], [653.0, 906.0], [652.0, 905.0], [651.0, 904.0], [650.0, 903.0], [649.0, 902.0], [648.0, 901.0], [647.0, 900.0], [646.0, 899.0], [645.0, 898.0], [644.0, 897.0], [643.0, 896.0], [642.0, 895.0], [641.0, 894.0], [640.0, 893.0], [639.0, 892.0], [638.0, 893.0], [637.0, 894.0], [636.0, 895.0], [635.0, 895.0], [634.0, 895.0], [633.0, 895.0], [632.0, 895.0]]}, "properties": {"id": 50}}, {"type": "Feature", "geometry": {"type": "LineString", "coordinates": [[249.0, 737.0], [248.0, 738.0], [247.0, 739.0], [246.0, 740.0], [245.0, 741.0], [244.0, 742.0], [243.0, 743.0], [242.0, 744.0], [241.0, 745.0], [240.0, 746.0], [239.0, 747.0], [238.0, 748.0], [237.0, 749.0], [236.0, 750.0], [235.0, 750.0], [234.0, 749.0], [233.0, 748.0], [232.0, 747.0], [231.0, 746.0], [230.0, 745.0], [229.0, 744.0], [228.0, 744.0], [227.0, 744.0], [226.0, 743.0], [225.0, 742.0], [224.0, 741.0], [223.0, 740.0], [222.0, 739.0], [221.0, 738.0], [220.0, 737.0], [219.0, 737.0], [218.0, 737.0], [217.0, 737.0], [216.0, 737.0], [215.0, 737.0], [214.0, 737.0], [213.0, 737.0], [212.0, 737.0], [211.0, 737.0], [210.0, 737.0], [209.0, 737.0], [208.0, 737.0]]}, "properties": {"id": 51}}, {"type": "Feature", "geometry": {"type": "LineString", "coordinates": [[61.0, 391.0], [62.0, 390.0], [63.0, 389.0], [64.0, 388.0], [65.0, 387.0], [66.0, 386.0], [67.0, 385.0], [68.0, 384.0], [69.0, 383.0], [70.0, 382.0], [71.0, 381.0], [72.0, 380.0], [73.0, 379.0], [74.0, 378.0], [74.0, 377.0], [74.0, 376.0], [74.0, 375.0], [74.0, 374.0], [74.0, 373.0], [74.0, 372.0], [74.0, 371.0], [74.0, 370.0], [74.0, 369.0], [74.0, 368.0], [74.0, 367.0], [74.0, 366.0], [74.0, 365.0], [74.0, 364.0], [74.0, 363.0], [74.0, 362.0], [74.0, 361.0], [74.0, 360.0], [73.0, 359.0], [73.0, 358.0], [73.0, 357.0], [73.0, 356.0], [73.0, 355.0], [73.0, 354.0], [73.0, 353.0], [73.0, 352.0], [73.0, 351.0]]}, "properties": {"id": 52}}, {"type": "Feature", "geometry": {"type": "LineString", "coordinates": [[756.0, 727.0], [755.0, 726.0], [754.0, 725.0], [755.0, 724.0], [756.0, 723.0], [757.0, 722.0], [758.0, 721.0], [759.0, 720.0], [760.0, 719.0], [761.0, 718.0], [762.0, 717.0], [763.0, 716.0], [764.0, 715.0], [765.0, 714.0], [766.0, 713.0], [767.0, 712.0], [768.0, 711.0], [768.0, 710.0], [768.0, 709.0], [768.0, 708.0], [767.0, 707.0], [766.0, 706.0], [765.0, 705.0], [764.0, 704.0], [763.0, 703.0], [762.0, 702.0], [761.0, 701.0], [761.0, 700.0], [761.0, 699.0], [761.0, 698.0], [761.0, 697.0], [761.0, 696.0], [760.0, 695.0], [761.0, 694.0], [761.0, 693.0], [762.0, 692.0], [762.0, 691.0], [763.0, 690.0], [763.0, 689.0], [764.0, 688.0], [765.0, 687.0], [766.0, 686.0], [767.0, 685.0], [768.0, 684.0], [768.0, 683.0], [768.0, 682.0], [768.0, 681.0], [768.0, 680.0], [768.0, 679.0], [768.0, 678.0], [768.0, 677.0], [768.0, 676.0], [768.0, 675.0], [768.0, 674.0], [768.0, 673.0], [768.0, 672.0]]}, "properties": {"id": 53}}, {"type": "Feature", "geometry": {"type": "LineString", "coordinates": [[1001.0, 576.0], [1002.0, 577.0], [1003.0, 578.0], [1004.0, 579.0], [1005.0, 580.0], [1006.0, 581.0], [1007.0, 582.0], [1008.0, 583.0], [1009.0, 584.0], [1010.0, 585.0], [1011.0, 586.0], [1012.0, 587.0], [1013.0, 588.0], [1013.0, 589.0], [1013.0, 590.0], [1013.0, 591.0], [1013.0, 592.0]]}, "properties": {"id": 54}}, {"type": "Feature", "geometry": {"type": "LineString", "coordinates": [[394.0, 741.0], [395.0, 742.0], [396.0, 743.0], [397.0, 744.0], [398.0, 745.0], [399.0, 746.0], [400.0, 747.0], [401.0, 748.0], [402.0, 749.0], [403.0, 750.0], [404.0, 751.0], [405.0, 752.0], [406.0, 752.0], [407.0, 752.0], [408.0, 751.0], [409.0, 750.0], [410.0, 749.0], [411.0, 748.0], [412.0, 747.0], [413.0, 746.0], [414.0, 745.0], [415.0, 744.0], [416.0, 743.0], [417.0, 742.0], [418.0, 741.0], [419.0, 740.0], [420.0, 739.0]]}, "properties": {"id": 55}}, {"type": "Feature", "geometry": {"type": "LineString", "coordinates": [[577.0, 99.0], [576.0, 100.0], [575.0, 101.0], [574.0, 102.0], [573.0, 103.0], [572.0, 104.0], [571.0, 105.0], [570.0, 106.0], [571.0, 107.0], [572.0, 108.0], [573.0, 109.0], [573.0, 110.0], [574.0, 111.0], [574.0, 112.0], [575.0, 113.0], [575.0, 114.0], [575.0, 115.0], [575.0, 116.0], [575.0, 117.0], [575.0, 118.0], [575.0, 119.0], [575.0, 120.0], [575.0, 121.0], [575.0, 122.0], [575.0, 123.0], [574.0, 124.0], [573.0, 125.0], [572.0, 126.0], [571.0, 127.0], [571.0, 128.0]]}, "properties": {"id": 56}}, {"type": "Feature", "geometry": {"type": "LineString", "coordinates": [[76.0, 638.0], [77.0, 639.0], [78.0, 640.0], [79.0, 641.0], [80.0, 642.0], [81.0, 643.0], [82.0, 644.0], [83.0, 645.0], [84.0, 646.0], [85.0, 647.0], [86.0, 648.0], [87.0, 649.0], [88.0, 650.0], [89.0, 650.0], [90.0, 650.0], [91.0, 649.0], [92.0, 649.0], [93.0, 649.0], [94.0, 649.0], [95.0, 649.0], [96.0, 648.0], [97.0, 648.0], [98.0, 648.0], [99.0, 648.0], [100.0, 648.0], [101.0, 648.0], [102.0, 648.0], [103.0, 647.0], [104.0, 647.0], [105.0, 647.0], [106.0, 647.0], [107.0, 646.0], [108.0, 645.0], [109.0, 644.0], [110.0, 643.0], [111.0, 642.0], [112.0, 641.0], [112.0, 640.0]]}, "properties": {"id": 57}}, {"type": "Feature", "geometry": {"type": "LineString", "coordinates": [[115.0, 48.0], [116.0, 49.0], [117.0, 50.0], [118.0, 51.0], [119.0, 50.0], [120.0, 49.0], [121.0, 49.0], [122.0, 49.0], [123.0, 49.0], [124.0, 49.0], [125.0, 49.0], [126.0, 49.0], [127.0, 48.0], [128.0, 48.0]]}, "properties": {"id": 58}}, {"type": "Feature", "geometry": {"type": "LineString", "coordinates": [[634.0, 255.0], [633.0, 254.0], [632.0, 253.0], [631.0, 252.0], [630.0, 251.0], [629.0, 250.0], [628.0, 249.0], [628.0, 248.0], [629.0, 247.0], [630.0, 246.0], [631.0, 245.0], [632.0, 244.0], [633.0, 243.0], [634.0, 242.0]]}, "properties": {"id": 59}}, {"type": "Feature", "geometry": {"type": "LineString", "coordinates": [[119.0, 879.0], [118.0, 880.0], [117.0, 881.0], [116.0, 882.0], [115.0, 883.0], [114.0, 884.0], [113.0, 883.0], [112.0, 882.0], [111.0, 881.0], [110.0, 881.0], [109.0, 881.0], [108.0, 880.0], [107.0, 879.0], [106.0, 878.0], [105.0, 877.0], [104.0, 876.0], [103.0, 875.0], [102.0, 874.0], [101.0, 873.0], [100.0, 872.0], [99.0, 871.0], [98.0, 870.0], [97.0, 870.0], [96.0, 870.0], [95.0, 871.0], [94.0, 870.0], [93.0, 869.0], [92.0, 868.0], [91.0, 868.0], [90.0, 867.0], [89.0, 867.0], [88.0, 867.0], [87.0, 868.0], [86.0, 869.0], [85.0, 870.0], [84.0, 871.0]]}, "properties": {"id": 60}}, {"type": "Feature", "geometry": {"type": "LineString", "coordinates": [[690.0, 149.0], [689.0, 150.0], [688.0, 151.0], [687.0, 152.0], [686.0, 153.0], [685.0, 154.0], [684.0, 155.0], [683.0, 156.0], [684.0, 157.0], [685.0, 158.0], [686.0, 159.0], [687.0, 160.0], [687.0, 161.0], [687.0, 162.0], [688.0, 163.0], [688.0, 164.0], [688.0, 165.0], [688.0, 166.0], [688.0, 167.0], [688.0, 168.0], [688.0, 169.0], [687.0, 170.0], [687.0, 171.0], [686.0, 172.0], [685.0, 173.0], [684.0, 174.0], [683.0, 175.0], [682.0, 176.0], [681.0, 177.0], [680.0, 178.0], [679.0, 179.0], [678.0, 180.0], [677.0, 181.0], [676.0, 182.0], [675.0, 183.0], [674.0, 184.0], [673.0, 185.0], [672.0, 186.0], [671.0, 187.0], [670.0, 188.0], [670.0, 189.0], [671.0, 190.0], [671.0, 191.0], [671.0, 192.0], [671.0, 193.0], [671.0, 194.0]]}, "properties": {"id": 61}}, {"type": "Feature", "geometry": {"type": "LineString", "coordinates": [[505.0, 471.0], [506.0, 472.0], [507.0, 473.0], [508.0, 474.0], [509.0, 475.0], [510.0, 476.0], [509.0, 477.0], [508.0, 478.0], [507.0, 479.0], [506.0, 479.0], [505.0, 479.0]]}, "properties": {"id": 62}}, {"type": "Feature", "geometry": {"type": "LineString", "coordinates": [[615.0, 224.0], [616.0, 223.0], [617.0, 222.0], [618.0, 221.0], [619.0, 220.0], [620.0, 219.0], [621.0, 218.0], [622.0, 217.0], [623.0, 216.0], [624.0, 215.0], [625.0, 214.0], [626.0, 213.0], [627.0, 212.0]]}, "properties": {"id": 63}}, {"type": "Feature", "geometry": {"type": "LineString", "coordinates": [[732.0, 878.0], [733.0, 879.0], [734.0, 880.0], [735.0, 881.0], [736.0, 882.0], [737.0, 883.0], [738.0, 884.0], [739.0, 884.0], [740.0, 883.0], [741.0, 882.0], [742.0, 882.0], [743.0, 881.0], [744.0, 881.0]]}, "properties": {"id": 64}}, {"type": "Feature", "geometry": {"type": "LineString", "coordinates": [[997.0, 390.0], [998.0, 389.0], [999.0, 390.0], [1000.0, 390.0], [1001.0, 389.0], [1002.0, 388.0], [1003.0, 387.0], [1004.0, 386.0], [1005.0, 385.0], [1006.0, 384.0], [1007.0, 383.0], [1008.0, 382.0], [1009.0, 382.0], [1010.0, 382.0], [1011.0, 382.0], [1012.0, 382.0], [1013.0, 382.0], [1014.0, 383.0], [1015.0, 383.0], [1016.0, 383.0]]}, "properties": {"id": 65}}, {"type": "Feature", "geometry": {"type": "LineString", "coordinates": [[613.0, 913.0], [614.0, 914.0], [615.0, 915.0], [616.0, 916.0], [617.0, 917.0], [618.0, 918.0], [619.0, 919.0], [620.0, 920.0], [621.0, 921.0], [620.0, 922.0], [619.0, 923.0], [618.0, 924.0], [617.0, 925.0], [616.0, 926.0], [615.0, 927.0], [614.0, 927.0], [613.0, 927.0], [612.0, 927.0], [611.0, 927.0], [610.0, 927.0], [609.0, 927.0], [608.0, 927.0], [607.0, 928.0], [606.0, 928.0], [605.0, 928.0], [604.0, 928.0], [603.0, 928.0], [602.0, 928.0], [601.0, 928.0], [600.0, 928.0]]}, "properties": {"id": 66}}, {"type": "Feature", "geometry": {"type": "LineString", "coordinates": [[201.0, 744.0], [202.0, 743.0], [203.0, 742.0], [204.0, 741.0], [205.0, 740.0], [206.0, 739.0], [207.0, 738.0], [208.0, 737.0]]}, "properties": {"id": 67}}, {"type": "Feature", "geometry": {"type": "LineString", "coordinates": [[887.0, 824.0], [888.0, 825.0], [889.0, 826.0], [890.0, 827.0], [889.0, 828.0], [888.0, 829.0], [888.0, 830.0], [888.0, 831.0], [888.0, 832.0]]}, "properties": {"id": 68}}, {"type": "Feature", "geometry": {"type": "LineString", "coordinates": [[81.0, 576.0], [82.0, 577.0], [83.0, 578.0], [84.0, 579.0], [85.0, 580.0], [86.0, 581.0], [87.0, 582.0], [88.0, 583.0], [89.0, 584.0], [88.0, 585.0], [88.0, 586.0], [88.0, 587.0], [87.0, 588.0], [87.0, 589.0], [87.0, 590.0], [87.0, 591.0], [87.0, 592.0], [87.0, 593.0], [87.0, 594.0], [88.0, 595.0], [89.0, 596.0], [90.0, 597.0], [91.0, 598.0], [92.0, 599.0], [93.0, 600.0], [94.0, 601.0], [95.0, 602.0], [96.0, 603.0], [97.0, 604.0], [98.0, 605.0], [99.0, 606.0], [100.0, 607.0], [101.0, 608.0], [102.0, 609.0], [103.0, 610.0], [104.0, 611.0], [105.0, 612.0], [106.0, 613.0], [107.0, 614.0], [108.0, 615.0], [109.0, 616.0], [109.0, 617.0], [109.0, 618.0], [110.0, 619.0], [111.0, 620.0], [112.0, 621.0], [113.0, 622.0], [113.0, 623.0], [113.0, 624.0], [113.0, 625.0], [113.0, 626.0], [113.0, 627.0], [113.0, 628.0], [113.0, 629.0], [113.0, 630.0], [112.0, 631.0], [112.0, 632.0], [112.0, 633.0], [112.0, 634.0], [112.0, 635.0], [112.0, 636.0], [112.0, 637.0], [112.0, 638.0], [112.0, 639.0], [112.0, 640.0]]}, "properties": {"id": 69}}, {"type": "Feature", "geometry": {"type": "LineString", "coordinates": [[17.0, 509.0], [16.0, 510.0], [15.0, 511.0], [14.0, 512.0], [13.0, 513.0], [12.0, 514.0], [11.0, 515.0], [10.0, 516.0], [9.0, 517.0], [8.0, 518.0], [7.0, 519.0], [6.0, 520.0], [5.0, 521.0], [4.0, 522.0], [3.0, 523.0], [3.0, 524.0], [2.0, 525.0], [1.0, 526.0], [0.0, 527.0], [0.0, 528.0]]}, "properties": {"id": 70}}, {"type": "Feature", "geometry": {"type": "LineString", "coordinates": [[578.0, 11.0], [577.0, 10.0], [576.0, 9.0], [575.0, 8.0], [574.0, 7.0], [573.0, 6.0], [572.0, 5.0], [573.0, 4.0], [574.0, 3.0], [575.0, 2.0], [576.0, 1.0], [576.0, 0.0]]}, "properties": {"id": 71}}, {"type": "Feature", "geometry": {"type": "LineString", "coordinates": [[133.0, 452.0], [134.0, 453.0], [135.0, 454.0], [136.0, 455.0], [137.0, 456.0], [138.0, 457.0], [139.0, 458.0], [140.0, 459.0], [141.0, 460.0], [142.0, 461.0], [143.0, 462.0], [144.0, 463.0], [145.0, 464.0], [146.0, 465.0], [146.0, 466.0], [146.0, 467.0], [145.0, 468.0], [145.0, 469.0], [145.0, 470.0], [145.0, 471.0], [145.0, 472.0]]}, "properties": {"id": 72}}, {"type": "Feature", "geometry": {"type": "LineString", "coordinates": [[802.0, 269.0], [801.0, 270.0], [800.0, 271.0], [799.0, 272.0], [798.0, 272.0], [797.0, 272.0], [796.0, 272.0], [795.0, 272.0], [794.0, 272.0], [793.0, 272.0], [792.0, 272.0], [791.0, 273.0], [790.0, 273.0], [789.0, 274.0], [788.0, 275.0], [787.0, 276.0], [786.0, 277.0], [785.0, 278.0], [784.0, 279.0], [783.0, 280.0], [782.0, 280.0]]}, "properties": {"id": 73}}, {"type": "Feature", "geometry": {"type": "LineString", "coordinates": [[819.0, 519.0], [818.0, 518.0], [817.0, 517.0], [816.0, 516.0], [815.0, 515.0], [814.0, 514.0], [813.0, 513.0], [812.0, 512.0], [811.0, 511.0], [810.0, 510.0], [809.0, 509.0], [808.0, 508.0], [807.0, 507.0], [806.0, 506.0], [805.0, 505.0], [804.0, 504.0], [803.0, 503.0], [802.0, 502.0], [801.0, 503.0], [800.0, 503.0], [799.0, 503.0], [798.0, 503.0], [797.0, 503.0], [796.0, 503.0], [795.0, 504.0], [794.0, 504.0], [793.0, 504.0], [792.0, 505.0], [791.0, 505.0]]}, "properties": {"id": 74}}, {"type": "Feature", "geometry": {"type": "LineString", "coordinates": [[515.0, 262.0], [514.0, 261.0], [513.0, 260.0], [512.0, 259.0], [512.0, 258.0], [512.0, 257.0], [512.0, 256.0], [512.0, 255.0], [512.0, 254.0], [512.0, 253.0]]}, "properties": {"id": 75}}, {"type": "Feature", "geometry": {"type": "LineString", "coordinates": [[508.0, 993.0], [507.0, 992.0], [506.0, 991.0], [505.0, 990.0], [504.0, 989.0], [503.0, 988.0], [502.0, 987.0], [501.0, 986.0], [500.0, 985.0], [499.0, 984.0], [498.0, 983.0], [497.0, 982.0], [496.0, 981.0], [495.0, 980.0], [494.0, 979.0], [493.0, 978.0], [492.0, 977.0], [491.0, 976.0], [490.0, 975.0], [489.0, 974.0], [488.0, 973.0], [487.0, 972.0], [486.0, 971.0], [485.0, 970.0], [484.0, 969.0], [483.0, 968.0], [482.0, 967.0], [481.0, 966.0], [480.0, 965.0], [479.0, 964.0], [478.0, 963.0], [477.0, 962.0], [477.0, 961.0], [477.0, 960.0], [477.0, 959.0], [477.0, 958.0], [477.0, 957.0], [476.0, 956.0], [475.0, 955.0], [474.0, 954.0], [473.0, 953.0], [472.0, 952.0], [471.0, 951.0], [471.0, 950.0], [470.0, 949.0], [469.0, 948.0], [468.0, 947.0], [467.0, 946.0], [466.0, 945.0], [465.0, 944.0], [464.0, 944.0]]}, "properties": {"id": 76}}, {"type": "Feature", "geometry": {"type": "LineString", "coordinates": [[871.0, 106.0], [870.0, 107.0], [869.0, 108.0], [868.0, 109.0], [869.0, 110.0], [870.0, 111.0], [871.0, 112.0], [872.0, 113.0], [873.0, 114.0], [874.0, 114.0], [875.0, 114.0], [876.0, 114.0], [877.0, 114.0], [878.0, 113.0], [879.0, 113.0], [880.0, 114.0], [881.0, 114.0], [882.0, 114.0], [883.0, 114.0], [884.0, 114.0], [885.0, 115.0], [886.0, 115.0], [887.0, 116.0], [888.0, 116.0], [889.0, 116.0], [890.0, 116.0], [891.0, 116.0], [892.0, 116.0], [893.0, 116.0], [894.0, 116.0], [895.0, 116.0], [896.0, 116.0], [897.0, 116.0], [898.0, 117.0], [899.0, 118.0], [900.0, 119.0], [901.0, 120.0], [902.0, 121.0], [903.0, 122.0], [904.0, 122.0], [905.0, 122.0], [906.0, 123.0], [907.0, 124.0], [908.0, 125.0], [909.0, 126.0], [910.0, 127.0], [911.0, 128.0], [912.0, 129.0], [913.0, 130.0], [914.0, 131.0], [915.0, 132.0], [916.0, 133.0], [917.0, 134.0], [916.0, 135.0], [915.0, 136.0], [914.0, 137.0], [914.0, 138.0], [915.0, 139.0], [916.0, 140.0], [917.0, 141.0], [918.0, 142.0], [918.0, 143.0], [918.0, 144.0], [919.0, 145.0]]}, "properties": {"id": 77}}, {"type": "Feature", "geometry": {"type": "LineString", "coordinates": [[201.0, 282.0], [200.0, 283.0], [199.0, 284.0], [198.0, 285.0], [197.0, 286.0], [196.0, 287.0], [195.0, 288.0], [194.0, 289.0]]}, "properties": {"id": 78}}, {"type": "Feature", "geometry": {"type": "LineString", "coordinates": [[15.0, 270.0], [15.0, 269.0], [15.0, 268.0], [15.0, 267.0], [16.0, 266.0], [17.0, 265.0], [18.0, 264.0], [19.0, 263.0], [20.0, 262.0], [21.0, 261.0], [22.0, 260.0], [23.0, 259.0], [24.0, 259.0], [25.0, 259.0], [26.0, 259.0], [27.0, 259.0], [28.0, 259.0], [29.0, 259.0], [30.0, 259.0], [31.0, 259.0], [32.0, 259.0], [33.0, 260.0], [34.0, 260.0], [35.0, 260.0], [36.0, 260.0], [37.0, 260.0], [38.0, 260.0], [39.0, 259.0], [40.0, 259.0], [41.0, 258.0], [42.0, 257.0], [43.0, 256.0], [44.0, 256.0], [45.0, 256.0], [46.0, 256.0], [47.0, 256.0], [48.0, 256.0], [49.0, 256.0], [50.0, 256.0], [51.0, 256.0], [52.0, 256.0], [53.0, 256.0], [54.0, 256.0]]}, "properties": {"id": 79}}, {"type": "Feature", "geometry": {"type": "LineString", "coordinates": [[584.0, 992.0], [583.0, 991.0], [582.0, 990.0], [581.0, 989.0], [580.0, 988.0], [579.0, 987.0], [578.0, 986.0], [577.0, 985.0], [576.0, 984.0], [575.0, 983.0], [574.0, 982.0], [573.0, 981.0], [572.0, 980.0], [571.0, 979.0], [570.0, 978.0], [569.0, 977.0], [568.0, 976.0], [567.0, 975.0], [566.0, 974.0], [565.0, 973.0], [566.0, 972.0], [566.0, 971.0], [566.0, 970.0], [566.0, 969.0], [566.0, 968.0], [566.0, 967.0], [566.0, 966.0], [566.0, 965.0], [566.0, 964.0], [566.0, 963.0], [566.0, 962.0], [566.0, 961.0], [566.0, 960.0], [565.0, 959.0], [565.0, 958.0], [564.0, 957.0], [564.0, 956.0], [563.0, 955.0], [562.0, 954.0], [562.0, 953.0], [562.0, 952.0]]}, "properties": {"id": 80}}, {"type": "Feature", "geometry": {"type": "LineString", "coordinates": [[370.0, 360.0], [371.0, 361.0], [372.0, 362.0], [371.0, 363.0], [370.0, 364.0], [369.0, 365.0], [368.0, 366.0], [367.0, 367.0]]}, "properties": {"id": 81}}, {"type": "Feature", "geometry": {"type": "LineString", "coordinates": [[167.0, 855.0], [168.0, 856.0], [169.0, 857.0], [170.0, 858.0], [171.0, 859.0], [172.0, 860.0], [173.0, 861.0], [174.0, 862.0], [175.0, 863.0], [175.0, 864.0]]}, "properties": {"id": 82}}, {"type": "Feature", "geometry": {"type": "LineString", "coordinates": [[809.0, 322.0], [808.0, 323.0], [807.0, 324.0], [806.0, 325.0], [805.0, 326.0], [804.0, 327.0], [803.0, 328.0], [802.0, 329.0], [801.0, 330.0], [800.0, 331.0], [799.0, 332.0], [798.0, 333.0], [797.0, 334.0], [796.0, 333.0], [795.0, 332.0], [794.0, 331.0], [793.0, 330.0], [792.0, 329.0], [791.0, 328.0], [790.0, 327.0], [789.0, 326.0], [788.0, 325.0], [787.0, 324.0], [786.0, 323.0], [785.0, 322.0], [784.0, 321.0], [783.0, 321.0], [782.0, 321.0]]}, "properties": {"id": 83}}, {"type": "Feature", "geometry": {"type": "LineString", "coordinates": [[963.0, 61.0], [964.0, 60.0], [965.0, 59.0], [966.0, 58.0], [967.0, 57.0], [968.0, 56.0], [969.0, 55.0], [970.0, 54.0], [971.0, 53.0], [972.0, 52.0], [973.0, 51.0], [974.0, 50.0], [975.0, 49.0], [976.0, 48.0], [977.0, 47.0], [978.0, 46.0], [979.0, 45.0], [980.0, 44.0], [981.0, 43.0], [982.0, 42.0], [983.0, 41.0], [984.0, 42.0], [985.0, 43.0], [986.0, 44.0], [987.0, 45.0], [988.0, 46.0], [989.0, 47.0], [990.0, 47.0], [991.0, 48.0], [992.0, 49.0], [993.0, 50.0], [994.0, 51.0], [995.0, 52.0], [996.0, 53.0], [997.0, 54.0], [998.0, 55.0], [999.0, 56.0], [1000.0, 57.0], [1001.0, 57.0], [1002.0, 57.0], [1003.0, 57.0], [1004.0, 57.0], [1005.0, 57.0], [1006.0, 56.0], [1007.0, 56.0], [1008.0, 57.0], [1009.0, 57.0], [1010.0, 57.0], [1011.0, 57.0], [1012.0, 58.0], [1013.0, 59.0], [1014.0, 60.0], [1015.0, 61.0], [1016.0, 62.0], [1017.0, 63.0], [1018.0, 64.0], [1018.0, 65.0], [1018.0, 66.0], [1018.0, 67.0], [1018.0, 68.0], [1019.0, 69.0], [1019.0, 70.0], [1019.0, 71.0], [1018.0, 72.0], [1018.0, 73.0], [1017.0, 74.0], [1017.0, 75.0], [1016.0, 76.0], [1016.0, 77.0], [1015.0, 78.0], [1014.0, 79.0], [1014.0, 80.0], [1014.0, 81.0], [1015.0, 82.0], [1016.0, 83.0], [1017.0, 84.0], [1018.0, 85.0], [1019.0, 86.0], [1020.0, 87.0], [1021.0, 88.0], [1022.0, 89.0]]}, "properties": {"id": 84}}, {"type": "Feature", "geometry": {"type": "LineString", "coordinates": [[823.0, 91.0], [822.0, 92.0], [821.0, 93.0], [820.0, 94.0], [819.0, 95.0], [818.0, 96.0], [817.0, 97.0], [816.0, 98.0], [815.0, 99.0], [814.0, 100.0], [813.0, 101.0], [812.0, 100.0], [811.0, 99.0], [810.0, 98.0], [809.0, 98.0], [808.0, 98.0]]}, "properties": {"id": 85}}, {"type": "Feature", "geometry": {"type": "LineString", "coordinates": [[70.0, 471.0], [71.0, 470.0], [72.0, 469.0], [73.0, 468.0], [74.0, 467.0], [74.0, 466.0], [73.0, 465.0], [73.0, 464.0], [73.0, 463.0]]}, "properties": {"id": 86}}, {"type": "Feature", "geometry": {"type": "LineString", "coordinates": [[162.0, 889.0], [163.0, 890.0], [164.0, 891.0], [165.0, 892.0], [166.0, 893.0], [167.0, 894.0], [168.0, 895.0], [169.0, 896.0], [169.0, 897.0], [169.0, 898.0], [169.0, 899.0], [169.0, 900.0], [169.0, 901.0], [169.0, 902.0], [169.0, 903.0], [169.0, 904.0]]}, "properties": {"id": 87}}, {"type": "Feature", "geometry": {"type": "LineString", "coordinates": [[102.0, 337.0], [101.0, 338.0], [100.0, 339.0], [99.0, 340.0], [98.0, 341.0], [97.0, 342.0], [96.0, 343.0], [95.0, 343.0], [94.0, 343.0], [93.0, 342.0], [92.0, 341.0], [91.0, 340.0], [90.0, 339.0], [89.0, 338.0], [89.0, 337.0], [89.0, 336.0]]}, "properties": {"id": 88}}, {"type": "Feature", "geometry": {"type": "LineString", "coordinates": [[809.0, 862.0], [810.0, 861.0], [811.0, 860.0], [812.0, 859.0], [813.0, 858.0], [814.0, 857.0], [815.0, 858.0], [816.0, 858.0], [817.0, 858.0], [818.0, 858.0], [819.0, 858.0], [820.0, 858.0], [821.0, 859.0], [822.0, 860.0], [823.0, 861.0], [824.0, 862.0], [825.0, 861.0], [826.0, 860.0], [827.0, 859.0], [828.0, 858.0], [829.0, 858.0]]}, "properties": {"id": 89}}, {"type": "Feature", "geometry": {"type": "LineString", "coordinates": [[552.0, 248.0], [553.0, 249.0], [554.0, 250.0], [555.0, 251.0], [556.0, 252.0], [557.0, 253.0], [558.0, 254.0], [557.0, 255.0], [556.0, 256.0], [555.0, 257.0], [554.0, 258.0], [553.0, 259.0], [552.0, 260.0], [553.0, 261.0], [554.0, 262.0], [555.0, 263.0], [556.0, 264.0], [557.0, 265.0], [558.0, 266.0], [559.0, 267.0], [560.0, 268.0], [561.0, 269.0], [562.0, 270.0], [563.0, 271.0], [564.0, 272.0], [565.0, 273.0], [566.0, 274.0], [567.0, 275.0], [568.0, 276.0], [569.0, 277.0], [570.0, 278.0], [571.0, 279.0], [572.0, 280.0], [573.0, 281.0], [574.0, 282.0], [575.0, 283.0], [576.0, 284.0], [577.0, 285.0], [578.0, 286.0], [579.0, 287.0], [580.0, 288.0], [581.0, 289.0], [582.0, 290.0], [583.0, 291.0], [584.0, 292.0], [585.0, 293.0], [586.0, 294.0], [587.0, 295.0], [588.0, 296.0], [588.0, 297.0], [589.0, 298.0]]}, "properties": {"id": 90}}, {"type": "Feature", "geometry": {"type": "LineString", "coordinates": [[815.0, 244.0], [814.0, 245.0], [813.0, 246.0], [812.0, 247.0], [811.0, 248.0], [810.0, 249.0], [809.0, 250.0], [810.0, 251.0], [810.0, 252.0], [811.0, 253.0], [812.0, 254.0], [813.0, 255.0], [814.0, 256.0], [815.0, 257.0], [816.0, 258.0], [817.0, 259.0], [818.0, 260.0], [817.0, 261.0], [817.0, 262.0], [817.0, 263.0], [817.0, 264.0]]}, "properties": {"id": 91}}, {"type": "Feature", "geometry": {"type": "LineString", "coordinates": [[462.0, 1023.0], [461.0, 1023.0], [460.0, 1023.0], [459.0, 1023.0], [458.0, 1023.0], [457.0, 1023.0], [456.0, 1023.0], [455.0, 1023.0], [454.0, 1023.0], [453.0, 1023.0], [452.0, 1023.0], [451.0, 1023.0], [450.0, 1023.0], [449.0, 1023.0], [448.0, 1023.0], [447.0, 1023.0], [446.0, 1023.0], [445.0, 1023.0], [444.0, 1022.0], [443.0, 1021.0], [442.0, 1020.0], [441.0, 1019.0], [440.0, 1018.0], [439.0, 1017.0], [438.0, 1016.0], [437.0, 1016.0], [436.0, 1016.0], [435.0, 1016.0], [434.0, 1016.0], [433.0, 1016.0], [432.0, 1016.0], [431.0, 1016.0], [430.0, 1016.0], [429.0, 1017.0], [428.0, 1017.0]]}, "properties": {"id": 92}}, {"type": "Feature", "geometry": {"type": "LineString", "coordinates": [[430.0, 283.0], [431.0, 284.0], [432.0, 285.0], [433.0, 286.0], [434.0, 287.0], [435.0, 288.0], [436.0, 289.0], [437.0, 290.0], [438.0, 291.0], [439.0, 292.0], [439.0, 293.0], [440.0, 294.0], [440.0, 295.0], [440.0, 296.0], [440.0, 297.0], [440.0, 298.0], [440.0, 299.0], [440.0, 300.0], [440.0, 301.0], [440.0, 302.0], [440.0, 303.0], [440.0, 304.0], [440.0, 305.0], [440.0, 306.0], [440.0, 307.0], [441.0, 308.0], [442.0, 309.0], [443.0, 310.0], [444.0, 311.0], [445.0, 312.0], [446.0, 313.0]]}, "properties": {"id": 93}}, {"type": "Feature", "geometry": {"type": "LineString", "coordinates": [[896.0, 525.0], [895.0, 526.0], [894.0, 527.0], [893.0, 528.0], [892.0, 529.0], [891.0, 530.0], [890.0, 531.0], [889.0, 532.0], [888.0, 533.0], [887.0, 534.0], [886.0, 535.0], [885.0, 536.0], [884.0, 537.0], [883.0, 538.0], [882.0, 539.0], [881.0, 540.0], [880.0, 541.0], [879.0, 542.0], [878.0, 543.0], [878.0, 544.0], [878.0, 545.0], [878.0, 546.0], [879.0, 547.0], [878.0, 548.0], [877.0, 549.0], [876.0, 550.0], [875.0, 551.0], [874.0, 552.0], [873.0, 553.0], [872.0, 554.0], [871.0, 555.0], [870.0, 556.0], [869.0, 557.0], [868.0, 558.0], [867.0, 559.0], [866.0, 560.0], [865.0, 561.0], [864.0, 562.0], [863.0, 563.0], [862.0, 564.0], [861.0, 565.0], [860.0, 566.0], [859.0, 567.0], [858.0, 568.0], [857.0, 569.0], [856.0, 570.0], [855.0, 570.0], [854.0, 571.0], [853.0, 572.0], [852.0, 573.0], [851.0, 574.0], [850.0, 575.0], [849.0, 576.0], [848.0, 577.0], [847.0, 578.0], [846.0, 578.0]]}, "properties": {"id": 94}}, {"type": "Feature", "geometry": {"type": "LineString", "coordinates": [[541.0, 528.0], [542.0, 528.0], [543.0, 528.0], [544.0, 528.0], [545.0, 528.0], [546.0, 528.0], [547.0, 528.0], [548.0, 528.0], [549.0, 528.0], [550.0, 528.0], [551.0, 527.0], [552.0, 526.0], [553.0, 525.0], [554.0, 524.0], [555.0, 523.0], [556.0, 522.0], [557.0, 521.0], [558.0, 520.0]]}, "properties": {"id": 95}}, {"type": "Feature", "geometry": {"type": "LineString", "coordinates": [[297.0, 646.0], [298.0, 645.0], [299.0, 644.0], [300.0, 643.0], [301.0, 642.0], [302.0, 641.0], [303.0, 640.0], [304.0, 639.0], [305.0, 638.0], [306.0, 637.0], [307.0, 636.0], [308.0, 635.0], [309.0, 634.0], [310.0, 633.0], [311.0, 632.0], [312.0, 631.0], [313.0, 630.0], [314.0, 629.0], [315.0, 628.0], [316.0, 627.0], [317.0, 626.0], [318.0, 625.0], [319.0, 624.0], [320.0, 623.0], [321.0, 622.0], [322.0, 621.0], [323.0, 620.0], [324.0, 619.0], [325.0, 618.0], [326.0, 617.0], [327.0, 616.0], [328.0, 615.0], [329.0, 614.0], [330.0, 613.0], [331.0, 612.0], [332.0, 611.0], [333.0, 610.0], [334.0, 609.0], [335.0, 608.0], [336.0, 607.0], [337.0, 606.0], [337.0, 605.0], [337.0, 604.0], [337.0, 603.0], [336.0, 602.0], [336.0, 601.0], [336.0, 600.0], [336.0, 599.0], [337.0, 598.0], [337.0, 597.0], [337.0, 596.0], [337.0, 595.0], [338.0, 594.0], [339.0, 593.0], [340.0, 592.0], [339.0, 591.0], [339.0, 590.0], [338.0, 589.0]]}, "properties": {"id": 96}}, {"type": "Feature", "geometry": {"type": "LineString", "coordinates": [[587.0, 184.0], [588.0, 183.0], [589.0, 182.0], [590.0, 181.0], [591.0, 180.0], [592.0, 179.0], [593.0, 178.0], [594.0, 177.0], [595.0, 176.0], [596.0, 175.0], [597.0, 174.0], [598.0, 173.0], [599.0, 172.0], [600.0, 171.0], [601.0, 171.0], [602.0, 170.0], [603.0, 169.0], [604.0, 169.0], [605.0, 168.0], [606.0, 168.0], [607.0, 168.0], [608.0, 168.0], [609.0, 168.0], [610.0, 169.0], [611.0, 170.0], [612.0, 171.0], [613.0, 172.0], [614.0, 173.0], [615.0, 174.0], [616.0, 174.0], [617.0, 174.0], [618.0, 174.0], [619.0, 175.0], [620.0, 175.0], [621.0, 175.0], [622.0, 175.0], [623.0, 175.0], [624.0, 175.0], [625.0, 175.0], [626.0, 175.0], [627.0, 175.0], [628.0, 174.0], [629.0, 173.0], [630.0, 172.0], [631.0, 171.0], [631.0, 170.0]]}, "properties": {"id": 97}}, {"type": "Feature", "geometry": {"type": "LineString", "coordinates": [[279.0, 1000.0], [278.0, 1001.0], [277.0, 1002.0], [276.0, 1003.0], [275.0, 1004.0], [274.0, 1003.0], [273.0, 1002.0], [272.0, 1002.0], [271.0, 1002.0], [270.0, 1002.0], [269.0, 1001.0], [268.0, 1001.0], [267.0, 1001.0], [266.0, 1001.0], [265.0, 1000.0], [264.0, 1000.0]]}, "properties": {"id": 98}}, {"type": "Feature", "geometry": {"type": "LineString", "coordinates": [[820.0, 310.0], [819.0, 311.0], [818.0, 312.0], [817.0, 313.0], [816.0, 314.0], [815.0, 315.0], [814.0, 315.0], [813.0, 314.0], [812.0, 314.0], [811.0, 314.0], [810.0, 313.0], [809.0, 313.0], [808.0, 313.0], [807.0, 313.0], [806.0, 312.0], [805.0, 312.0], [804.0, 312.0], [803.0, 312.0], [802.0, 312.0], [801.0, 312.0], [800.0, 312.0], [799.0, 312.0], [798.0, 312.0], [797.0, 312.0], [796.0, 313.0], [795.0, 314.0], [794.0, 315.0], [793.0, 316.0], [792.0, 317.0], [791.0, 318.0], [790.0, 319.0], [789.0, 320.0], [788.0, 321.0], [787.0, 321.0], [786.0, 321.0], [785.0, 321.0], [784.0, 321.0]]}, "properties": {"id": 99}}, {"type": "Feature", "geometry": {"type": "LineString", "coordinates": [[268.0, 973.0], [267.0, 974.0], [266.0, 975.0], [265.0, 976.0], [264.0, 977.0], [263.0, 978.0], [262.0, 979.0], [261.0, 980.0], [260.0, 981.0], [259.0, 982.0], [258.0, 983.0], [257.0, 984.0], [256.0, 985.0], [256.0, 986.0], [256.0, 987.0], [256.0, 988.0], [257.0, 989.0], [258.0, 990.0], [259.0, 991.0], [260.0, 992.0], [261.0, 993.0], [262.0, 994.0], [263.0, 995.0], [264.0, 996.0], [264.0, 997.0], [264.0, 998.0], [264.0, 999.0], [264.0, 1000.0]]}, "properties": {"id": 100}}, {"type": "Feature", "geometry": {"type": "LineString", "coordinates": [[27.0, 198.0], [28.0, 197.0], [29.0, 196.0], [30.0, 195.0], [31.0, 194.0], [32.0, 193.0], [33.0, 192.0], [34.0, 191.0], [35.0, 190.0], [36.0, 189.0], [37.0, 188.0], [38.0, 187.0], [39.0, 186.0], [40.0, 185.0], [41.0, 184.0], [42.0, 183.0], [43.0, 182.0], [44.0, 181.0], [45.0, 180.0], [46.0, 179.0], [47.0, 178.0], [47.0, 177.0], [47.0, 176.0], [46.0, 175.0], [45.0, 174.0], [45.0, 173.0], [44.0, 172.0], [43.0, 171.0], [42.0, 170.0], [41.0, 169.0], [40.0, 168.0], [39.0, 167.0], [38.0, 166.0], [37.0, 165.0], [36.0, 164.0], [35.0, 163.0], [34.0, 162.0], [33.0, 161.0], [32.0, 160.0], [31.0, 159.0], [31.0, 158.0], [30.0, 157.0], [29.0, 156.0], [28.0, 155.0], [27.0, 154.0], [26.0, 153.0], [25.0, 152.0], [24.0, 151.0], [23.0, 150.0], [22.0, 149.0]]}, "properties": {"id": 101}}, {"type": "Feature", "geometry": {"type": "LineString", "coordinates": [[780.0, 701.0], [779.0, 700.0], [778.0, 699.0], [777.0, 698.0], [776.0, 697.0], [775.0, 696.0], [776.0, 695.0], [777.0, 694.0], [778.0, 693.0], [779.0, 692.0], [780.0, 691.0], [781.0, 690.0], [782.0, 689.0], [783.0, 688.0], [783.0, 687.0], [783.0, 686.0], [783.0, 685.0], [782.0, 684.0], [782.0, 683.0], [782.0, 682.0], [782.0, 681.0], [782.0, 680.0], [782.0, 679.0], [782.0, 678.0], [782.0, 677.0], [782.0, 676.0], [782.0, 675.0], [782.0, 674.0], [782.0, 673.0]]}, "properties": {"id": 102}}, {"type": "Feature", "geometry": {"type": "LineString", "coordinates": [[391.0, 207.0], [390.0, 206.0], [389.0, 207.0], [388.0, 207.0], [387.0, 207.0], [386.0, 207.0], [385.0, 207.0], [384.0, 207.0], [383.0, 207.0]]}, "properties": {"id": 103}}, {"type": "Feature", "geometry": {"type": "LineString", "coordinates": [[142.0, 1015.0], [143.0, 1014.0], [144.0, 1013.0], [145.0, 1012.0], [146.0, 1011.0], [147.0, 1010.0], [148.0, 1009.0], [149.0, 1008.0], [150.0, 1007.0], [151.0, 1006.0], [152.0, 1005.0], [153.0, 1004.0], [154.0, 1003.0], [155.0, 1002.0], [156.0, 1001.0], [157.0, 1000.0], [158.0, 999.0], [159.0, 998.0], [160.0, 997.0], [161.0, 996.0], [162.0, 995.0], [163.0, 994.0], [164.0, 993.0], [165.0, 992.0], [166.0, 991.0], [167.0, 990.0], [167.0, 989.0], [168.0, 988.0], [168.0, 987.0], [168.0, 986.0], [169.0, 985.0], [169.0, 984.0], [169.0, 983.0], [170.0, 982.0], [171.0, 981.0], [171.0, 980.0], [172.0, 979.0], [173.0, 978.0], [174.0, 978.0]]}, "properties": {"id": 104}}, {"type": "Feature", "geometry": {"type": "LineString", "coordinates": [[10.0, 525.0], [9.0, 526.0], [8.0, 527.0], [7.0, 528.0], [6.0, 529.0], [6.0, 530.0], [7.0, 531.0], [8.0, 532.0], [8.0, 533.0], [9.0, 534.0], [9.0, 535.0], [10.0, 536.0], [11.0, 537.0], [12.0, 538.0], [13.0, 539.0], [14.0, 540.0], [15.0, 541.0], [16.0, 542.0], [15.0, 543.0], [16.0, 544.0], [16.0, 545.0], [16.0, 546.0], [16.0, 547.0], [16.0, 548.0], [16.0, 549.0], [16.0, 550.0], [16.0, 551.0], [16.0, 552.0], [16.0, 553.0], [16.0, 554.0], [16.0, 555.0], [16.0, 556.0], [16.0, 557.0], [15.0, 558.0], [15.0, 559.0], [16.0, 560.0], [16.0, 561.0], [16.0, 562.0], [16.0, 563.0], [16.0, 564.0], [16.0, 565.0], [16.0, 566.0], [16.0, 567.0], [16.0, 568.0], [16.0, 569.0], [16.0, 570.0], [16.0, 571.0], [16.0, 572.0]]}, "properties": {"id": 105}}, {"type": "Feature", "geometry": {"type": "LineString", "coordinates": [[248.0, 977.0], [249.0, 978.0], [250.0, 979.0], [251.0, 980.0], [252.0, 981.0], [253.0, 982.0], [254.0, 983.0], [255.0, 984.0], [256.0, 985.0]]}, "properties": {"id": 106}}, {"type": "Feature", "geometry": {"type": "LineString", "coordinates": [[156.0, 613.0], [155.0, 614.0], [156.0, 615.0], [157.0, 616.0], [158.0, 617.0], [159.0, 618.0], [158.0, 619.0], [157.0, 620.0], [156.0, 621.0], [155.0, 622.0], [154.0, 623.0], [153.0, 624.0], [152.0, 624.0]]}, "properties": {"id": 107}}, {"type": "Feature", "geometry": {"type": "LineString", "coordinates": [[865.0, 659.0], [866.0, 660.0], [867.0, 661.0], [868.0, 662.0], [869.0, 663.0], [870.0, 664.0], [871.0, 665.0], [872.0, 666.0], [873.0, 667.0], [874.0, 668.0], [875.0, 669.0], [876.0, 670.0], [877.0, 671.0], [878.0, 672.0], [879.0, 673.0], [880.0, 674.0], [881.0, 674.0], [882.0, 674.0], [883.0, 674.0], [884.0, 674.0], [885.0, 674.0], [886.0, 674.0], [887.0, 674.0], [888.0, 674.0], [889.0, 674.0], [890.0, 675.0], [891.0, 676.0], [892.0, 677.0], [893.0, 678.0], [894.0, 679.0], [895.0, 680.0], [896.0, 681.0], [897.0, 681.0]]}, "properties": {"id": 108}}, {"type": "Feature", "geometry": {"type": "LineString", "coordinates": [[509.0, 933.0], [508.0, 934.0], [507.0, 935.0], [506.0, 936.0], [505.0, 937.0], [505.0, 938.0], [505.0, 939.0], [505.0, 940.0], [505.0, 941.0], [505.0, 942.0], [505.0, 943.0], [505.0, 944.0]]}, "properties": {"id": 109}}, {"type": "Feature", "geometry": {"type": "LineString", "coordinates": [[900.0, 988.0], [901.0, 987.0], [902.0, 986.0], [903.0, 985.0], [904.0, 984.0], [905.0, 983.0], [906.0, 982.0], [907.0, 981.0], [908.0, 980.0], [909.0, 979.0], [910.0, 978.0], [911.0, 977.0], [912.0, 976.0], [913.0, 975.0], [914.0, 974.0], [915.0, 973.0], [916.0, 972.0], [917.0, 971.0], [918.0, 970.0], [919.0, 969.0], [920.0, 968.0], [921.0, 967.0], [922.0, 968.0], [923.0, 968.0], [924.0, 969.0], [925.0, 970.0], [926.0, 971.0], [927.0, 972.0], [928.0, 973.0], [929.0, 974.0], [930.0, 974.0], [931.0, 974.0], [932.0, 974.0], [933.0, 974.0], [934.0, 974.0], [935.0, 974.0], [936.0, 974.0], [937.0, 973.0], [938.0, 972.0], [939.0, 971.0], [940.0, 970.0], [941.0, 969.0], [942.0, 968.0], [943.0, 967.0], [944.0, 966.0], [945.0, 965.0], [946.0, 964.0], [947.0, 963.0], [948.0, 962.0], [949.0, 961.0], [950.0, 960.0], [951.0, 959.0], [952.0, 958.0], [953.0, 957.0], [954.0, 957.0], [955.0, 956.0], [956.0, 955.0], [957.0, 954.0], [958.0, 953.0], [959.0, 952.0], [960.0, 951.0], [961.0, 950.0], [962.0, 949.0], [963.0, 948.0], [964.0, 947.0]]}, "properties": {"id": 110}}, {"type": "Feature", "geometry": {"type": "LineString", "coordinates": [[127.0, 194.0], [128.0, 195.0], [129.0, 196.0], [130.0, 197.0], [131.0, 198.0], [132.0, 199.0], [133.0, 200.0], [134.0, 201.0], [135.0, 202.0], [136.0, 203.0], [137.0, 204.0], [138.0, 205.0], [139.0, 206.0], [140.0, 207.0], [141.0, 208.0], [142.0, 209.0], [143.0, 210.0], [143.0, 211.0], [143.0, 212.0], [143.0, 213.0], [143.0, 214.0], [143.0, 215.0], [142.0, 216.0], [142.0, 217.0], [141.0, 218.0], [140.0, 219.0], [139.0, 220.0], [138.0, 221.0], [137.0, 222.0], [136.0, 223.0], [135.0, 224.0], [134.0, 225.0], [133.0, 226.0], [132.0, 227.0], [131.0, 228.0], [130.0, 228.0], [129.0, 228.0]]}, "properties": {"id": 111}}, {"type": "Feature", "geometry": {"type": "LineString", "coordinates": [[591.0, 927.0], [590.0, 928.0], [589.0, 929.0], [588.0, 930.0], [587.0, 931.0], [586.0, 932.0], [585.0, 933.0], [584.0, 934.0], [583.0, 935.0], [582.0, 936.0], [581.0, 937.0], [580.0, 938.0], [579.0, 939.0], [578.0, 940.0], [577.0, 941.0], [576.0, 942.0], [575.0, 943.0], [574.0, 944.0], [573.0, 945.0], [572.0, 946.0], [571.0, 947.0], [570.0, 948.0], [569.0, 949.0], [568.0, 950.0], [567.0, 951.0], [566.0, 952.0], [565.0, 952.0], [564.0, 952.0], [563.0, 952.0], [562.0, 952.0]]}, "properties": {"id": 112}}, {"type": "Feature", "geometry": {"type": "LineString", "coordinates": [[34.0, 939.0], [33.0, 940.0], [32.0, 941.0], [31.0, 942.0], [30.0, 941.0], [29.0, 940.0], [28.0, 939.0], [27.0, 938.0], [26.0, 937.0], [25.0, 936.0], [24.0, 936.0], [23.0, 937.0], [22.0, 937.0]]}, "properties": {"id": 113}}, {"type": "Feature", "geometry": {"type": "LineString", "coordinates": [[833.0, 222.0], [834.0, 221.0], [835.0, 220.0], [834.0, 219.0], [833.0, 218.0], [832.0, 217.0], [831.0, 216.0], [830.0, 215.0], [829.0, 214.0], [828.0, 214.0], [827.0, 213.0], [826.0, 213.0], [825.0, 212.0], [824.0, 212.0], [823.0, 211.0], [822.0, 210.0], [821.0, 209.0], [820.0, 208.0], [819.0, 207.0], [818.0, 207.0], [817.0, 207.0], [816.0, 206.0], [815.0, 206.0], [814.0, 206.0], [813.0, 206.0], [812.0, 205.0], [811.0, 205.0], [810.0, 204.0], [809.0, 203.0], [808.0, 202.0], [807.0, 201.0], [806.0, 200.0], [805.0, 199.0], [804.0, 198.0], [803.0, 197.0], [802.0, 196.0], [801.0, 195.0], [800.0, 194.0], [799.0, 193.0], [798.0, 193.0], [797.0, 193.0], [796.0, 193.0], [795.0, 193.0], [794.0, 194.0], [793.0, 194.0], [792.0, 194.0], [791.0, 195.0], [790.0, 196.0], [789.0, 197.0], [788.0, 198.0], [787.0, 199.0], [786.0, 200.0], [785.0, 201.0], [784.0, 202.0], [783.0, 202.0], [782.0, 202.0], [781.0, 202.0], [780.0, 202.0], [779.0, 202.0], [778.0, 202.0], [777.0, 202.0], [776.0, 202.0]]}, "properties": {"id": 114}}, {"type": "Feature", "geometry": {"type": "LineString", "coordinates": [[19.0, 506.0], [18.0, 505.0], [17.0, 504.0], [16.0, 503.0], [15.0, 502.0], [14.0, 501.0], [13.0, 500.0], [12.0, 499.0], [11.0, 498.0], [10.0, 497.0], [9.0, 496.0], [8.0, 495.0], [7.0, 494.0], [6.0, 493.0], [5.0, 492.0], [5.0, 491.0], [6.0, 490.0], [7.0, 489.0], [8.0, 488.0], [8.0, 487.0], [9.0, 486.0], [10.0, 485.0], [11.0, 484.0], [12.0, 483.0], [13.0, 482.0], [14.0, 481.0], [15.0, 480.0], [15.0, 479.0], [15.0, 478.0], [15.0, 477.0], [15.0, 476.0]]}, "properties": {"id": 115}}, {"type": "Feature", "geometry": {"type": "LineString", "coordinates": [[120.0, 108.0], [119.0, 109.0], [118.0, 110.0], [117.0, 111.0], [116.0, 112.0], [115.0, 111.0], [114.0, 110.0], [113.0, 109.0], [112.0, 108.0], [111.0, 107.0], [110.0, 106.0], [109.0, 105.0], [108.0, 104.0], [107.0, 103.0], [106.0, 103.0], [105.0, 103.0], [104.0, 103.0], [103.0, 103.0]]}, "properties": {"id": 116}}, {"type": "Feature", "geometry": {"type": "LineString", "coordinates": [[93.0, 264.0], [94.0, 265.0], [95.0, 266.0], [96.0, 267.0], [97.0, 268.0], [98.0, 269.0], [99.0, 270.0], [100.0, 271.0], [101.0, 272.0], [102.0, 272.0], [103.0, 272.0], [104.0, 272.0], [105.0, 272.0], [106.0, 272.0], [107.0, 272.0], [108.0, 271.0], [109.0, 271.0], [110.0, 270.0], [111.0, 269.0], [112.0, 268.0], [113.0, 268.0], [114.0, 267.0], [115.0, 266.0], [116.0, 265.0], [117.0, 264.0], [118.0, 263.0], [119.0, 262.0], [120.0, 261.0], [121.0, 260.0], [122.0, 259.0], [123.0, 258.0], [124.0, 257.0], [125.0, 256.0], [126.0, 256.0], [127.0, 256.0], [128.0, 256.0], [129.0, 256.0], [130.0, 256.0]]}, "properties": {"id": 117}}, {"type": "Feature", "geometry": {"type": "LineString", "coordinates": [[1.0, 36.0], [2.0, 37.0], [3.0, 38.0], [4.0, 39.0], [5.0, 40.0], [6.0, 41.0], [7.0, 42.0], [8.0, 43.0], [9.0, 44.0], [10.0, 45.0], [11.0, 46.0], [12.0, 47.0], [13.0, 48.0], [14.0, 49.0], [15.0, 50.0], [16.0, 51.0], [17.0, 51.0], [18.0, 51.0], [19.0, 51.0], [20.0, 52.0], [21.0, 53.0], [22.0, 54.0], [23.0, 55.0], [24.0, 56.0], [25.0, 57.0], [26.0, 58.0], [27.0, 59.0], [27.0, 60.0], [28.0, 61.0], [28.0, 62.0], [29.0, 63.0], [29.0, 64.0], [29.0, 65.0], [28.0, 66.0], [28.0, 67.0], [27.0, 68.0], [27.0, 69.0], [27.0, 70.0], [26.0, 71.0], [26.0, 72.0], [26.0, 73.0], [26.0, 74.0], [26.0, 75.0], [26.0, 76.0], [26.0, 77.0], [27.0, 78.0], [27.0, 79.0], [27.0, 80.0], [27.0, 81.0], [27.0, 82.0], [27.0, 83.0], [27.0, 84.0], [28.0, 85.0], [28.0, 86.0], [28.0, 87.0], [28.0, 88.0], [28.0, 89.0], [29.0, 90.0], [29.0, 91.0], [30.0, 92.0], [30.0, 93.0], [30.0, 94.0], [30.0, 95.0], [31.0, 96.0], [30.0, 97.0]]}, "properties": {"id": 118}}, {"type": "Feature", "geometry": {"type": "LineString", "coordinates": [[697.0, 649.0], [696.0, 648.0], [695.0, 648.0], [694.0, 647.0], [693.0, 646.0], [692.0, 645.0], [691.0, 644.0], [690.0, 643.0], [689.0, 642.0], [688.0, 641.0], [687.0, 640.0], [686.0, 639.0]]}, "properties": {"id": 119}}, {"type": "Feature", "geometry": {"type": "LineString", "coordinates": [[448.0, 48.0], [447.0, 47.0], [446.0, 46.0], [445.0, 45.0], [444.0, 44.0], [443.0, 43.0], [442.0, 42.0], [441.0, 41.0], [440.0, 40.0], [439.0, 39.0], [438.0, 38.0], [437.0, 37.0], [436.0, 36.0], [435.0, 35.0], [434.0, 34.0], [433.0, 33.0], [432.0, 32.0], [431.0, 31.0], [430.0, 30.0], [429.0, 29.0], [428.0, 28.0], [427.0, 27.0], [426.0, 26.0], [425.0, 25.0], [424.0, 25.0], [423.0, 25.0], [422.0, 26.0], [421.0, 27.0], [420.0, 28.0], [419.0, 29.0], [418.0, 30.0], [417.0, 31.0], [416.0, 31.0], [415.0, 31.0], [414.0, 32.0], [413.0, 32.0], [412.0, 32.0], [411.0, 32.0], [410.0, 32.0]]}, "properties": {"id": 120}}, {"type": "Feature", "geometry": {"type": "LineString", "coordinates": [[134.0, 761.0], [133.0, 762.0], [132.0, 763.0], [131.0, 764.0], [130.0, 765.0], [129.0, 766.0], [128.0, 767.0], [127.0, 768.0]]}, "properties": {"id": 121}}, {"type": "Feature", "geometry": {"type": "LineString", "coordinates": [[987.0, 522.0], [988.0, 521.0], [989.0, 520.0], [990.0, 519.0], [991.0, 518.0], [992.0, 517.0], [993.0, 516.0], [994.0, 515.0], [995.0, 514.0], [996.0, 513.0], [997.0, 512.0], [998.0, 512.0], [999.0, 512.0]]}, "properties": {"id": 122}}, {"type": "Feature", "geometry": {"type": "LineString", "coordinates": [[265.0, 864.0], [264.0, 865.0], [263.0, 866.0], [262.0, 867.0], [261.0, 868.0], [260.0, 869.0], [259.0, 870.0], [258.0, 871.0], [257.0, 872.0], [256.0, 872.0]]}, "properties": {"id": 123}}, {"type": "Feature", "geometry": {"type": "LineString", "coordinates": [[496.0, 558.0], [495.0, 559.0], [494.0, 560.0], [493.0, 561.0], [492.0, 562.0], [492.0, 563.0], [493.0, 564.0], [494.0, 565.0], [495.0, 566.0], [496.0, 567.0], [496.0, 568.0], [496.0, 569.0], [496.0, 570.0]]}, "properties": {"id": 124}}, {"type": "Feature", "geometry": {"type": "LineString", "coordinates": [[695.0, 667.0], [696.0, 666.0], [697.0, 665.0], [698.0, 664.0], [699.0, 663.0], [700.0, 662.0], [701.0, 661.0], [702.0, 660.0], [703.0, 659.0], [704.0, 658.0], [705.0, 657.0], [706.0, 656.0], [706.0, 655.0]]}, "properties": {"id": 125}}, {"type": "Feature", "geometry": {"type": "LineString", "coordinates": [[580.0, 926.0], [581.0, 927.0], [582.0, 928.0], [583.0, 929.0], [584.0, 930.0], [585.0, 931.0], [584.0, 932.0], [584.0, 933.0], [584.0, 934.0]]}, "properties": {"id": 126}}, {"type": "Feature", "geometry": {"type": "LineString", "coordinates": [[615.0, 1012.0], [614.0, 1011.0], [613.0, 1010.0], [612.0, 1009.0], [611.0, 1008.0], [610.0, 1007.0], [609.0, 1007.0], [608.0, 1007.0], [607.0, 1006.0], [606.0, 1005.0], [605.0, 1004.0], [604.0, 1003.0], [603.0, 1002.0], [602.0, 1001.0], [601.0, 1000.0], [600.0, 1000.0], [599.0, 1000.0]]}, "properties": {"id": 127}}, {"type": "Feature", "geometry": {"type": "LineString", "coordinates": [[220.0, 790.0], [219.0, 791.0], [218.0, 792.0], [217.0, 793.0], [216.0, 794.0], [215.0, 795.0], [214.0, 796.0], [213.0, 797.0], [212.0, 798.0], [211.0, 799.0], [210.0, 800.0], [209.0, 801.0], [208.0, 802.0], [207.0, 802.0], [206.0, 801.0], [205.0, 801.0], [204.0, 800.0], [203.0, 800.0], [202.0, 800.0], [201.0, 800.0], [200.0, 800.0], [199.0, 800.0], [198.0, 800.0], [197.0, 800.0], [196.0, 800.0], [195.0, 800.0], [194.0, 800.0], [193.0, 800.0], [192.0, 800.0], [191.0, 800.0], [190.0, 800.0], [189.0, 800.0], [188.0, 800.0], [187.0, 800.0], [186.0, 800.0], [185.0, 800.0], [184.0, 800.0], [183.0, 800.0]]}, "properties": {"id": 128}}, {"type": "Feature", "geometry": {"type": "LineString", "coordinates": [[726.0, 54.0], [725.0, 55.0], [724.0, 56.0], [723.0, 57.0], [722.0, 58.0], [721.0, 59.0], [720.0, 60.0], [719.0, 61.0], [718.0, 62.0], [717.0, 63.0], [716.0, 64.0], [715.0, 65.0], [714.0, 66.0], [713.0, 67.0], [712.0, 68.0], [711.0, 69.0], [710.0, 70.0], [709.0, 71.0], [708.0, 72.0], [707.0, 73.0], [706.0, 73.0], [705.0, 73.0], [704.0, 72.0], [703.0, 72.0]]}, "properties": {"id": 129}}, {"type": "Feature", "geometry": {"type": "LineString", "coordinates": [[408.0, 128.0], [409.0, 129.0], [410.0, 130.0], [411.0, 131.0], [412.0, 132.0], [413.0, 133.0], [414.0, 134.0], [415.0, 135.0], [416.0, 136.0], [417.0, 137.0], [418.0, 138.0], [419.0, 139.0], [420.0, 140.0], [421.0, 141.0], [422.0, 142.0], [423.0, 143.0], [424.0, 144.0], [425.0, 145.0], [426.0, 144.0], [427.0, 144.0], [428.0, 144.0], [429.0, 144.0], [430.0, 144.0], [431.0, 143.0], [432.0, 143.0]]}, "properties": {"id": 130}}, {"type": "Feature", "geometry": {"type": "LineString", "coordinates": [[740.0, 673.0], [741.0, 672.0], [742.0, 671.0], [743.0, 670.0], [744.0, 669.0], [745.0, 668.0], [746.0, 667.0], [747.0, 666.0], [748.0, 665.0], [749.0, 664.0], [750.0, 663.0], [751.0, 662.0], [752.0, 661.0]]}, "properties": {"id": 131}}, {"type": "Feature", "geometry": {"type": "LineString", "coordinates": [[32.0, 460.0], [31.0, 459.0], [30.0, 458.0], [29.0, 457.0], [28.0, 456.0], [27.0, 455.0], [26.0, 454.0], [25.0, 453.0], [24.0, 452.0], [23.0, 451.0], [22.0, 450.0], [21.0, 449.0], [20.0, 448.0], [19.0, 448.0], [18.0, 449.0], [17.0, 450.0], [16.0, 450.0], [15.0, 450.0], [14.0, 449.0], [13.0, 449.0], [12.0, 448.0], [11.0, 448.0], [10.0, 448.0], [9.0, 447.0], [8.0, 446.0], [7.0, 445.0], [6.0, 444.0], [5.0, 444.0], [4.0, 445.0], [3.0, 446.0], [2.0, 447.0], [1.0, 448.0], [0.0, 448.0]]}, "properties": {"id": 132}}, {"type": "Feature", "geometry": {"type": "LineString", "coordinates": [[928.0, 606.0], [929.0, 607.0], [930.0, 608.0], [931.0, 609.0], [932.0, 610.0], [933.0, 611.0], [934.0, 612.0], [935.0, 613.0], [936.0, 614.0], [936.0, 615.0], [936.0, 616.0], [935.0, 617.0], [934.0, 618.0], [933.0, 619.0], [932.0, 620.0], [931.0, 621.0], [930.0, 622.0], [929.0, 623.0], [929.0, 624.0]]}, "properties": {"id": 133}}, {"type": "Feature", "geometry": {"type": "LineString", "coordinates": [[603.0, 91.0], [604.0, 92.0], [605.0, 93.0], [606.0, 94.0], [607.0, 95.0], [608.0, 96.0], [608.0, 97.0], [607.0, 98.0], [606.0, 99.0], [605.0, 100.0], [604.0, 101.0], [603.0, 102.0], [602.0, 103.0], [601.0, 104.0], [601.0, 105.0], [602.0, 106.0], [603.0, 107.0], [604.0, 108.0], [605.0, 109.0], [606.0, 110.0], [607.0, 111.0], [607.0, 112.0]]}, "properties": {"id": 134}}, {"type": "Feature", "geometry": {"type": "LineString", "coordinates": [[949.0, 558.0], [948.0, 559.0], [947.0, 560.0], [946.0, 561.0], [945.0, 562.0], [946.0, 563.0], [947.0, 564.0], [948.0, 565.0], [949.0, 566.0], [950.0, 567.0], [951.0, 568.0], [952.0, 569.0], [953.0, 570.0], [954.0, 571.0], [955.0, 572.0], [956.0, 573.0], [957.0, 574.0], [958.0, 575.0], [959.0, 576.0], [960.0, 577.0], [961.0, 577.0]]}, "properties": {"id": 135}}, {"type": "Feature", "geometry": {"type": "LineString", "coordinates": [[407.0, 266.0], [406.0, 267.0], [405.0, 268.0], [404.0, 269.0], [403.0, 270.0], [402.0, 271.0], [401.0, 272.0], [400.0, 273.0], [399.0, 274.0], [398.0, 275.0], [397.0, 276.0], [396.0, 277.0], [395.0, 278.0], [394.0, 279.0], [394.0, 280.0], [395.0, 281.0], [396.0, 282.0], [397.0, 283.0], [398.0, 284.0], [399.0, 285.0], [400.0, 286.0], [401.0, 287.0], [402.0, 288.0], [403.0, 289.0], [404.0, 289.0], [405.0, 289.0], [406.0, 289.0], [407.0, 289.0], [408.0, 290.0], [409.0, 290.0], [410.0, 290.0], [411.0, 291.0], [412.0, 292.0], [413.0, 293.0], [414.0, 294.0], [415.0, 295.0], [416.0, 296.0], [417.0, 297.0], [418.0, 298.0], [419.0, 299.0], [420.0, 300.0], [421.0, 301.0], [422.0, 302.0], [423.0, 303.0], [424.0, 304.0], [425.0, 305.0], [426.0, 306.0], [427.0, 307.0], [428.0, 308.0], [429.0, 309.0], [430.0, 310.0], [431.0, 311.0], [432.0, 311.0], [433.0, 311.0], [434.0, 311.0], [435.0, 312.0], [436.0, 313.0], [437.0, 314.0], [438.0, 315.0], [439.0, 316.0], [440.0, 317.0], [441.0, 318.0], [442.0, 319.0]]}, "properties": {"id": 136}}, {"type": "Feature", "geometry": {"type": "LineString", "coordinates": [[599.0, 695.0], [598.0, 694.0], [597.0, 693.0], [597.0, 692.0], [598.0, 691.0], [598.0, 690.0], [599.0, 689.0], [599.0, 688.0]]}, "properties": {"id": 137}}, {"type": "Feature", "geometry": {"type": "LineString", "coordinates": [[34.0, 33.0], [35.0, 34.0], [36.0, 35.0], [37.0, 36.0], [38.0, 37.0], [39.0, 38.0], [40.0, 39.0], [41.0, 40.0], [41.0, 41.0], [40.0, 42.0], [39.0, 43.0], [38.0, 44.0], [38.0, 45.0], [39.0, 46.0], [39.0, 47.0], [39.0, 48.0], [39.0, 49.0]]}, "properties": {"id": 138}}, {"type": "Feature", "geometry": {"type": "LineString", "coordinates": [[957.0, 419.0], [956.0, 420.0], [955.0, 421.0], [954.0, 422.0], [953.0, 423.0], [952.0, 424.0], [951.0, 425.0], [950.0, 426.0], [949.0, 427.0], [948.0, 428.0], [947.0, 429.0], [946.0, 430.0], [945.0, 431.0], [944.0, 432.0], [943.0, 432.0], [942.0, 432.0], [941.0, 432.0], [940.0, 431.0], [939.0, 430.0], [938.0, 429.0], [937.0, 428.0], [936.0, 427.0], [935.0, 426.0], [934.0, 425.0], [933.0, 424.0], [932.0, 423.0], [931.0, 422.0], [930.0, 421.0], [929.0, 420.0], [928.0, 419.0], [927.0, 418.0], [926.0, 417.0], [925.0, 416.0], [925.0, 415.0], [924.0, 414.0], [923.0, 413.0], [922.0, 412.0], [921.0, 411.0], [920.0, 410.0], [919.0, 409.0], [918.0, 408.0], [917.0, 407.0], [916.0, 406.0], [915.0, 405.0], [914.0, 404.0], [913.0, 403.0]]}, "properties": {"id": 139}}, {"type": "Feature", "geometry": {"type": "LineString", "coordinates": [[591.0, 638.0], [592.0, 637.0], [593.0, 636.0], [594.0, 635.0], [595.0, 634.0], [596.0, 633.0], [597.0, 632.0], [598.0, 631.0], [598.0, 630.0], [597.0, 629.0], [597.0, 628.0], [597.0, 627.0], [597.0, 626.0], [597.0, 625.0], [597.0, 624.0], [597.0, 623.0], [597.0, 622.0], [597.0, 621.0], [597.0, 620.0], [598.0, 619.0], [598.0, 618.0], [599.0, 617.0], [599.0, 616.0], [600.0, 615.0], [601.0, 614.0], [602.0, 613.0], [603.0, 612.0], [604.0, 611.0], [605.0, 610.0], [606.0, 609.0], [607.0, 608.0], [608.0, 607.0], [609.0, 606.0], [610.0, 605.0], [611.0, 604.0], [612.0, 603.0], [613.0, 602.0], [613.0, 601.0], [613.0, 600.0], [613.0, 599.0]]}, "properties": {"id": 140}}, {"type": "Feature", "geometry": {"type": "LineString", "coordinates": [[0.0, 985.0], [1.0, 984.0], [2.0, 983.0], [3.0, 982.0], [4.0, 981.0], [5.0, 980.0], [6.0, 979.0], [7.0, 978.0], [8.0, 977.0], [9.0, 976.0], [10.0, 975.0], [11.0, 974.0], [12.0, 973.0], [13.0, 972.0], [14.0, 971.0], [15.0, 970.0], [16.0, 969.0], [16.0, 968.0], [16.0, 967.0], [16.0, 966.0], [16.0, 965.0], [16.0, 964.0], [16.0, 963.0], [16.0, 962.0], [16.0, 961.0], [16.0, 960.0], [16.0, 959.0], [16.0, 958.0], [17.0, 957.0], [17.0, 956.0], [18.0, 955.0], [19.0, 954.0], [20.0, 953.0], [21.0, 952.0], [22.0, 951.0], [22.0, 950.0], [21.0, 949.0], [20.0, 948.0], [19.0, 947.0], [18.0, 946.0], [17.0, 945.0], [16.0, 944.0], [15.0, 943.0], [15.0, 942.0], [15.0, 941.0], [15.0, 940.0], [15.0, 939.0]]}, "properties": {"id": 141}}, {"type": "Feature", "geometry": {"type": "LineString", "coordinates": [[265.0, 868.0], [266.0, 869.0], [267.0, 870.0], [268.0, 871.0], [269.0, 872.0], [270.0, 873.0], [271.0, 874.0], [272.0, 875.0], [273.0, 876.0], [274.0, 877.0], [275.0, 878.0], [276.0, 879.0], [277.0, 880.0], [278.0, 881.0], [279.0, 882.0], [280.0, 882.0], [281.0, 882.0], [282.0, 882.0], [283.0, 882.0], [284.0, 882.0], [285.0, 882.0], [286.0, 882.0], [287.0, 882.0], [288.0, 882.0], [289.0, 883.0], [290.0, 884.0], [291.0, 885.0], [292.0, 886.0], [293.0, 887.0], [294.0, 888.0], [295.0, 889.0], [296.0, 890.0], [297.0, 891.0], [298.0, 892.0], [299.0, 893.0], [300.0, 894.0], [301.0, 895.0], [302.0, 896.0], [303.0, 897.0], [304.0, 897.0], [305.0, 897.0], [306.0, 897.0]]}, "properties": {"id": 142}}]}