{"type": "FeatureCollection", "features": [{"type": "Feature", "geometry": {"type": "LineString", "coordinates": [[92.0, 243.0], [93.0, 242.0], [94.0, 241.0], [95.0, 240.0], [96.0, 240.0], [97.0, 240.0], [98.0, 240.0], [99.0, 240.0], [100.0, 240.0], [101.0, 240.0], [102.0, 240.0], [103.0, 240.0], [104.0, 240.0], [105.0, 240.0], [106.0, 240.0], [107.0, 240.0], [108.0, 240.0], [109.0, 240.0], [110.0, 240.0], [111.0, 240.0], [112.0, 240.0], [113.0, 240.0], [114.0, 240.0], [115.0, 240.0], [116.0, 240.0], [117.0, 240.0], [118.0, 240.0], [119.0, 240.0], [120.0, 240.0], [121.0, 240.0], [122.0, 240.0], [123.0, 240.0], [124.0, 240.0], [125.0, 240.0], [126.0, 240.0], [127.0, 240.0], [128.0, 240.0], [129.0, 241.0], [130.0, 242.0], [131.0, 243.0], [132.0, 244.0], [133.0, 245.0], [134.0, 245.0], [135.0, 245.0], [136.0, 246.0], [137.0, 247.0], [138.0, 247.0], [139.0, 247.0], [140.0, 247.0], [141.0, 247.0], [142.0, 247.0], [143.0, 247.0], [144.0, 247.0], [145.0, 247.0], [146.0, 247.0], [147.0, 247.0], [148.0, 247.0], [149.0, 247.0], [150.0, 247.0], [151.0, 247.0], [152.0, 248.0], [153.0, 248.0], [154.0, 248.0], [155.0, 248.0], [156.0, 248.0], [157.0, 248.0], [158.0, 248.0], [159.0, 248.0], [160.0, 248.0], [161.0, 248.0], [162.0, 248.0], [163.0, 248.0], [164.0, 248.0], [165.0, 248.0], [166.0, 248.0], [167.0, 248.0], [168.0, 248.0], [169.0, 248.0], [170.0, 248.0], [171.0, 248.0], [172.0, 248.0], [173.0, 248.0], [174.0, 249.0], [175.0, 250.0], [176.0, 251.0], [177.0, 252.0], [178.0, 253.0], [179.0, 254.0], [180.0, 255.0], [181.0, 255.0], [182.0, 256.0], [183.0, 257.0], [184.0, 258.0], [185.0, 259.0], [186.0, 260.0], [187.0, 261.0], [188.0, 262.0], [189.0, 263.0], [190.0, 263.0], [191.0, 263.0], [192.0, 263.0], [193.0, 263.0], [194.0, 263.0], [195.0, 263.0], [196.0, 263.0], [197.0, 263.0], [198.0, 263.0], [199.0, 263.0], [200.0, 264.0], [201.0, 264.0], [202.0, 264.0]]}, "properties": {"id": 0}}, {"type": "Feature", "geometry": {"type": "LineString", "coordinates": [[92.0, 243.0], [92.0, 244.0], [92.0, 245.0], [92.0, 246.0], [92.0, 247.0], [92.0, 248.0], [92.0, 249.0], [92.0, 250.0], [92.0, 251.0], [92.0, 252.0], [93.0, 253.0], [94.0, 254.0], [94.0, 255.0], [94.0, 256.0], [94.0, 257.0], [94.0, 258.0], [94.0, 259.0], [94.0, 260.0], [94.0, 261.0], [94.0, 262.0], [93.0, 263.0], [92.0, 264.0], [91.0, 265.0], [91.0, 266.0], [91.0, 267.0], [91.0, 268.0], [91.0, 269.0], [91.0, 270.0], [91.0, 271.0], [91.0, 272.0], [91.0, 273.0], [91.0, 274.0], [91.0, 275.0], [91.0, 276.0], [91.0, 277.0], [91.0, 278.0], [91.0, 279.0], [90.0, 280.0], [90.0, 281.0], [90.0, 282.0], [90.0, 283.0], [90.0, 284.0], [90.0, 285.0], [90.0, 286.0], [90.0, 287.0], [90.0, 288.0], [90.0, 289.0], [90.0, 290.0], [90.0, 291.0], [90.0, 292.0], [90.0, 293.0], [90.0, 294.0], [90.0, 295.0], [89.0, 296.0], [89.0, 297.0], [88.0, 298.0], [88.0, 299.0], [88.0, 300.0], [88.0, 301.0], [87.0, 302.0], [86.0, 303.0], [86.0, 304.0], [86.0, 305.0], [86.0, 306.0], [86.0, 307.0], [86.0, 308.0], [86.0, 309.0], [86.0, 310.0], [85.0, 311.0], [84.0, 312.0], [83.0, 313.0], [83.0, 314.0], [83.0, 315.0], [83.0, 316.0], [83.0, 317.0], [83.0, 318.0], [83.0, 319.0], [82.0, 320.0], [81.0, 321.0], [81.0, 322.0], [81.0, 323.0], [81.0, 324.0], [81.0, 325.0], [81.0, 326.0], [81.0, 327.0], [81.0, 328.0], [81.0, 329.0], [80.0, 330.0], [80.0, 331.0], [80.0, 332.0], [79.0, 333.0], [79.0, 334.0], [79.0, 335.0], [79.0, 336.0], [79.0, 337.0], [79.0, 338.0], [79.0, 339.0], [79.0, 340.0], [79.0, 341.0], [79.0, 342.0], [79.0, 343.0], [79.0, 344.0], [79.0, 345.0], [79.0, 346.0], [79.0, 347.0], [78.0, 348.0], [78.0, 349.0], [78.0, 350.0], [78.0, 351.0], [78.0, 352.0], [78.0, 353.0], [78.0, 354.0], [78.0, 355.0], [78.0, 356.0], [78.0, 357.0], [78.0, 358.0], [79.0, 359.0], [79.0, 360.0], [79.0, 361.0], [79.0, 362.0], [79.0, 363.0], [79.0, 364.0], [79.0, 365.0], [80.0, 366.0], [81.0, 367.0], [81.0, 368.0], [82.0, 369.0], [83.0, 370.0], [84.0, 371.0], [85.0, 372.0], [86.0, 373.0], [87.0, 374.0], [88.0, 375.0], [89.0, 376.0], [90.0, 377.0], [91.0, 378.0], [92.0, 379.0], [92.0, 380.0], [93.0, 381.0], [94.0, 382.0], [95.0, 383.0], [96.0, 384.0], [96.0, 385.0], [96.0, 386.0], [96.0, 387.0], [96.0, 388.0], [96.0, 389.0], [96.0, 390.0], [96.0, 391.0], [96.0, 392.0], [96.0, 393.0], [96.0, 394.0], [96.0, 395.0], [97.0, 396.0], [98.0, 397.0], [99.0, 398.0], [100.0, 399.0], [101.0, 399.0], [102.0, 399.0], [103.0, 400.0], [104.0, 401.0], [105.0, 402.0], [106.0, 403.0], [107.0, 404.0], [108.0, 405.0]]}, "properties": {"id": 1}}, {"type": "Feature", "geometry": {"type": "LineString", "coordinates": [[202.0, 264.0], [203.0, 264.0], [204.0, 263.0], [205.0, 263.0], [206.0, 263.0], [207.0, 263.0], [208.0, 263.0], [209.0, 263.0], [210.0, 263.0], [211.0, 263.0], [212.0, 263.0], [213.0, 263.0], [214.0, 262.0], [215.0, 261.0], [216.0, 260.0], [217.0, 259.0], [218.0, 258.0], [219.0, 258.0], [220.0, 258.0], [221.0, 258.0], [222.0, 258.0], [223.0, 258.0], [224.0, 258.0], [225.0, 258.0], [226.0, 258.0], [227.0, 258.0], [228.0, 258.0], [229.0, 258.0], [230.0, 258.0], [231.0, 259.0], [232.0, 260.0], [233.0, 261.0], [234.0, 262.0], [235.0, 263.0], [236.0, 264.0], [237.0, 265.0], [238.0, 266.0], [239.0, 267.0], [240.0, 268.0], [241.0, 269.0], [242.0, 270.0], [243.0, 271.0], [244.0, 272.0], [245.0, 273.0], [246.0, 274.0], [247.0, 274.0]]}, "properties": {"id": 2}}, {"type": "Feature", "geometry": {"type": "LineString", "coordinates": [[475.0, 173.0], [476.0, 172.0], [477.0, 171.0], [478.0, 170.0], [479.0, 169.0], [479.0, 168.0], [479.0, 167.0], [479.0, 166.0], [479.0, 165.0], [480.0, 164.0], [481.0, 163.0], [482.0, 162.0], [483.0, 161.0], [484.0, 160.0], [485.0, 159.0], [486.0, 158.0], [487.0, 157.0], [487.0, 156.0], [488.0, 155.0], [488.0, 154.0], [488.0, 153.0], [488.0, 152.0], [488.0, 151.0], [488.0, 150.0], [488.0, 149.0], [488.0, 148.0], [488.0, 147.0], [489.0, 146.0], [490.0, 145.0], [491.0, 144.0], [492.0, 143.0], [493.0, 142.0], [494.0, 141.0], [495.0, 140.0], [496.0, 139.0], [497.0, 138.0], [498.0, 137.0], [499.0, 136.0], [500.0, 136.0], [501.0, 135.0], [502.0, 135.0], [503.0, 135.0], [504.0, 135.0], [505.0, 134.0], [506.0, 133.0], [507.0, 132.0], [508.0, 131.0], [509.0, 130.0], [510.0, 129.0], [511.0, 128.0], [512.0, 128.0], [513.0, 128.0], [514.0, 128.0]]}, "properties": {"id": 3}}, {"type": "Feature", "geometry": {"type": "LineString", "coordinates": [[475.0, 173.0], [474.0, 173.0], [473.0, 173.0], [472.0, 173.0], [471.0, 173.0], [470.0, 173.0], [469.0, 173.0], [468.0, 173.0], [467.0, 173.0], [466.0, 173.0], [465.0, 173.0], [464.0, 174.0], [463.0, 175.0], [462.0, 176.0], [461.0, 177.0], [460.0, 178.0], [459.0, 179.0], [458.0, 180.0], [457.0, 181.0], [456.0, 182.0], [455.0, 183.0], [454.0, 184.0], [453.0, 185.0], [452.0, 186.0], [451.0, 187.0], [450.0, 188.0], [449.0, 189.0], [448.0, 190.0], [447.0, 191.0], [446.0, 191.0], [445.0, 191.0], [444.0, 191.0], [443.0, 191.0], [442.0, 191.0], [441.0, 191.0], [440.0, 191.0], [439.0, 191.0], [438.0, 191.0], [437.0, 191.0], [436.0, 192.0], [435.0, 192.0], [434.0, 193.0], [433.0, 193.0], [432.0, 193.0], [431.0, 193.0], [430.0, 193.0], [429.0, 193.0], [428.0, 193.0], [427.0, 193.0], [426.0, 193.0], [425.0, 193.0], [424.0, 194.0], [423.0, 195.0], [422.0, 196.0], [421.0, 197.0], [420.0, 198.0], [419.0, 199.0], [418.0, 200.0], [417.0, 201.0], [416.0, 202.0], [415.0, 203.0], [414.0, 204.0], [413.0, 205.0], [412.0, 206.0], [411.0, 207.0], [410.0, 208.0], [409.0, 209.0], [408.0, 210.0], [407.0, 211.0], [406.0, 212.0], [405.0, 213.0], [405.0, 214.0], [405.0, 215.0]]}, "properties": {"id": 4}}, {"type": "Feature", "geometry": {"type": "LineString", "coordinates": [[181.0, 43.0], [181.0, 44.0], [181.0, 45.0], [181.0, 46.0], [181.0, 47.0], [181.0, 48.0], [181.0, 49.0], [181.0, 50.0], [181.0, 51.0], [181.0, 52.0], [181.0, 53.0], [181.0, 54.0], [181.0, 55.0], [181.0, 56.0], [181.0, 57.0], [181.0, 58.0], [181.0, 59.0], [181.0, 60.0], [181.0, 61.0], [181.0, 62.0], [181.0, 63.0], [181.0, 64.0], [181.0, 65.0], [181.0, 66.0], [181.0, 67.0], [181.0, 68.0], [180.0, 69.0], [179.0, 70.0], [178.0, 71.0], [177.0, 72.0], [177.0, 73.0], [177.0, 74.0], [177.0, 75.0], [177.0, 76.0], [177.0, 77.0], [177.0, 78.0], [177.0, 79.0], [177.0, 80.0], [177.0, 81.0], [177.0, 82.0], [177.0, 83.0], [177.0, 84.0], [177.0, 85.0], [177.0, 86.0], [177.0, 87.0], [177.0, 88.0], [177.0, 89.0], [176.0, 90.0], [175.0, 91.0], [174.0, 92.0], [173.0, 93.0], [172.0, 94.0], [172.0, 95.0], [172.0, 96.0], [172.0, 97.0], [172.0, 98.0], [172.0, 99.0], [172.0, 100.0], [172.0, 101.0], [171.0, 102.0], [170.0, 103.0], [169.0, 104.0], [169.0, 105.0], [169.0, 106.0], [169.0, 107.0], [169.0, 108.0], [169.0, 109.0], [169.0, 110.0], [169.0, 111.0], [169.0, 112.0], [169.0, 113.0], [168.0, 114.0], [168.0, 115.0], [168.0, 116.0], [168.0, 117.0], [168.0, 118.0], [168.0, 119.0], [168.0, 120.0], [168.0, 121.0], [168.0, 122.0], [168.0, 123.0], [168.0, 124.0], [168.0, 125.0], [168.0, 126.0], [169.0, 127.0], [169.0, 128.0], [169.0, 129.0], [169.0, 130.0], [169.0, 131.0], [169.0, 132.0], [169.0, 133.0], [169.0, 134.0], [169.0, 135.0], [169.0, 136.0], [169.0, 137.0], [169.0, 138.0], [169.0, 139.0], [169.0, 140.0], [169.0, 141.0], [168.0, 142.0], [168.0, 143.0], [168.0, 144.0], [168.0, 145.0], [167.0, 146.0], [167.0, 147.0], [166.0, 148.0], [165.0, 149.0], [165.0, 150.0], [164.0, 151.0], [163.0, 152.0], [162.0, 153.0], [162.0, 154.0], [161.0, 155.0], [161.0, 156.0], [160.0, 157.0], [159.0, 158.0], [158.0, 159.0], [158.0, 160.0], [158.0, 161.0], [158.0, 162.0], [158.0, 163.0], [158.0, 164.0], [158.0, 165.0], [158.0, 166.0], [158.0, 167.0], [158.0, 168.0], [158.0, 169.0], [158.0, 170.0], [158.0, 171.0], [158.0, 172.0], [158.0, 173.0], [158.0, 174.0], [158.0, 175.0], [158.0, 176.0], [158.0, 177.0], [158.0, 178.0], [158.0, 179.0], [158.0, 180.0], [158.0, 181.0], [157.0, 182.0], [157.0, 183.0], [156.0, 184.0], [155.0, 185.0], [154.0, 186.0], [153.0, 187.0], [152.0, 188.0], [152.0, 189.0], [152.0, 190.0], [152.0, 191.0], [152.0, 192.0], [152.0, 193.0], [152.0, 194.0], [152.0, 195.0], [152.0, 196.0], [152.0, 197.0], [152.0, 198.0], [153.0, 199.0], [153.0, 200.0], [154.0, 201.0], [155.0, 202.0], [155.0, 203.0], [156.0, 204.0], [156.0, 205.0], [157.0, 206.0], [157.0, 207.0], [157.0, 208.0], [157.0, 209.0], [157.0, 210.0], [157.0, 211.0], [157.0, 212.0], [157.0, 213.0], [157.0, 214.0], [157.0, 215.0], [157.0, 216.0], [158.0, 217.0], [158.0, 218.0], [158.0, 219.0], [158.0, 220.0], [158.0, 221.0], [158.0, 222.0], [159.0, 223.0], [159.0, 224.0], [160.0, 225.0], [161.0, 226.0], [162.0, 227.0], [163.0, 228.0], [164.0, 229.0], [165.0, 230.0], [166.0, 231.0], [167.0, 232.0], [168.0, 232.0], [169.0, 232.0], [170.0, 232.0], [171.0, 233.0], [172.0, 234.0], [173.0, 235.0], [174.0, 236.0], [174.0, 237.0], [175.0, 238.0], [175.0, 239.0], [175.0, 240.0], [175.0, 241.0], [176.0, 242.0], [177.0, 243.0], [178.0, 244.0], [179.0, 245.0], [180.0, 246.0], [181.0, 247.0], [182.0, 248.0], [183.0, 249.0], [184.0, 250.0], [185.0, 251.0], [186.0, 252.0], [187.0, 253.0], [188.0, 254.0], [189.0, 255.0], [190.0, 256.0], [191.0, 256.0], [192.0, 256.0], [193.0, 256.0], [194.0, 257.0], [195.0, 258.0], [196.0, 259.0], [197.0, 260.0], [198.0, 261.0], [199.0, 262.0], [200.0, 263.0], [201.0, 264.0], [202.0, 264.0]]}, "properties": {"id": 5}}, {"type": "Feature", "geometry": {"type": "LineString", "coordinates": [[181.0, 43.0], [181.0, 44.0], [181.0, 45.0], [181.0, 46.0], [181.0, 47.0], [181.0, 48.0], [181.0, 49.0], [181.0, 50.0], [181.0, 51.0], [181.0, 52.0], [181.0, 53.0], [181.0, 54.0], [181.0, 55.0], [181.0, 56.0], [181.0, 57.0], [181.0, 58.0], [181.0, 59.0], [181.0, 60.0], [181.0, 61.0], [181.0, 62.0], [181.0, 63.0], [181.0, 64.0], [181.0, 65.0], [181.0, 66.0], [181.0, 67.0], [181.0, 68.0], [180.0, 69.0], [179.0, 70.0], [178.0, 71.0], [177.0, 72.0], [177.0, 73.0], [177.0, 74.0], [177.0, 75.0], [176.0, 76.0], [175.0, 77.0], [174.0, 78.0], [173.0, 79.0], [172.0, 80.0], [171.0, 81.0], [170.0, 82.0], [169.0, 83.0], [168.0, 84.0], [167.0, 85.0], [166.0, 86.0], [165.0, 87.0], [164.0, 88.0], [163.0, 89.0], [162.0, 90.0], [161.0, 91.0], [160.0, 92.0], [159.0, 93.0], [158.0, 94.0], [157.0, 95.0], [156.0, 96.0], [155.0, 97.0], [154.0, 98.0], [153.0, 99.0], [152.0, 99.0], [151.0, 99.0], [150.0, 99.0], [149.0, 99.0], [148.0, 100.0], [147.0, 101.0], [146.0, 102.0], [145.0, 103.0], [144.0, 104.0], [143.0, 105.0], [142.0, 106.0], [141.0, 107.0], [140.0, 107.0], [139.0, 108.0], [138.0, 109.0], [137.0, 110.0], [136.0, 111.0], [135.0, 111.0], [134.0, 111.0], [133.0, 112.0], [132.0, 113.0], [131.0, 114.0], [130.0, 115.0], [129.0, 116.0], [128.0, 117.0], [128.0, 118.0], [127.0, 119.0], [127.0, 120.0], [126.0, 121.0], [125.0, 122.0], [124.0, 123.0], [123.0, 124.0], [123.0, 125.0], [122.0, 126.0], [121.0, 127.0], [120.0, 128.0], [119.0, 129.0], [118.0, 130.0], [117.0, 131.0], [116.0, 132.0], [115.0, 133.0], [114.0, 134.0], [113.0, 135.0], [113.0, 136.0], [112.0, 137.0], [112.0, 138.0], [112.0, 139.0], [112.0, 140.0], [112.0, 141.0], [112.0, 142.0], [112.0, 143.0], [112.0, 144.0], [112.0, 145.0], [111.0, 146.0], [110.0, 147.0], [109.0, 148.0], [108.0, 149.0], [107.0, 150.0], [106.0, 151.0], [105.0, 151.0], [104.0, 151.0], [103.0, 151.0], [102.0, 151.0], [101.0, 152.0], [100.0, 153.0], [99.0, 154.0], [98.0, 155.0], [98.0, 156.0], [98.0, 157.0], [97.0, 158.0], [97.0, 159.0], [97.0, 160.0], [97.0, 161.0], [97.0, 162.0], [97.0, 163.0], [97.0, 164.0], [97.0, 165.0], [97.0, 166.0], [97.0, 167.0], [97.0, 168.0], [97.0, 169.0], [97.0, 170.0], [97.0, 171.0], [97.0, 172.0], [97.0, 173.0], [97.0, 174.0], [97.0, 175.0], [98.0, 176.0], [98.0, 177.0], [98.0, 178.0], [99.0, 179.0], [100.0, 180.0], [100.0, 181.0], [100.0, 182.0], [100.0, 183.0], [100.0, 184.0], [100.0, 185.0], [100.0, 186.0], [100.0, 187.0], [100.0, 188.0], [100.0, 189.0], [99.0, 190.0], [98.0, 191.0], [97.0, 192.0], [97.0, 193.0], [97.0, 194.0], [97.0, 195.0], [97.0, 196.0], [97.0, 197.0], [97.0, 198.0], [97.0, 199.0], [97.0, 200.0], [97.0, 201.0], [97.0, 202.0], [97.0, 203.0], [97.0, 204.0], [97.0, 205.0], [96.0, 206.0], [96.0, 207.0], [95.0, 208.0], [94.0, 209.0], [93.0, 210.0], [92.0, 211.0], [91.0, 212.0], [90.0, 213.0], [89.0, 214.0], [88.0, 215.0], [88.0, 216.0], [88.0, 217.0], [88.0, 218.0], [88.0, 219.0], [88.0, 220.0], [88.0, 221.0], [88.0, 222.0], [88.0, 223.0], [88.0, 224.0], [88.0, 225.0], [88.0, 226.0], [88.0, 227.0], [89.0, 228.0], [90.0, 229.0], [90.0, 230.0], [90.0, 231.0], [90.0, 232.0], [90.0, 233.0], [90.0, 234.0], [90.0, 235.0], [90.0, 236.0], [90.0, 237.0], [90.0, 238.0], [90.0, 239.0], [91.0, 240.0], [92.0, 241.0], [92.0, 242.0], [92.0, 243.0]]}, "properties": {"id": 6}}, {"type": "Feature", "geometry": {"type": "LineString", "coordinates": [[156.0, 946.0], [157.0, 946.0], [158.0, 946.0], [159.0, 946.0], [160.0, 946.0], [161.0, 946.0], [162.0, 946.0], [163.0, 946.0], [164.0, 946.0], [165.0, 946.0], [166.0, 946.0], [167.0, 946.0], [168.0, 946.0], [169.0, 946.0], [170.0, 946.0], [171.0, 946.0], [172.0, 946.0], [173.0, 947.0], [174.0, 948.0], [175.0, 949.0], [176.0, 950.0], [177.0, 951.0], [178.0, 951.0], [179.0, 951.0], [180.0, 951.0], [181.0, 951.0], [182.0, 951.0], [183.0, 951.0], [184.0, 951.0], [185.0, 951.0], [186.0, 951.0], [187.0, 951.0], [188.0, 951.0], [189.0, 951.0], [190.0, 951.0], [191.0, 951.0], [192.0, 950.0], [193.0, 949.0], [194.0, 948.0], [195.0, 948.0], [196.0, 948.0], [197.0, 948.0], [198.0, 948.0], [199.0, 948.0], [200.0, 948.0], [201.0, 948.0]]}, "properties": {"id": 7}}, {"type": "Feature", "geometry": {"type": "LineString", "coordinates": [[156.0, 946.0], [155.0, 946.0], [154.0, 945.0], [153.0, 945.0], [152.0, 944.0], [151.0, 943.0], [150.0, 942.0], [149.0, 941.0], [148.0, 940.0], [147.0, 939.0], [146.0, 938.0], [146.0, 937.0], [146.0, 936.0], [145.0, 935.0], [144.0, 934.0], [143.0, 933.0], [142.0, 932.0], [141.0, 931.0], [140.0, 930.0], [139.0, 929.0], [138.0, 928.0], [137.0, 927.0], [136.0, 926.0], [136.0, 925.0], [136.0, 924.0], [136.0, 923.0], [136.0, 922.0], [136.0, 921.0], [136.0, 920.0], [136.0, 919.0], [136.0, 918.0], [136.0, 917.0], [136.0, 916.0], [136.0, 915.0], [136.0, 914.0], [136.0, 913.0], [136.0, 912.0], [136.0, 911.0], [136.0, 910.0], [136.0, 909.0], [136.0, 908.0], [136.0, 907.0], [136.0, 906.0], [136.0, 905.0], [136.0, 904.0], [136.0, 903.0], [136.0, 902.0], [136.0, 901.0], [136.0, 900.0], [136.0, 899.0], [136.0, 898.0], [136.0, 897.0], [137.0, 896.0], [137.0, 895.0], [137.0, 894.0], [137.0, 893.0], [137.0, 892.0], [137.0, 891.0], [137.0, 890.0], [138.0, 889.0], [138.0, 888.0], [139.0, 887.0], [140.0, 886.0], [141.0, 885.0], [142.0, 884.0], [142.0, 883.0], [143.0, 882.0], [143.0, 881.0], [143.0, 880.0], [143.0, 879.0], [143.0, 878.0], [143.0, 877.0], [144.0, 876.0], [144.0, 875.0], [144.0, 874.0], [144.0, 873.0], [144.0, 872.0], [144.0, 871.0], [144.0, 870.0], [144.0, 869.0], [144.0, 868.0], [144.0, 867.0], [145.0, 866.0], [145.0, 865.0]]}, "properties": {"id": 8}}, {"type": "Feature", "geometry": {"type": "LineString", "coordinates": [[145.0, 865.0], [146.0, 865.0], [147.0, 865.0], [148.0, 865.0], [149.0, 866.0], [150.0, 866.0], [151.0, 867.0], [152.0, 868.0], [153.0, 869.0], [154.0, 870.0], [155.0, 871.0], [156.0, 872.0], [157.0, 873.0], [158.0, 874.0], [159.0, 875.0], [160.0, 876.0], [161.0, 877.0], [162.0, 878.0], [163.0, 879.0], [164.0, 880.0], [165.0, 881.0], [166.0, 882.0], [167.0, 883.0], [168.0, 884.0], [169.0, 885.0], [169.0, 886.0], [169.0, 887.0], [169.0, 888.0], [169.0, 889.0], [169.0, 890.0], [169.0, 891.0], [169.0, 892.0], [169.0, 893.0], [169.0, 894.0], [169.0, 895.0], [169.0, 896.0], [169.0, 897.0], [169.0, 898.0], [169.0, 899.0], [169.0, 900.0], [169.0, 901.0], [169.0, 902.0], [170.0, 903.0], [171.0, 904.0], [172.0, 905.0], [173.0, 906.0], [174.0, 907.0], [175.0, 908.0], [175.0, 909.0], [175.0, 910.0], [175.0, 911.0], [175.0, 912.0], [175.0, 913.0], [175.0, 914.0], [175.0, 915.0], [176.0, 916.0], [177.0, 917.0], [178.0, 918.0], [179.0, 919.0], [180.0, 920.0], [180.0, 921.0], [180.0, 922.0], [180.0, 923.0], [180.0, 924.0], [181.0, 925.0], [182.0, 926.0], [183.0, 927.0], [184.0, 928.0], [185.0, 929.0], [186.0, 930.0], [187.0, 931.0], [188.0, 932.0], [189.0, 933.0], [190.0, 934.0], [191.0, 935.0], [192.0, 936.0], [193.0, 937.0], [194.0, 938.0], [195.0, 939.0], [196.0, 940.0], [197.0, 941.0], [198.0, 942.0], [199.0, 943.0], [200.0, 944.0], [201.0, 945.0], [201.0, 946.0], [201.0, 947.0], [201.0, 948.0]]}, "properties": {"id": 9}}, {"type": "Feature", "geometry": {"type": "LineString", "coordinates": [[412.0, 109.0], [411.0, 110.0], [410.0, 111.0], [410.0, 112.0], [410.0, 113.0], [409.0, 114.0], [409.0, 115.0], [409.0, 116.0], [408.0, 117.0], [407.0, 118.0], [406.0, 119.0], [406.0, 120.0], [406.0, 121.0], [405.0, 122.0], [404.0, 123.0], [403.0, 124.0], [402.0, 125.0], [402.0, 126.0], [402.0, 127.0], [402.0, 128.0], [402.0, 129.0], [402.0, 130.0], [402.0, 131.0], [401.0, 132.0], [401.0, 133.0], [401.0, 134.0], [401.0, 135.0], [402.0, 136.0], [403.0, 137.0], [404.0, 138.0], [405.0, 139.0], [406.0, 140.0], [406.0, 141.0], [406.0, 142.0], [406.0, 143.0], [406.0, 144.0], [406.0, 145.0], [406.0, 146.0], [406.0, 147.0], [406.0, 148.0], [406.0, 149.0], [406.0, 150.0], [406.0, 151.0], [406.0, 152.0], [406.0, 153.0], [406.0, 154.0], [405.0, 155.0], [404.0, 156.0], [403.0, 157.0], [403.0, 158.0], [402.0, 159.0], [402.0, 160.0], [402.0, 161.0], [402.0, 162.0], [402.0, 163.0], [402.0, 164.0], [402.0, 165.0], [402.0, 166.0], [402.0, 167.0], [402.0, 168.0], [402.0, 169.0], [402.0, 170.0], [402.0, 171.0], [402.0, 172.0], [402.0, 173.0], [402.0, 174.0], [402.0, 175.0], [402.0, 176.0], [402.0, 177.0], [402.0, 178.0], [402.0, 179.0], [401.0, 180.0], [400.0, 181.0], [399.0, 182.0], [399.0, 183.0], [399.0, 184.0], [399.0, 185.0], [399.0, 186.0], [399.0, 187.0], [399.0, 188.0], [399.0, 189.0], [399.0, 190.0], [399.0, 191.0], [399.0, 192.0], [399.0, 193.0], [399.0, 194.0], [399.0, 195.0], [399.0, 196.0], [399.0, 197.0], [399.0, 198.0], [399.0, 199.0], [399.0, 200.0], [399.0, 201.0], [399.0, 202.0], [399.0, 203.0], [399.0, 204.0], [399.0, 205.0], [400.0, 206.0], [401.0, 207.0], [402.0, 208.0], [403.0, 209.0], [404.0, 210.0], [405.0, 211.0], [405.0, 212.0], [405.0, 213.0], [405.0, 214.0], [405.0, 215.0]]}, "properties": {"id": 10}}, {"type": "Feature", "geometry": {"type": "LineString", "coordinates": [[412.0, 109.0], [413.0, 108.0], [414.0, 107.0], [415.0, 106.0], [416.0, 105.0], [417.0, 104.0], [418.0, 104.0], [419.0, 104.0], [420.0, 104.0], [421.0, 104.0], [422.0, 104.0], [423.0, 104.0], [424.0, 104.0], [425.0, 104.0], [426.0, 104.0], [427.0, 104.0], [428.0, 104.0], [429.0, 104.0], [430.0, 104.0], [431.0, 104.0], [432.0, 104.0], [433.0, 104.0], [434.0, 105.0], [435.0, 105.0], [436.0, 106.0], [437.0, 106.0], [438.0, 107.0], [439.0, 108.0], [440.0, 109.0], [441.0, 110.0], [442.0, 111.0], [443.0, 112.0], [444.0, 113.0], [445.0, 114.0], [446.0, 115.0], [447.0, 116.0], [448.0, 117.0], [449.0, 118.0], [450.0, 119.0], [451.0, 120.0], [452.0, 121.0], [453.0, 122.0], [454.0, 123.0], [455.0, 124.0], [456.0, 125.0], [457.0, 126.0], [458.0, 127.0], [459.0, 128.0], [460.0, 128.0], [461.0, 128.0], [462.0, 128.0], [463.0, 128.0], [464.0, 128.0], [465.0, 128.0], [466.0, 128.0], [467.0, 128.0], [468.0, 128.0], [469.0, 128.0], [470.0, 128.0], [471.0, 128.0], [472.0, 128.0], [473.0, 128.0], [474.0, 128.0], [475.0, 128.0], [476.0, 128.0], [477.0, 128.0], [478.0, 128.0], [479.0, 128.0], [480.0, 128.0], [481.0, 128.0], [482.0, 128.0], [483.0, 128.0], [484.0, 128.0], [485.0, 128.0], [486.0, 128.0], [487.0, 128.0], [488.0, 128.0], [489.0, 128.0], [490.0, 128.0], [491.0, 128.0], [492.0, 128.0], [493.0, 128.0], [494.0, 128.0], [495.0, 128.0], [496.0, 128.0], [497.0, 128.0], [498.0, 128.0], [499.0, 128.0], [500.0, 128.0], [501.0, 128.0], [502.0, 128.0], [503.0, 128.0], [504.0, 128.0], [505.0, 128.0], [506.0, 128.0], [507.0, 128.0], [508.0, 128.0], [509.0, 128.0], [510.0, 128.0], [511.0, 128.0], [512.0, 128.0], [513.0, 128.0], [514.0, 128.0]]}, "properties": {"id": 11}}, {"type": "Feature", "geometry": {"type": "LineString", "coordinates": [[908.0, 734.0], [908.0, 735.0], [908.0, 736.0], [908.0, 737.0], [908.0, 738.0], [908.0, 739.0], [907.0, 740.0], [906.0, 741.0], [905.0, 742.0], [904.0, 743.0], [904.0, 744.0], [904.0, 745.0], [903.0, 746.0], [902.0, 747.0], [901.0, 748.0], [900.0, 749.0], [899.0, 750.0], [898.0, 751.0], [897.0, 752.0], [896.0, 753.0], [895.0, 754.0], [894.0, 755.0], [893.0, 756.0], [892.0, 757.0], [891.0, 758.0], [891.0, 759.0], [891.0, 760.0], [891.0, 761.0], [891.0, 762.0], [890.0, 763.0], [889.0, 764.0], [888.0, 765.0], [887.0, 766.0], [886.0, 767.0], [885.0, 768.0], [884.0, 769.0], [883.0, 770.0], [882.0, 771.0], [881.0, 772.0], [880.0, 773.0], [879.0, 774.0], [879.0, 775.0], [879.0, 776.0], [879.0, 777.0], [879.0, 778.0], [879.0, 779.0], [879.0, 780.0], [879.0, 781.0], [879.0, 782.0], [879.0, 783.0], [879.0, 784.0], [879.0, 785.0], [879.0, 786.0], [879.0, 787.0], [879.0, 788.0], [879.0, 789.0], [879.0, 790.0], [879.0, 791.0], [879.0, 792.0], [879.0, 793.0], [879.0, 794.0], [880.0, 795.0], [880.0, 796.0], [880.0, 797.0], [880.0, 798.0], [880.0, 799.0], [880.0, 800.0], [880.0, 801.0], [880.0, 802.0], [880.0, 803.0], [880.0, 804.0], [880.0, 805.0], [880.0, 806.0], [880.0, 807.0], [880.0, 808.0], [880.0, 809.0], [880.0, 810.0], [880.0, 811.0], [880.0, 812.0], [880.0, 813.0], [880.0, 814.0], [880.0, 815.0], [880.0, 816.0], [880.0, 817.0], [880.0, 818.0], [880.0, 819.0], [880.0, 820.0], [880.0, 821.0], [880.0, 822.0], [880.0, 823.0], [880.0, 824.0], [881.0, 825.0], [882.0, 826.0], [883.0, 827.0], [884.0, 828.0], [885.0, 829.0], [886.0, 830.0], [887.0, 831.0], [888.0, 832.0], [888.0, 833.0], [889.0, 834.0], [890.0, 835.0], [890.0, 836.0], [891.0, 837.0], [892.0, 838.0], [893.0, 839.0], [894.0, 840.0], [895.0, 841.0], [896.0, 842.0], [897.0, 843.0], [897.0, 844.0], [897.0, 845.0], [897.0, 846.0], [897.0, 847.0], [897.0, 848.0], [897.0, 849.0], [898.0, 850.0], [898.0, 851.0], [899.0, 852.0], [900.0, 853.0], [901.0, 854.0], [902.0, 855.0], [903.0, 856.0], [904.0, 857.0], [905.0, 858.0], [905.0, 859.0], [905.0, 860.0], [905.0, 861.0], [905.0, 862.0], [905.0, 863.0], [905.0, 864.0], [905.0, 865.0], [905.0, 866.0], [905.0, 867.0], [905.0, 868.0], [905.0, 869.0], [905.0, 870.0], [905.0, 871.0], [905.0, 872.0], [905.0, 873.0], [905.0, 874.0], [905.0, 875.0], [905.0, 876.0], [905.0, 877.0], [905.0, 878.0], [905.0, 879.0], [905.0, 880.0], [905.0, 881.0]]}, "properties": {"id": 12}}, {"type": "Feature", "geometry": {"type": "LineString", "coordinates": [[514.0, 128.0], [515.0, 128.0], [516.0, 128.0], [517.0, 128.0], [518.0, 128.0], [519.0, 128.0], [520.0, 128.0], [521.0, 128.0], [522.0, 128.0], [523.0, 128.0], [524.0, 128.0], [525.0, 128.0], [526.0, 128.0], [527.0, 128.0], [528.0, 128.0], [529.0, 128.0], [530.0, 128.0], [531.0, 128.0], [532.0, 128.0], [533.0, 128.0], [534.0, 128.0], [535.0, 128.0], [536.0, 128.0], [537.0, 128.0], [538.0, 128.0], [539.0, 128.0], [540.0, 128.0], [541.0, 128.0], [542.0, 128.0], [543.0, 128.0], [544.0, 128.0], [545.0, 128.0], [546.0, 128.0], [547.0, 128.0], [548.0, 128.0], [549.0, 128.0], [550.0, 128.0], [551.0, 128.0], [552.0, 128.0], [553.0, 128.0], [554.0, 128.0], [555.0, 128.0], [556.0, 128.0], [557.0, 128.0], [558.0, 128.0], [559.0, 128.0], [560.0, 128.0], [561.0, 128.0], [562.0, 128.0], [563.0, 128.0], [564.0, 128.0], [565.0, 128.0], [566.0, 128.0], [567.0, 128.0], [568.0, 128.0], [569.0, 128.0], [570.0, 128.0], [571.0, 128.0], [572.0, 128.0], [573.0, 128.0], [574.0, 128.0], [575.0, 128.0], [576.0, 128.0], [577.0, 128.0], [578.0, 128.0], [579.0, 128.0], [580.0, 128.0], [581.0, 128.0], [582.0, 128.0], [583.0, 128.0], [584.0, 128.0], [585.0, 128.0], [586.0, 128.0], [587.0, 128.0], [588.0, 128.0], [589.0, 128.0], [590.0, 128.0], [591.0, 127.0], [592.0, 126.0], [593.0, 125.0], [594.0, 124.0], [595.0, 123.0], [596.0, 122.0], [597.0, 122.0], [598.0, 121.0], [599.0, 121.0], [600.0, 120.0], [601.0, 120.0], [602.0, 119.0], [603.0, 119.0], [604.0, 118.0], [605.0, 117.0], [606.0, 117.0], [607.0, 117.0], [608.0, 117.0], [609.0, 117.0]]}, "properties": {"id": 13}}, {"type": "Feature", "geometry": {"type": "LineString", "coordinates": [[108.0, 405.0], [109.0, 404.0], [110.0, 403.0], [111.0, 402.0], [112.0, 401.0], [112.0, 400.0], [112.0, 399.0], [112.0, 398.0], [112.0, 397.0], [112.0, 396.0], [112.0, 395.0], [112.0, 394.0], [112.0, 393.0], [112.0, 392.0], [112.0, 391.0], [112.0, 390.0], [112.0, 389.0], [112.0, 388.0], [112.0, 387.0], [112.0, 386.0], [112.0, 385.0], [112.0, 384.0], [112.0, 383.0], [112.0, 382.0], [112.0, 381.0], [112.0, 380.0], [112.0, 379.0], [112.0, 378.0], [112.0, 377.0], [112.0, 376.0], [112.0, 375.0], [113.0, 374.0], [114.0, 373.0], [115.0, 372.0], [116.0, 371.0], [116.0, 370.0], [116.0, 369.0], [117.0, 368.0], [118.0, 367.0], [119.0, 366.0], [120.0, 365.0], [121.0, 364.0], [122.0, 363.0], [122.0, 362.0], [122.0, 361.0], [122.0, 360.0], [122.0, 359.0], [122.0, 358.0], [122.0, 357.0], [122.0, 356.0], [122.0, 355.0], [122.0, 354.0], [122.0, 353.0], [123.0, 352.0], [123.0, 351.0], [123.0, 350.0], [123.0, 349.0], [123.0, 348.0], [124.0, 347.0], [125.0, 346.0], [126.0, 345.0], [126.0, 344.0], [126.0, 343.0], [126.0, 342.0], [126.0, 341.0], [127.0, 340.0], [128.0, 339.0], [129.0, 338.0], [130.0, 337.0], [130.0, 336.0], [130.0, 335.0], [130.0, 334.0], [130.0, 333.0], [130.0, 332.0], [130.0, 331.0], [130.0, 330.0], [130.0, 329.0], [130.0, 328.0], [130.0, 327.0], [130.0, 326.0], [130.0, 325.0], [130.0, 324.0], [130.0, 323.0], [130.0, 322.0], [130.0, 321.0], [131.0, 320.0], [131.0, 319.0], [131.0, 318.0], [131.0, 317.0], [131.0, 316.0], [132.0, 315.0], [133.0, 314.0], [134.0, 313.0], [135.0, 312.0], [136.0, 311.0], [137.0, 310.0], [138.0, 309.0], [138.0, 308.0], [139.0, 307.0], [140.0, 306.0], [141.0, 305.0], [141.0, 304.0], [142.0, 303.0], [142.0, 302.0], [142.0, 301.0], [142.0, 300.0], [143.0, 299.0], [143.0, 298.0], [143.0, 297.0], [143.0, 296.0], [143.0, 295.0], [143.0, 294.0], [143.0, 293.0], [143.0, 292.0], [143.0, 291.0], [143.0, 290.0], [143.0, 289.0], [143.0, 288.0], [143.0, 287.0], [143.0, 286.0], [143.0, 285.0], [143.0, 284.0], [143.0, 283.0], [143.0, 282.0], [143.0, 281.0], [143.0, 280.0], [143.0, 279.0], [143.0, 278.0], [143.0, 277.0], [143.0, 276.0], [143.0, 275.0], [143.0, 274.0], [143.0, 273.0], [144.0, 272.0], [145.0, 271.0], [146.0, 270.0], [147.0, 269.0], [148.0, 268.0], [149.0, 267.0], [150.0, 266.0], [151.0, 265.0], [152.0, 264.0], [153.0, 264.0], [154.0, 264.0], [155.0, 264.0], [156.0, 264.0], [157.0, 264.0], [158.0, 264.0], [159.0, 264.0], [160.0, 264.0], [161.0, 264.0], [162.0, 264.0], [163.0, 264.0], [164.0, 264.0], [165.0, 264.0], [166.0, 264.0], [167.0, 263.0], [168.0, 262.0], [169.0, 262.0], [170.0, 262.0], [171.0, 262.0], [172.0, 261.0], [173.0, 260.0], [174.0, 259.0], [175.0, 258.0], [176.0, 257.0], [177.0, 257.0], [178.0, 257.0], [179.0, 257.0], [180.0, 257.0], [181.0, 257.0], [182.0, 257.0], [183.0, 257.0], [184.0, 258.0], [185.0, 259.0], [186.0, 260.0], [187.0, 261.0], [188.0, 262.0], [189.0, 263.0], [190.0, 263.0], [191.0, 263.0], [192.0, 263.0], [193.0, 263.0], [194.0, 263.0], [195.0, 263.0], [196.0, 263.0], [197.0, 263.0], [198.0, 263.0], [199.0, 263.0], [200.0, 264.0], [201.0, 264.0], [202.0, 264.0]]}, "properties": {"id": 14}}, {"type": "Feature", "geometry": {"type": "LineString", "coordinates": [[247.0, 274.0], [246.0, 273.0], [245.0, 272.0], [244.0, 271.0], [243.0, 270.0], [242.0, 269.0], [241.0, 268.0], [240.0, 267.0], [239.0, 266.0], [238.0, 265.0], [237.0, 264.0], [236.0, 263.0], [235.0, 262.0], [234.0, 261.0], [233.0, 260.0], [232.0, 259.0], [231.0, 258.0], [230.0, 257.0], [229.0, 257.0], [228.0, 257.0], [227.0, 257.0], [226.0, 257.0], [225.0, 256.0], [224.0, 256.0], [223.0, 256.0], [222.0, 256.0], [221.0, 256.0], [220.0, 256.0], [219.0, 256.0], [218.0, 256.0], [217.0, 256.0], [216.0, 256.0], [215.0, 256.0], [214.0, 256.0], [213.0, 256.0], [212.0, 256.0], [211.0, 256.0], [210.0, 256.0], [209.0, 256.0], [208.0, 256.0], [207.0, 256.0], [206.0, 256.0], [205.0, 256.0], [204.0, 256.0], [203.0, 256.0], [202.0, 256.0], [201.0, 256.0], [200.0, 256.0], [199.0, 256.0], [198.0, 256.0], [197.0, 256.0], [196.0, 256.0], [195.0, 256.0], [194.0, 256.0], [193.0, 256.0], [192.0, 256.0], [191.0, 256.0], [190.0, 256.0], [189.0, 256.0], [188.0, 256.0], [187.0, 256.0], [186.0, 256.0], [185.0, 256.0], [184.0, 256.0], [183.0, 256.0], [182.0, 256.0], [181.0, 255.0], [180.0, 254.0], [179.0, 253.0], [178.0, 252.0], [177.0, 251.0], [176.0, 250.0], [175.0, 249.0], [174.0, 248.0], [173.0, 248.0], [172.0, 248.0], [171.0, 248.0], [170.0, 248.0], [169.0, 248.0], [168.0, 248.0], [167.0, 248.0], [166.0, 248.0], [165.0, 248.0], [164.0, 248.0], [163.0, 248.0], [162.0, 248.0], [161.0, 248.0], [160.0, 248.0], [159.0, 248.0], [158.0, 248.0], [157.0, 248.0], [156.0, 248.0], [155.0, 248.0], [154.0, 248.0], [153.0, 248.0], [152.0, 248.0], [151.0, 247.0], [150.0, 247.0], [149.0, 247.0], [148.0, 247.0], [147.0, 247.0], [146.0, 247.0], [145.0, 247.0], [144.0, 247.0], [143.0, 247.0], [142.0, 247.0], [141.0, 247.0], [140.0, 247.0], [139.0, 247.0], [138.0, 247.0], [137.0, 247.0], [136.0, 247.0], [135.0, 246.0], [134.0, 245.0], [133.0, 245.0], [132.0, 245.0], [131.0, 244.0], [130.0, 243.0], [129.0, 242.0], [128.0, 241.0], [127.0, 240.0], [126.0, 240.0], [125.0, 240.0], [124.0, 240.0], [123.0, 240.0], [122.0, 240.0], [121.0, 240.0], [120.0, 240.0], [119.0, 240.0], [118.0, 240.0], [117.0, 240.0], [116.0, 240.0], [115.0, 240.0], [114.0, 240.0], [113.0, 240.0], [112.0, 240.0], [111.0, 240.0], [110.0, 240.0], [109.0, 240.0], [108.0, 240.0], [107.0, 240.0], [106.0, 240.0], [105.0, 240.0], [104.0, 240.0], [103.0, 240.0], [102.0, 240.0], [101.0, 240.0], [100.0, 240.0], [99.0, 240.0], [98.0, 240.0], [97.0, 240.0], [96.0, 240.0], [95.0, 241.0], [94.0, 242.0], [93.0, 243.0], [92.0, 243.0]]}, "properties": {"id": 15}}, {"type": "Feature", "geometry": {"type": "LineString", "coordinates": [[609.0, 117.0], [608.0, 117.0], [607.0, 117.0], [606.0, 117.0], [605.0, 117.0], [604.0, 117.0], [603.0, 118.0], [602.0, 119.0], [601.0, 120.0], [600.0, 120.0], [599.0, 121.0], [598.0, 121.0], [597.0, 122.0], [596.0, 122.0], [595.0, 123.0], [594.0, 124.0], [593.0, 124.0], [592.0, 125.0], [591.0, 125.0], [590.0, 125.0], [589.0, 125.0], [588.0, 125.0], [587.0, 125.0], [586.0, 126.0], [585.0, 127.0], [584.0, 128.0], [583.0, 128.0], [582.0, 128.0], [581.0, 128.0], [580.0, 128.0], [579.0, 128.0], [578.0, 128.0], [577.0, 128.0], [576.0, 128.0], [575.0, 128.0], [574.0, 128.0], [573.0, 128.0], [572.0, 128.0], [571.0, 128.0], [570.0, 128.0], [569.0, 128.0], [568.0, 128.0], [567.0, 128.0], [566.0, 128.0], [565.0, 128.0], [564.0, 128.0], [563.0, 128.0], [562.0, 128.0], [561.0, 128.0], [560.0, 128.0], [559.0, 128.0], [558.0, 128.0], [557.0, 128.0], [556.0, 128.0], [555.0, 128.0], [554.0, 128.0], [553.0, 128.0], [552.0, 128.0], [551.0, 128.0], [550.0, 128.0], [549.0, 128.0], [548.0, 128.0], [547.0, 128.0], [546.0, 128.0], [545.0, 128.0], [544.0, 128.0], [543.0, 128.0], [542.0, 128.0], [541.0, 128.0], [540.0, 128.0], [539.0, 128.0], [538.0, 128.0], [537.0, 128.0], [536.0, 128.0], [535.0, 128.0], [534.0, 129.0], [533.0, 130.0], [532.0, 131.0], [531.0, 132.0], [530.0, 133.0], [529.0, 134.0], [528.0, 135.0], [527.0, 135.0], [526.0, 135.0], [525.0, 135.0], [524.0, 135.0], [523.0, 136.0], [522.0, 137.0], [521.0, 138.0], [520.0, 139.0], [519.0, 140.0], [518.0, 141.0], [517.0, 142.0], [516.0, 142.0], [515.0, 142.0], [514.0, 142.0], [513.0, 143.0], [512.0, 143.0], [511.0, 143.0], [510.0, 143.0], [509.0, 144.0], [508.0, 144.0], [507.0, 145.0], [506.0, 146.0], [505.0, 147.0], [504.0, 148.0], [503.0, 149.0], [502.0, 150.0], [501.0, 151.0], [500.0, 152.0], [499.0, 153.0], [498.0, 154.0], [497.0, 155.0], [496.0, 155.0], [495.0, 155.0], [494.0, 155.0], [493.0, 155.0], [492.0, 155.0], [491.0, 156.0], [490.0, 157.0], [489.0, 158.0], [488.0, 159.0], [487.0, 160.0], [486.0, 161.0], [485.0, 162.0], [484.0, 163.0], [483.0, 164.0], [482.0, 165.0], [481.0, 166.0], [480.0, 167.0], [479.0, 168.0], [479.0, 169.0], [478.0, 170.0], [477.0, 171.0], [476.0, 172.0], [475.0, 173.0]]}, "properties": {"id": 16}}]}